{"type":"FeatureCollection","features":[{"type":"Feature","geometry":{"type":"Polygon","coordinates":[[[26.042746423137793,44.61167515139863],[26.04469826594714,44.608703711352774],[26.044789096261855,44.608735278830025],[26.042837499736226,44.61170634393928],[26.042746423137793,44.61167515139863]]]},"properties":{"proiect":"corbeanca-nord","banda":-1}},{"type":"Feature","geometry":{"type":"Polygon","coordinates":[[[26.04433846170078,44.61222040372967],[26.04628659456119,44.6092546116237],[26.04637786247404,44.60928551291174],[26.044429538299216,44.612251596270326],[26.04433846170078,44.61222040372967]]]},"properties":{"proiect":"corbeanca-nord","banda":-1}},{"type":"Feature","geometry":{"type":"Polygon","coordinates":[[[26.04593050026377,44.612765656060716],[26.047881977341405,44.609794772796306],[26.04797324525425,44.60982567408435],[26.046021576862206,44.61279684860137],[26.04593050026377,44.612765656060716]]]},"properties":{"proiect":"corbeanca-nord","banda":-1}},{"type":"Feature","geometry":{"type":"Polygon","coordinates":[[[26.043162454757553,44.60862086462934],[26.043212933544293,44.6085582456508],[26.049330989769704,44.610594923583974],[26.04929016561413,44.61066075655296],[26.043162454757553,44.60862086462934]]]},"properties":{"proiect":"corbeanca-nord","banda":0}},{"type":"Feature","geometry":{"type":"Polygon","coordinates":[[[26.042708145676883,44.60918443543623],[26.042758624463627,44.60912181645768],[26.04896357236954,44.61118742030487],[26.048922748213965,44.61125325327386],[26.042708145676883,44.60918443543623]]]},"properties":{"proiect":"corbeanca-nord","banda":1}},{"type":"Feature","geometry":{"type":"Polygon","coordinates":[[[26.042253836596217,44.60974800624312],[26.042304315382957,44.60968538726458],[26.048596154969378,44.611779917025764],[26.048555330813798,44.61184574999476],[26.042253836596217,44.60974800624312]]]},"properties":{"proiect":"corbeanca-nord","banda":2}},{"type":"Feature","geometry":{"type":"Polygon","coordinates":[[[26.04179952751555,44.610311577050005],[26.04185000630229,44.610248958071466],[26.048228737569207,44.61237241374666],[26.048187913413635,44.612438246715655],[26.04179952751555,44.610311577050005]]]},"properties":{"proiect":"corbeanca-nord","banda":3}},{"type":"Feature","geometry":{"type":"Polygon","coordinates":[[[26.04134521843488,44.6108751478569],[26.041395697221624,44.610812528878355],[26.047861320169044,44.61296491046756],[26.047820496013472,44.61303074343654],[26.04134521843488,44.6108751478569]]]},"properties":{"proiect":"corbeanca-nord","banda":4}},{"type":"Feature","geometry":{"type":"Polygon","coordinates":[[[26.05871880487631,44.61640501668474],[26.059079484972138,44.61639328269285],[26.05903940686008,44.61646660728458],[26.05872341963542,44.61647688728498],[26.05871880487631,44.61640501668474]]]},"properties":{"proiect":"saftica","banda":-1}},{"type":"Feature","geometry":{"type":"Polygon","coordinates":[[[26.0591774270063,44.616462117080395],[26.059217504966988,44.61638879249359],[26.06510985408798,44.61619709692298],[26.065018851632193,44.616272078234445],[26.0591774270063,44.616462117080395]]]},"properties":{"proiect":"saftica","banda":-1}},{"type":"Feature","geometry":{"type":"Polygon","coordinates":[[[26.058796089760193,44.617608657191184],[26.06358580612391,44.617452833530265],[26.063494803668114,44.61752781484174],[26.058800704519307,44.61768052779143],[26.058796089760193,44.617608657191184]]]},"properties":{"proiect":"saftica","banda":-1}},{"type":"Feature","geometry":{"type":"Polygon","coordinates":[[[26.065581957855247,44.615291798137115],[26.065696093585093,44.61529662402575],[26.0657038728993,44.615417783071095],[26.065608395545514,44.615703552339134],[26.065581957855247,44.615291798137115]]]},"properties":{"proiect":"saftica","banda":0}},{"type":"Feature","geometry":{"type":"Polygon","coordinates":[[[26.06463082677319,44.615251582398464],[26.06474496250304,44.6152564082871],[26.06482066108502,44.61643537698302],[26.064712554445773,44.616524451256005],[26.06463082677319,44.615251582398464]]]},"properties":{"proiect":"saftica","banda":1}},{"type":"Feature","geometry":{"type":"Polygon","coordinates":[[[26.063679695691135,44.615211366659814],[26.06379383142098,44.61521619254845],[26.063919772424637,44.617177662591224],[26.063811665785387,44.61726673686421],[26.063679695691135,44.615211366659814]]]},"properties":{"proiect":"saftica","banda":2}},{"type":"Feature","geometry":{"type":"Polygon","coordinates":[[[26.06272856460908,44.615171150921164],[26.062842700338926,44.6151759768098],[26.063019280624715,44.617926129108646],[26.06291179472603,44.61802487111478],[26.06272856460908,44.615171150921164]]]},"properties":{"proiect":"saftica","banda":3}},{"type":"Feature","geometry":{"type":"Polygon","coordinates":[[[26.061777433527023,44.61513093518251],[26.061891569256872,44.61513576107115],[26.06212356480234,44.618748979159754],[26.06208,44.618789],[26.06201205793286,44.61878509649614],[26.061777433527023,44.61513093518251]]]},"properties":{"proiect":"saftica","banda":4}},{"type":"Feature","geometry":{"type":"Polygon","coordinates":[[[26.06083720765814,44.615260562849286],[26.060948297922092,44.61521795708388],[26.06117424423033,44.618736961236834],[26.061059996907257,44.61873039733784],[26.06083720765814,44.615260562849286]]]},"properties":{"proiect":"saftica","banda":5}},{"type":"Feature","geometry":{"type":"Polygon","coordinates":[[[26.059911455458522,44.61561561089431],[26.060022545722475,44.61557300512891],[26.060222183204726,44.61868226207853],[26.060107935881657,44.61867569817954],[26.059911455458522,44.61561561089431]]]},"properties":{"proiect":"saftica","banda":6}},{"type":"Feature","geometry":{"type":"Polygon","coordinates":[[[26.058985703258905,44.61597065893933],[26.05909679352286,44.615928053173924],[26.059121705116596,44.61631603916274],[26.059019844800872,44.61650239689471],[26.058985703258905,44.61597065893933]]]},"properties":{"proiect":"saftica","banda":7}},{"type":"Feature","geometry":{"type":"Polygon","coordinates":[[[26.05903409575577,44.61672434860469],[26.059135956031774,44.616537990254066],[26.05927012217913,44.61862756292023],[26.059155874856053,44.61862099902123],[26.05903409575577,44.61672434860469]]]},"properties":{"proiect":"saftica","banda":7}},{"type":"Feature","geometry":{"type":"Polygon","coordinates":[[[26.085148944254048,44.63226379078009],[26.085285926389655,44.62732972630559],[26.085333974324104,44.62720378213063],[26.085334014578603,44.62720367610152],[26.085395023083453,44.6270421967922],[26.085250018945636,44.6322652119092],[26.085148944254048,44.63226379078009]]]},"properties":{"proiect":"lacul-vlasiei","banda":-1}},{"type":"Feature","geometry":{"type":"Polygon","coordinates":[[[26.08529626741947,44.62695724483124],[26.085307768608693,44.626542974686345],[26.085409813037774,44.626509466098014],[26.085405400956507,44.62666838823295],[26.08529626741947,44.62695724483124]]]},"properties":{"proiect":"lacul-vlasiei","banda":-1}},{"type":"Feature","geometry":{"type":"Polygon","coordinates":[[[26.086979395473005,44.63228952726738],[26.087110320871297,44.6275736250539],[26.08720963972418,44.62763829108248],[26.087080470164594,44.632290948396495],[26.086979395473005,44.63228952726738]]]},"properties":{"proiect":"lacul-vlasiei","banda":-1}},{"type":"Feature","geometry":{"type":"Polygon","coordinates":[[[26.087113644740533,44.627453900061745],[26.087120681999643,44.62720041963511],[26.087220523349878,44.627246265431204],[26.08721296359506,44.62751856603102],[26.087113644740533,44.627453900061745]]]},"properties":{"proiect":"lacul-vlasiei","banda":-1}},{"type":"Feature","geometry":{"type":"Polygon","coordinates":[[[26.088809846691962,44.63231526375467],[26.088922824014364,44.628245847035394],[26.089024985098447,44.62820813656114],[26.088910921383555,44.63231668488378],[26.088809846691962,44.63231526375467]]]},"properties":{"proiect":"lacul-vlasiei","banda":-1}},{"type":"Feature","geometry":{"type":"Polygon","coordinates":[[[26.08892566573316,44.62814348898921],[26.088928797546355,44.6280306818108],[26.08902863889659,44.62807652760689],[26.089027826816935,44.62810577852613],[26.08892566573316,44.62814348898921]]]},"properties":{"proiect":"lacul-vlasiei","banda":-1}},{"type":"Feature","geometry":{"type":"Polygon","coordinates":[[[26.09064029791092,44.632341000241965],[26.090745670189122,44.62854551543542],[26.090846077840855,44.62857096318412],[26.090741372602512,44.63234242137108],[26.09064029791092,44.632341000241965]]]},"properties":{"proiect":"lacul-vlasiei","banda":-1}},{"type":"Feature","geometry":{"type":"Polygon","coordinates":[[[26.084206407853966,44.626904631314396],[26.084416549909808,44.626835626433845],[26.08533732481873,44.62684857337233],[26.085310281245707,44.62692015278524],[26.084206407853966,44.626904631314396]]]},"properties":{"proiect":"lacul-vlasiei","banda":0}},{"type":"Feature","geometry":{"type":"Polygon","coordinates":[[[26.085440441079736,44.62692198295171],[26.08546748450163,44.62685040353667],[26.086078480957063,44.6268589947064],[26.08618203683989,44.62693241046726],[26.085440441079736,44.62692198295171]]]},"properties":{"proiect":"lacul-vlasiei","banda":0}},{"type":"Feature","geometry":{"type":"Polygon","coordinates":[[[26.086261154898065,44.62686156326931],[26.08638657308936,44.62686332676394],[26.086548234605726,44.62693755954322],[26.086364710889335,44.626934979031695],[26.086261154898065,44.62686156326931]]]},"properties":{"proiect":"lacul-vlasiei","banda":0}},{"type":"Feature","geometry":{"type":"Polygon","coordinates":[[[26.083452886444174,44.627523683228546],[26.08507230526143,44.627546453740216],[26.08504499884348,44.62761802945729],[26.08345403251034,44.6275956590136],[26.083452886444174,44.627523683228546]]]},"properties":{"proiect":"lacul-vlasiei","banda":1}},{"type":"Feature","geometry":{"type":"Polygon","coordinates":[[[26.085175239561135,44.62761986076105],[26.085202545829677,44.62754828504188],[26.087112652068047,44.627575142884915],[26.087225612503417,44.6276486908824],[26.085175239561135,44.62761986076105]]]},"properties":{"proiect":"lacul-vlasiei","banda":1}},{"type":"Feature","geometry":{"type":"Polygon","coordinates":[[[26.08730399069113,44.62757783328119],[26.087962772873986,44.62758709636201],[26.08812443439035,44.62766132914129],[26.087416951234292,44.62765138128019],[26.08730399069113,44.62757783328119]]]},"properties":{"proiect":"lacul-vlasiei","banda":1}},{"type":"Feature","geometry":{"type":"Polygon","coordinates":[[[26.083464060589296,44.628225447132834],[26.08479600140057,44.628244175440464],[26.084766760688275,44.62831572395958],[26.083465206655465,44.62829742291789],[26.083464060589296,44.628225447132834]]]},"properties":{"proiect":"lacul-vlasiei","banda":2}},{"type":"Feature","geometry":{"type":"Polygon","coordinates":[[[26.08489761120493,44.62831756383768],[26.084926851768213,44.62824601531647],[26.08821909224757,44.62829230723272],[26.08826910960434,44.62831898316562],[26.088277238406246,44.62832266510487],[26.088286059370493,44.628325424558184],[26.08837005942431,44.62834642457352],[26.08838517128302,44.62834877427208],[26.08847617135261,44.6283547742767],[26.08849134088829,44.62835447190933],[26.0885853409587,44.62834447190169],[26.08859461036433,44.62834297119123],[26.088749610468177,44.62830897116606],[26.088760090708398,44.62830591638764],[26.088775754594682,44.62830013441512],[26.08983632475421,44.62831504700286],[26.090136929014967,44.628391233444376],[26.08489761120493,44.62831756383768]]]},"properties":{"proiect":"lacul-vlasiei","banda":2}},{"type":"Feature","geometry":{"type":"Polygon","coordinates":[[[26.083475234734422,44.628927211037116],[26.08451605410543,44.62894184591068],[26.08448772959619,44.629013407312456],[26.08347638080059,44.62899918682218],[26.083475234734422,44.628927211037116]]]},"properties":{"proiect":"lacul-vlasiei","banda":3}},{"type":"Feature","geometry":{"type":"Polygon","coordinates":[[[26.084618288191677,44.62901524308588],[26.08464661255179,44.628943681682],[26.092670258118112,44.62905650148691],[26.092647793901612,44.62912814528977],[26.084618288191677,44.62901524308588]]]},"properties":{"proiect":"lacul-vlasiei","banda":3}},{"type":"Feature","geometry":{"type":"Polygon","coordinates":[[[26.083486408879548,44.629628974941404],[26.084243826801032,44.629639624931045],[26.084216339245785,44.62971119810116],[26.083487554945712,44.629700950726466],[26.083486408879548,44.629628974941404]]]},"properties":{"proiect":"lacul-vlasiei","banda":4}},{"type":"Feature","geometry":{"type":"Polygon","coordinates":[[[26.084346639520817,44.629713030242364],[26.084374126926946,44.62964145707015],[26.09245123200725,44.62975502856478],[26.09242876779075,44.629826672367635],[26.084346639520817,44.629713030242364]]]},"properties":{"proiect":"lacul-vlasiei","banda":4}}]}