{"type": "FeatureCollection", "features": [{"type": "Feature", "properties": {"nr": 1, "suprafata_mp": 498, "front_m": 16.6, "adancime_m": 30}, "geometry": {"type": "Polygon", "coordinates": [[[26.069956285536744, 44.594738441203944], [26.07016309569631, 44.594715115719026], [26.070103893722315, 44.59444893905933], [26.06989708356275, 44.59447226454425], [26.069956285536744, 44.594738441203944]]]}}, {"type": "Feature", "properties": {"nr": 2, "suprafata_mp": 488, "front_m": 16.3, "adancime_m": 30}, "geometry": {"type": "Polygon", "coordinates": [[[26.07016309569631, 44.594715115719026], [26.07036568232125, 44.59469226659365], [26.070306480347256, 44.59442608993396], [26.070103893722315, 44.59444893905933], [26.07016309569631, 44.594715115719026]]]}}, {"type": "Feature", "properties": {"nr": 3, "suprafata_mp": 462, "front_m": 15.4, "adancime_m": 30}, "geometry": {"type": "Polygon", "coordinates": [[[26.07036568232125, 44.59469226659365], [26.0705576913066, 44.59467061048787], [26.070498489332607, 44.594404433828174], [26.070306480347256, 44.59442608993396], [26.07036568232125, 44.59469226659365]]]}}, {"type": "Feature", "properties": {"nr": 4, "suprafata_mp": 497, "front_m": 16.6, "adancime_m": 30}, "geometry": {"type": "Polygon", "coordinates": [[[26.0705576913066, 44.59467061048787], [26.070763923289036, 44.594647350213776], [26.070704721315042, 44.59438117355408], [26.070498489332607, 44.594404433828174], [26.0705576913066, 44.59467061048787]]]}}, {"type": "Feature", "properties": {"nr": 5, "suprafata_mp": 501, "front_m": 16.7, "adancime_m": 30}, "geometry": {"type": "Polygon", "coordinates": [[[26.070763923289036, 44.594647350213776], [26.070972146284923, 44.59462386537937], [26.07091294431093, 44.59435768871968], [26.070704721315042, 44.59438117355408], [26.070763923289036, 44.594647350213776]]]}}, {"type": "Feature", "properties": {"nr": 6, "suprafata_mp": 469, "front_m": 15.6, "adancime_m": 30}, "geometry": {"type": "Polygon", "coordinates": [[[26.066425511840873, 44.59451819759252], [26.0666203099478, 44.59449622691025], [26.066561107973808, 44.59423005025056], [26.06636630986688, 44.59425202093283], [26.066425511840873, 44.59451819759252]]]}}, {"type": "Feature", "properties": {"nr": 7, "suprafata_mp": 502, "front_m": 16.7, "adancime_m": 30}, "geometry": {"type": "Polygon", "coordinates": [[[26.0666203099478, 44.59449622691025], [26.06682867431115, 44.59447272613144], [26.066769472337157, 44.59420654947175], [26.066561107973808, 44.59423005025056], [26.0666203099478, 44.59449622691025]]]}}, {"type": "Feature", "properties": {"nr": 8, "suprafata_mp": 477, "front_m": 15.9, "adancime_m": 30}, "geometry": {"type": "Polygon", "coordinates": [[[26.06682867431115, 44.59447272613144], [26.067026920296808, 44.59445036657349], [26.066967718322815, 44.5941841899138], [26.066769472337157, 44.59420654947175], [26.06682867431115, 44.59447272613144]]]}}, {"type": "Feature", "properties": {"nr": 9, "suprafata_mp": 503, "front_m": 16.8, "adancime_m": 30}, "geometry": {"type": "Polygon", "coordinates": [[[26.067026920296808, 44.59445036657349], [26.067235849930288, 44.59442680203959], [26.067176647956295, 44.5941606253799], [26.066967718322815, 44.5941841899138], [26.067026920296808, 44.59445036657349]]]}}, {"type": "Feature", "properties": {"nr": 10, "suprafata_mp": 481, "front_m": 16.0, "adancime_m": 30}, "geometry": {"type": "Polygon", "coordinates": [[[26.067235849930288, 44.59442680203959], [26.06743551220734, 44.59440428274247], [26.067376310233342, 44.594138106082774], [26.067176647956295, 44.5941606253799], [26.067235849930288, 44.59442680203959]]]}}, {"type": "Feature", "properties": {"nr": 11, "suprafata_mp": 481, "front_m": 16.0, "adancime_m": 30}, "geometry": {"type": "Polygon", "coordinates": [[[26.06743551220734, 44.59440428274247], [26.06763528698836, 44.594381750756355], [26.067576085014366, 44.59411557409666], [26.067376310233342, 44.594138106082774], [26.06743551220734, 44.59440428274247]]]}}, {"type": "Feature", "properties": {"nr": 12, "suprafata_mp": 488, "front_m": 16.3, "adancime_m": 30}, "geometry": {"type": "Polygon", "coordinates": [[[26.06536999591801, 44.594364392133734], [26.065572523938567, 44.594341549618164], [26.065513321964573, 44.59407537295848], [26.06531079394402, 44.59409821547404], [26.06536999591801, 44.594364392133734]]]}}, {"type": "Feature", "properties": {"nr": 13, "suprafata_mp": 471, "front_m": 15.7, "adancime_m": 30}, "geometry": {"type": "Polygon", "coordinates": [[[26.065572523938567, 44.594341549618164], [26.065768022469086, 44.594319499937264], [26.065708820495093, 44.59405332327757], [26.065513321964573, 44.59407537295848], [26.065572523938567, 44.594341549618164]]]}}, {"type": "Feature", "properties": {"nr": 14, "suprafata_mp": 502, "front_m": 16.7, "adancime_m": 30}, "geometry": {"type": "Polygon", "coordinates": [[[26.065768022469086, 44.594319499937264], [26.06597657245691, 44.59429597822244], [26.065917370482918, 44.59402980156275], [26.065708820495093, 44.59405332327757], [26.065768022469086, 44.594319499937264]]]}}, {"type": "Feature", "properties": {"nr": 15, "suprafata_mp": 478, "front_m": 15.9, "adancime_m": 30}, "geometry": {"type": "Polygon", "coordinates": [[[26.06597657245691, 44.59429597822244], [26.066175244296602, 44.59427357063371], [26.06611604232261, 44.59400739397402], [26.065917370482918, 44.59402980156275], [26.06597657245691, 44.59429597822244]]]}}, {"type": "Feature", "properties": {"nr": 16, "suprafata_mp": 486, "front_m": 16.2, "adancime_m": 30}, "geometry": {"type": "Polygon", "coordinates": [[[26.066175244296602, 44.59427357063371], [26.066377150851626, 44.59425079821134], [26.066317948877632, 44.59398462155165], [26.06611604232261, 44.59400739397402], [26.066175244296602, 44.59427357063371]]]}}, {"type": "Feature", "properties": {"nr": 17, "suprafata_mp": 486, "front_m": 16.2, "adancime_m": 30}, "geometry": {"type": "Polygon", "coordinates": [[[26.066377150851626, 44.59425079821134], [26.066579199452097, 44.594228009768095], [26.066519997478103, 44.5939618331084], [26.066317948877632, 44.59398462155165], [26.066377150851626, 44.59425079821134]]]}}, {"type": "Feature", "properties": {"nr": 18, "suprafata_mp": 465, "front_m": 15.5, "adancime_m": 30}, "geometry": {"type": "Polygon", "coordinates": [[[26.066579199452097, 44.594228009768095], [26.066772250526064, 44.59420623612833], [26.06671304855207, 44.593940059468636], [26.066519997478103, 44.5939618331084], [26.066579199452097, 44.594228009768095]]]}}, {"type": "Feature", "properties": {"nr": 19, "suprafata_mp": 459, "front_m": 15.3, "adancime_m": 30}, "geometry": {"type": "Polygon", "coordinates": [[[26.066772250526064, 44.59420623612833], [26.066962869017512, 44.5941847368521], [26.06690366704352, 44.59391856019241], [26.06671304855207, 44.593940059468636], [26.066772250526064, 44.59420623612833]]]}}, {"type": "Feature", "properties": {"nr": 20, "suprafata_mp": 476, "front_m": 15.9, "adancime_m": 30}, "geometry": {"type": "Polygon", "coordinates": [[[26.066962869017512, 44.5941847368521], [26.067160457908617, 44.59416245140583], [26.067101255934624, 44.593896274746136], [26.06690366704352, 44.59391856019241], [26.066962869017512, 44.5941847368521]]]}}, {"type": "Feature", "properties": {"nr": 21, "suprafata_mp": 493, "front_m": 16.4, "adancime_m": 30}, "geometry": {"type": "Polygon", "coordinates": [[[26.067160457908617, 44.59416245140583], [26.067365074251356, 44.59413937335479], [26.067305872277363, 44.5938731966951], [26.067101255934624, 44.593896274746136], [26.067160457908617, 44.59416245140583]]]}}, {"type": "Feature", "properties": {"nr": 22, "suprafata_mp": 495, "front_m": 16.5, "adancime_m": 30}, "geometry": {"type": "Polygon", "coordinates": [[[26.067365074251356, 44.59413937335479], [26.06757071111511, 44.59411618020231], [26.067511509141116, 44.59385000354262], [26.067305872277363, 44.5938731966951], [26.067365074251356, 44.59413937335479]]]}}, {"type": "Feature", "properties": {"nr": 23, "suprafata_mp": 495, "front_m": 16.5, "adancime_m": 30}, "geometry": {"type": "Polygon", "coordinates": [[[26.0641137032228, 44.594160470640816], [26.064319267634055, 44.59413728566004], [26.06426006566006, 44.59387110900035], [26.06405450124881, 44.59389429398113], [26.0641137032228, 44.594160470640816]]]}}, {"type": "Feature", "properties": {"nr": 24, "suprafata_mp": 488, "front_m": 16.3, "adancime_m": 30}, "geometry": {"type": "Polygon", "coordinates": [[[26.064319267634055, 44.59413728566004], [26.064521770756937, 44.594114445952606], [26.064462568782943, 44.59384826929291], [26.06426006566006, 44.59387110900035], [26.064319267634055, 44.59413728566004]]]}}, {"type": "Feature", "properties": {"nr": 25, "suprafata_mp": 485, "front_m": 16.2, "adancime_m": 30}, "geometry": {"type": "Polygon", "coordinates": [[[26.064521770756937, 44.594114445952606], [26.064723331433424, 44.594091712540816], [26.06466412945943, 44.59382553588112], [26.064462568782943, 44.59384826929291], [26.064521770756937, 44.594114445952606]]]}}, {"type": "Feature", "properties": {"nr": 26, "suprafata_mp": 465, "front_m": 15.5, "adancime_m": 30}, "geometry": {"type": "Polygon", "coordinates": [[[26.064723331433424, 44.594091712540816], [26.064916529296532, 44.59406992234515], [26.06485732732254, 44.593803745685456], [26.06466412945943, 44.59382553588112], [26.064723331433424, 44.594091712540816]]]}}, {"type": "Feature", "properties": {"nr": 27, "suprafata_mp": 484, "front_m": 16.1, "adancime_m": 30}, "geometry": {"type": "Polygon", "coordinates": [[[26.064916529296532, 44.59406992234515], [26.06511736520513, 44.594047270677706], [26.065058163231136, 44.59378109401802], [26.06485732732254, 44.593803745685456], [26.064916529296532, 44.59406992234515]]]}}, {"type": "Feature", "properties": {"nr": 28, "suprafata_mp": 458, "front_m": 15.3, "adancime_m": 30}, "geometry": {"type": "Polygon", "coordinates": [[[26.06511736520513, 44.594047270677706], [26.065307541551945, 44.59402582126962], [26.065248339577952, 44.593759644609925], [26.065058163231136, 44.59378109401802], [26.06511736520513, 44.594047270677706]]]}}, {"type": "Feature", "properties": {"nr": 29, "suprafata_mp": 494, "front_m": 16.5, "adancime_m": 30}, "geometry": {"type": "Polygon", "coordinates": [[[26.065307541551945, 44.59402582126962], [26.065512908145433, 44.5940026586001], [26.06545370617144, 44.59373648194041], [26.065248339577952, 44.593759644609925], [26.065307541551945, 44.59402582126962]]]}}, {"type": "Feature", "properties": {"nr": 30, "suprafata_mp": 502, "front_m": 16.7, "adancime_m": 30}, "geometry": {"type": "Polygon", "coordinates": [[[26.065512908145433, 44.5940026586001], [26.065721432617536, 44.593979139763114], [26.065662230643543, 44.59371296310342], [26.06545370617144, 44.59373648194041], [26.065512908145433, 44.5940026586001]]]}}, {"type": "Feature", "properties": {"nr": 31, "suprafata_mp": 497, "front_m": 16.6, "adancime_m": 30}, "geometry": {"type": "Polygon", "coordinates": [[[26.065721432617536, 44.593979139763114], [26.065927842716746, 44.59395585939978], [26.065868640742753, 44.593689682740084], [26.065662230643543, 44.59371296310342], [26.065721432617536, 44.593979139763114]]]}}, {"type": "Feature", "properties": {"nr": 32, "suprafata_mp": 458, "front_m": 15.3, "adancime_m": 30}, "geometry": {"type": "Polygon", "coordinates": [[[26.065927842716746, 44.59395585939978], [26.06611823881472, 44.59393438520663], [26.066059036840727, 44.59366820854694], [26.065868640742753, 44.593689682740084], [26.065927842716746, 44.59395585939978]]]}}, {"type": "Feature", "properties": {"nr": 33, "suprafata_mp": 472, "front_m": 15.7, "adancime_m": 30}, "geometry": {"type": "Polygon", "coordinates": [[[26.06611823881472, 44.59393438520663], [26.066314375286105, 44.59391226357433], [26.06625517331211, 44.59364608691464], [26.066059036840727, 44.59366820854694], [26.06611823881472, 44.59393438520663]]]}}, {"type": "Feature", "properties": {"nr": 34, "suprafata_mp": 471, "front_m": 15.7, "adancime_m": 30}, "geometry": {"type": "Polygon", "coordinates": [[[26.066314375286105, 44.59391226357433], [26.06651009995663, 44.59389018838779], [26.066450897982637, 44.593624011728096], [26.06625517331211, 44.59364608691464], [26.066314375286105, 44.59391226357433]]]}}, {"type": "Feature", "properties": {"nr": 35, "suprafata_mp": 461, "front_m": 15.4, "adancime_m": 30}, "geometry": {"type": "Polygon", "coordinates": [[[26.06651009995663, 44.59389018838779], [26.06670173218858, 44.593868574774866], [26.066642530214587, 44.59360239811518], [26.066450897982637, 44.593624011728096], [26.06651009995663, 44.59389018838779]]]}}, {"type": "Feature", "properties": {"nr": 36, "suprafata_mp": 486, "front_m": 16.2, "adancime_m": 30}, "geometry": {"type": "Polygon", "coordinates": [[[26.06670173218858, 44.593868574774866], [26.06690360905926, 44.593845805700504], [26.066844407085267, 44.59357962904081], [26.066642530214587, 44.59360239811518], [26.06670173218858, 44.593868574774866]]]}}, {"type": "Feature", "properties": {"nr": 37, "suprafata_mp": 494, "front_m": 16.5, "adancime_m": 30}, "geometry": {"type": "Polygon", "coordinates": [[[26.06690360905926, 44.593845805700504], [26.067108891800366, 44.593822652488434], [26.067049689826373, 44.59355647582875], [26.066844407085267, 44.59357962904081], [26.06690360905926, 44.593845805700504]]]}}, {"type": "Feature", "properties": {"nr": 38, "suprafata_mp": 471, "front_m": 15.7, "adancime_m": 30}, "geometry": {"type": "Polygon", "coordinates": [[[26.067108891800366, 44.593822652488434], [26.06730453111348, 44.5938005869291], [26.067245329139485, 44.593534410269406], [26.067049689826373, 44.59355647582875], [26.067108891800366, 44.593822652488434]]]}}, {"type": "Feature", "properties": {"nr": 39, "suprafata_mp": 497, "front_m": 16.6, "adancime_m": 30}, "geometry": {"type": "Polygon", "coordinates": [[[26.06730453111348, 44.5938005869291], [26.06751111664644, 44.59377728677913], [26.067451914672446, 44.59351111011944], [26.067245329139485, 44.593534410269406], [26.06730453111348, 44.5938005869291]]]}}, {"type": "Feature", "properties": {"nr": 40, "suprafata_mp": 494, "front_m": 16.5, "adancime_m": 30}, "geometry": {"type": "Polygon", "coordinates": [[[26.06751111664644, 44.59377728677913], [26.067716392783737, 44.59375413431189], [26.067657190809744, 44.593487957652194], [26.067451914672446, 44.59351111011944], [26.06751111664644, 44.59377728677913]]]}}, {"type": "Feature", "properties": {"nr": 41, "suprafata_mp": 468, "front_m": 15.6, "adancime_m": 30}, "geometry": {"type": "Polygon", "coordinates": [[[26.06444234766525, 44.59385054997089], [26.06463677198424, 44.59382862144702], [26.064577570010247, 44.593562444787324], [26.064383145691256, 44.593584373311195], [26.06444234766525, 44.59385054997089]]]}}, {"type": "Feature", "properties": {"nr": 42, "suprafata_mp": 478, "front_m": 15.9, "adancime_m": 30}, "geometry": {"type": "Polygon", "coordinates": [[[26.06463677198424, 44.59382862144702], [26.06483525782804, 44.593806234836194], [26.064776055854047, 44.5935400581765], [26.064577570010247, 44.593562444787324], [26.06463677198424, 44.59382862144702]]]}}, {"type": "Feature", "properties": {"nr": 43, "suprafata_mp": 488, "front_m": 16.3, "adancime_m": 30}, "geometry": {"type": "Polygon", "coordinates": [[[26.06483525782804, 44.593806234836194], [26.065037745358175, 44.59378339688742], [26.064978543384182, 44.593517220227724], [26.064776055854047, 44.5935400581765], [26.06483525782804, 44.593806234836194]]]}}, {"type": "Feature", "properties": {"nr": 44, "suprafata_mp": 461, "front_m": 15.4, "adancime_m": 30}, "geometry": {"type": "Polygon", "coordinates": [[[26.065037745358175, 44.59378339688742], [26.065229145981533, 44.59376180939692], [26.06516994400754, 44.59349563273723], [26.064978543384182, 44.593517220227724], [26.065037745358175, 44.59378339688742]]]}}, {"type": "Feature", "properties": {"nr": 45, "suprafata_mp": 474, "front_m": 15.8, "adancime_m": 30}, "geometry": {"type": "Polygon", "coordinates": [[[26.065229145981533, 44.59376180939692], [26.065426118233272, 44.593739593499514], [26.06536691625928, 44.59347341683983], [26.06516994400754, 44.59349563273723], [26.065229145981533, 44.59376180939692]]]}}, {"type": "Feature", "properties": {"nr": 46, "suprafata_mp": 462, "front_m": 15.4, "adancime_m": 30}, "geometry": {"type": "Polygon", "coordinates": [[[26.065426118233272, 44.593739593499514], [26.06561816918983, 44.59371793265993], [26.065558967215836, 44.59345175600024], [26.06536691625928, 44.59347341683983], [26.065426118233272, 44.593739593499514]]]}}, {"type": "Feature", "properties": {"nr": 47, "suprafata_mp": 488, "front_m": 16.3, "adancime_m": 30}, "geometry": {"type": "Polygon", "coordinates": [[[26.06561816918983, 44.59371793265993], [26.065820760429453, 44.593695083014076], [26.06576155845546, 44.59342890635439], [26.065558967215836, 44.59345175600024], [26.06561816918983, 44.59371793265993]]]}}, {"type": "Feature", "properties": {"nr": 48, "suprafata_mp": 496, "front_m": 16.5, "adancime_m": 30}, "geometry": {"type": "Polygon", "coordinates": [[[26.065820760429453, 44.593695083014076], [26.066026702915924, 44.59367185539135], [26.06596750094193, 44.59340567873166], [26.06576155845546, 44.59342890635439], [26.065820760429453, 44.593695083014076]]]}}, {"type": "Feature", "properties": {"nr": 49, "suprafata_mp": 474, "front_m": 15.8, "adancime_m": 30}, "geometry": {"type": "Polygon", "coordinates": [[[26.066026702915924, 44.59367185539135], [26.06622360078948, 44.593649647882835], [26.066164398815488, 44.59338347122314], [26.06596750094193, 44.59340567873166], [26.066026702915924, 44.59367185539135]]]}}, {"type": "Feature", "properties": {"nr": 50, "suprafata_mp": 474, "front_m": 15.8, "adancime_m": 30}, "geometry": {"type": "Polygon", "coordinates": [[[26.06622360078948, 44.593649647882835], [26.066420396398453, 44.593627451908425], [26.06636119442446, 44.59336127524873], [26.066164398815488, 44.59338347122314], [26.06622360078948, 44.593649647882835]]]}}, {"type": "Feature", "properties": {"nr": 51, "suprafata_mp": 482, "front_m": 16.1, "adancime_m": 30}, "geometry": {"type": "Polygon", "coordinates": [[[26.066420396398453, 44.593627451908425], [26.066620537102153, 44.593604878651014], [26.06656133512816, 44.59333870199133], [26.06636119442446, 44.59336127524873], [26.066420396398453, 44.593627451908425]]]}}, {"type": "Feature", "properties": {"nr": 52, "suprafata_mp": 466, "front_m": 15.5, "adancime_m": 30}, "geometry": {"type": "Polygon", "coordinates": [[[26.066620537102153, 44.593604878651014], [26.066814209526655, 44.59358303493102], [26.06675500755266, 44.593316858271336], [26.06656133512816, 44.59333870199133], [26.066620537102153, 44.593604878651014]]]}}, {"type": "Feature", "properties": {"nr": 53, "suprafata_mp": 468, "front_m": 15.6, "adancime_m": 30}, "geometry": {"type": "Polygon", "coordinates": [[[26.066814209526655, 44.59358303493102], [26.067008526893677, 44.59356111846994], [26.066949324919683, 44.59329494181025], [26.06675500755266, 44.593316858271336], [26.066814209526655, 44.59358303493102]]]}}, {"type": "Feature", "properties": {"nr": 54, "suprafata_mp": 472, "front_m": 15.7, "adancime_m": 30}, "geometry": {"type": "Polygon", "coordinates": [[[26.067008526893677, 44.59356111846994], [26.067204487779073, 44.593539016641444], [26.06714528580508, 44.59327283998176], [26.066949324919683, 44.59329494181025], [26.067008526893677, 44.59356111846994]]]}}, {"type": "Feature", "properties": {"nr": 55, "suprafata_mp": 478, "front_m": 15.9, "adancime_m": 30}, "geometry": {"type": "Polygon", "coordinates": [[[26.067204487779073, 44.593539016641444], [26.067402991876577, 44.593516627971844], [26.067343789902583, 44.59325045131215], [26.06714528580508, 44.59327283998176], [26.067204487779073, 44.593539016641444]]]}}, {"type": "Feature", "properties": {"nr": 56, "suprafata_mp": 460, "front_m": 15.3, "adancime_m": 30}, "geometry": {"type": "Polygon", "coordinates": [[[26.067402991876577, 44.593516627971844], [26.067594002416136, 44.59349508447771], [26.067534800442143, 44.593228907818016], [26.067343789902583, 44.59325045131215], [26.067402991876577, 44.593516627971844]]]}}, {"type": "Feature", "properties": {"nr": 57, "suprafata_mp": 492, "front_m": 16.4, "adancime_m": 30}, "geometry": {"type": "Polygon", "coordinates": [[[26.067594002416136, 44.59349508447771], [26.067798393531007, 44.593472031829435], [26.067739191557013, 44.59320585516974], [26.067534800442143, 44.593228907818016], [26.067594002416136, 44.59349508447771]]]}}, {"type": "Feature", "properties": {"nr": 58, "suprafata_mp": 484, "front_m": 16.1, "adancime_m": 30}, "geometry": {"type": "Polygon", "coordinates": [[[26.067798393531007, 44.593472031829435], [26.067999322334558, 44.59344936968466], [26.067940120360564, 44.59318319302497], [26.067739191557013, 44.59320585516974], [26.067798393531007, 44.593472031829435]]]}}, {"type": "Feature", "properties": {"nr": 59, "suprafata_mp": 470, "front_m": 15.7, "adancime_m": 30}, "geometry": {"type": "Polygon", "coordinates": [[[26.067999322334558, 44.59344936968466], [26.068194682003515, 44.59342733566553], [26.06813548002952, 44.59316115900584], [26.067940120360564, 44.59318319302497], [26.067999322334558, 44.59344936968466]]]}}, {"type": "Feature", "properties": {"nr": 60, "suprafata_mp": 460, "front_m": 15.3, "adancime_m": 30}, "geometry": {"type": "Polygon", "coordinates": [[[26.068194682003515, 44.59342733566553], [26.068385613103207, 44.59340580113117], [26.068326411129213, 44.59313962447148], [26.06813548002952, 44.59316115900584], [26.068194682003515, 44.59342733566553]]]}}, {"type": "Feature", "properties": {"nr": 61, "suprafata_mp": 493, "front_m": 16.4, "adancime_m": 30}, "geometry": {"type": "Polygon", "coordinates": [[[26.068385613103207, 44.59340580113117], [26.068590212518156, 44.59338272498937], [26.068531010544163, 44.59311654832968], [26.068326411129213, 44.59313962447148], [26.068385613103207, 44.59340580113117]]]}}, {"type": "Feature", "properties": {"nr": 62, "suprafata_mp": 462, "front_m": 15.4, "adancime_m": 30}, "geometry": {"type": "Polygon", "coordinates": [[[26.068590212518156, 44.59338272498937], [26.0687822108017, 44.593361070090616], [26.068723008827707, 44.59309489343092], [26.068531010544163, 44.59311654832968], [26.068590212518156, 44.59338272498937]]]}}, {"type": "Feature", "properties": {"nr": 63, "suprafata_mp": 462, "front_m": 15.4, "adancime_m": 30}, "geometry": {"type": "Polygon", "coordinates": [[[26.0687822108017, 44.593361070090616], [26.06897425150063, 44.59333941040796], [26.068915049526638, 44.593073233748264], [26.068723008827707, 44.59309489343092], [26.0687822108017, 44.593361070090616]]]}}, {"type": "Feature", "properties": {"nr": 64, "suprafata_mp": 462, "front_m": 15.4, "adancime_m": 30}, "geometry": {"type": "Polygon", "coordinates": [[[26.06897425150063, 44.59333941040796], [26.06916624191487, 44.59331775639675], [26.069107039940878, 44.59305157973706], [26.068915049526638, 44.593073233748264], [26.06897425150063, 44.59333941040796]]]}}, {"type": "Feature", "properties": {"nr": 65, "suprafata_mp": 460, "front_m": 15.3, "adancime_m": 30}, "geometry": {"type": "Polygon", "coordinates": [[[26.06916624191487, 44.59331775639675], [26.069357247088867, 44.59329621350778], [26.069298045114873, 44.59303003684809], [26.069107039940878, 44.59305157973706], [26.06916624191487, 44.59331775639675]]]}}, {"type": "Feature", "properties": {"nr": 66, "suprafata_mp": 500, "front_m": 16.7, "adancime_m": 30}, "geometry": {"type": "Polygon", "coordinates": [[[26.069357247088867, 44.59329621350778], [26.06956470146386, 44.593272815363775], [26.069505499489868, 44.59300663870408], [26.069298045114873, 44.59303003684809], [26.069357247088867, 44.59329621350778]]]}}, {"type": "Feature", "properties": {"nr": 67, "suprafata_mp": 469, "front_m": 15.6, "adancime_m": 30}, "geometry": {"type": "Polygon", "coordinates": [[[26.06956470146386, 44.593272815363775], [26.069759454111963, 44.59325084980867], [26.06970025213797, 44.592984673148976], [26.069505499489868, 44.59300663870408], [26.06956470146386, 44.593272815363775]]]}}, {"type": "Feature", "properties": {"nr": 68, "suprafata_mp": 471, "front_m": 15.7, "adancime_m": 30}, "geometry": {"type": "Polygon", "coordinates": [[[26.069759454111963, 44.59325084980867], [26.06995494768036, 44.59322880068743], [26.069895745706365, 44.59296262402774], [26.06970025213797, 44.592984673148976], [26.069759454111963, 44.59325084980867]]]}}, {"type": "Feature", "properties": {"nr": 69, "suprafata_mp": 496, "front_m": 16.5, "adancime_m": 30}, "geometry": {"type": "Polygon", "coordinates": [[[26.06995494768036, 44.59322880068743], [26.070160934857302, 44.5932055680242], [26.07010173288331, 44.59293939136451], [26.069895745706365, 44.59296262402774], [26.06995494768036, 44.59322880068743]]]}}, {"type": "Feature", "properties": {"nr": 70, "suprafata_mp": 486, "front_m": 16.2, "adancime_m": 30}, "geometry": {"type": "Polygon", "coordinates": [[[26.070160934857302, 44.5932055680242], [26.070362678393643, 44.59318281398821], [26.07030347641965, 44.592916637328514], [26.07010173288331, 44.59293939136451], [26.070160934857302, 44.5932055680242]]]}}, {"type": "Feature", "properties": {"nr": 71, "suprafata_mp": 465, "front_m": 15.5, "adancime_m": 30}, "geometry": {"type": "Polygon", "coordinates": [[[26.070362678393643, 44.59318281398821], [26.070555794336823, 44.59316103303204], [26.07049659236283, 44.59289485637235], [26.07030347641965, 44.592916637328514], [26.070362678393643, 44.59318281398821]]]}}, {"type": "Feature", "properties": {"nr": 72, "suprafata_mp": 492, "front_m": 16.4, "adancime_m": 30}, "geometry": {"type": "Polygon", "coordinates": [[[26.065978799095294, 44.59333164341575], [26.06618310248349, 44.5933086006619], [26.066123900509496, 44.59304242400221], [26.0659195971213, 44.59306546675606], [26.065978799095294, 44.59333164341575]]]}}, {"type": "Feature", "properties": {"nr": 73, "suprafata_mp": 499, "front_m": 16.6, "adancime_m": 30}, "geometry": {"type": "Polygon", "coordinates": [[[26.06618310248349, 44.5933086006619], [26.066390361380382, 44.59328522456527], [26.06633115940639, 44.59301904790558], [26.066123900509496, 44.59304242400221], [26.06618310248349, 44.5933086006619]]]}}, {"type": "Feature", "properties": {"nr": 74, "suprafata_mp": 462, "front_m": 15.4, "adancime_m": 30}, "geometry": {"type": "Polygon", "coordinates": [[[26.066390361380382, 44.59328522456527], [26.066582253259938, 44.59326358166749], [26.066523051285944, 44.59299740500781], [26.06633115940639, 44.59301904790558], [26.066390361380382, 44.59328522456527]]]}}, {"type": "Feature", "properties": {"nr": 75, "suprafata_mp": 501, "front_m": 16.7, "adancime_m": 30}, "geometry": {"type": "Polygon", "coordinates": [[[26.067595884101042, 44.593149257347314], [26.06780399210598, 44.59312578548239], [26.067744790131986, 44.5928596088227], [26.06753668212705, 44.59288308068763], [26.067595884101042, 44.593149257347314]]]}}, {"type": "Feature", "properties": {"nr": 76, "suprafata_mp": 496, "front_m": 16.5, "adancime_m": 30}, "geometry": {"type": "Polygon", "coordinates": [[[26.06780399210598, 44.59312578548239], [26.068010183235955, 44.59310252981592], [26.067950981261962, 44.59283635315623], [26.067744790131986, 44.5928596088227], [26.06780399210598, 44.59312578548239]]]}}, {"type": "Feature", "properties": {"nr": 77, "suprafata_mp": 493, "front_m": 16.4, "adancime_m": 30}, "geometry": {"type": "Polygon", "coordinates": [[[26.068010183235955, 44.59310252981592], [26.06821506044624, 44.593079422342434], [26.068155858472245, 44.59281324568275], [26.067950981261962, 44.59283635315623], [26.068010183235955, 44.59310252981592]]]}}, {"type": "Feature", "properties": {"nr": 78, "suprafata_mp": 475, "front_m": 15.8, "adancime_m": 30}, "geometry": {"type": "Polygon", "coordinates": [[[26.06821506044624, 44.593079422342434], [26.068412320452854, 44.59305717399004], [26.06835311847886, 44.59279099733035], [26.068155858472245, 44.59281324568275], [26.06821506044624, 44.593079422342434]]]}}, {"type": "Feature", "properties": {"nr": 79, "suprafata_mp": 487, "front_m": 16.2, "adancime_m": 30}, "geometry": {"type": "Polygon", "coordinates": [[[26.068412320452854, 44.59305717399004], [26.06861448872337, 44.59303437204958], [26.068555286749376, 44.59276819538989], [26.06835311847886, 44.59279099733035], [26.068412320452854, 44.59305717399004]]]}}, {"type": "Feature", "properties": {"nr": 80, "suprafata_mp": 465, "front_m": 15.5, "adancime_m": 30}, "geometry": {"type": "Polygon", "coordinates": [[[26.06861448872337, 44.59303437204958], [26.068807550886255, 44.593012597159124], [26.068748348912262, 44.59274642049943], [26.068555286749376, 44.59276819538989], [26.06861448872337, 44.59303437204958]]]}}, {"type": "Feature", "properties": {"nr": 81, "suprafata_mp": 492, "front_m": 16.4, "adancime_m": 30}, "geometry": {"type": "Polygon", "coordinates": [[[26.068807550886255, 44.593012597159124], [26.069012076810065, 44.592989529306166], [26.06895287483607, 44.59272335264647], [26.068748348912262, 44.59274642049943], [26.068807550886255, 44.593012597159124]]]}}, {"type": "Feature", "properties": {"nr": 82, "suprafata_mp": 492, "front_m": 16.4, "adancime_m": 30}, "geometry": {"type": "Polygon", "coordinates": [[[26.069012076810065, 44.592989529306166], [26.069216566774596, 44.592966465508944], [26.069157364800603, 44.59270028884925], [26.06895287483607, 44.59272335264647], [26.069012076810065, 44.592989529306166]]]}}, {"type": "Feature", "properties": {"nr": 83, "suprafata_mp": 491, "front_m": 16.4, "adancime_m": 30}, "geometry": {"type": "Polygon", "coordinates": [[[26.069216566774596, 44.592966465508944], [26.06942033118552, 44.59294348354469], [26.069361129211526, 44.592677306884994], [26.069157364800603, 44.59270028884925], [26.069216566774596, 44.592966465508944]]]}}, {"type": "Feature", "properties": {"nr": 84, "suprafata_mp": 477, "front_m": 15.9, "adancime_m": 30}, "geometry": {"type": "Polygon", "coordinates": [[[26.06942033118552, 44.59294348354469], [26.06961858356671, 44.5929211232654], [26.06955938159272, 44.592654946605705], [26.069361129211526, 44.592677306884994], [26.06942033118552, 44.59294348354469]]]}}, {"type": "Feature", "properties": {"nr": 85, "suprafata_mp": 474, "front_m": 15.8, "adancime_m": 30}, "geometry": {"type": "Polygon", "coordinates": [[[26.06961858356671, 44.5929211232654], [26.069815507885366, 44.59289891277422], [26.069756305911373, 44.592632736114524], [26.06955938159272, 44.592654946605705], [26.06961858356671, 44.5929211232654]]]}}, {"type": "Feature", "properties": {"nr": 86, "suprafata_mp": 503, "front_m": 16.8, "adancime_m": 30}, "geometry": {"type": "Polygon", "coordinates": [[[26.06593407864412, 44.593063833429426], [26.066143157330337, 44.59304025208433], [26.066083955356344, 44.592774075424636], [26.065874876670126, 44.59279765676973], [26.06593407864412, 44.593063833429426]]]}}, {"type": "Feature", "properties": {"nr": 87, "suprafata_mp": 462, "front_m": 15.4, "adancime_m": 30}, "geometry": {"type": "Polygon", "coordinates": [[[26.066143157330337, 44.59304025208433], [26.066334870090728, 44.59301862938885], [26.066275668116734, 44.59275245272916], [26.066083955356344, 44.592774075424636], [26.066143157330337, 44.59304025208433]]]}}, {"type": "Feature", "properties": {"nr": 88, "suprafata_mp": 464, "front_m": 15.5, "adancime_m": 30}, "geometry": {"type": "Polygon", "coordinates": [[[26.066334870090728, 44.59301862938885], [26.066527779986266, 44.59299687167217], [26.066468578012273, 44.59273069501248], [26.066275668116734, 44.59275245272916], [26.066334870090728, 44.59301862938885]]]}}, {"type": "Feature", "properties": {"nr": 89, "suprafata_mp": 466, "front_m": 15.5, "adancime_m": 30}, "geometry": {"type": "Polygon", "coordinates": [[[26.067532051818255, 44.59288360292598], [26.067725766845786, 44.59286175440093], [26.067666564871793, 44.592595577741236], [26.06747284984426, 44.592617426266294], [26.067532051818255, 44.59288360292598]]]}}, {"type": "Feature", "properties": {"nr": 90, "suprafata_mp": 493, "front_m": 16.4, "adancime_m": 30}, "geometry": {"type": "Polygon", "coordinates": [[[26.067725766845786, 44.59286175440093], [26.06793048447774, 44.59283866492579], [26.067871282503745, 44.5925724882661], [26.067666564871793, 44.592595577741236], [26.067725766845786, 44.59286175440093]]]}}, {"type": "Feature", "properties": {"nr": 91, "suprafata_mp": 459, "front_m": 15.3, "adancime_m": 30}, "geometry": {"type": "Polygon", "coordinates": [[[26.06793048447774, 44.59283866492579], [26.068121217359973, 44.59281715274777], [26.06806201538598, 44.592550976088084], [26.067871282503745, 44.5925724882661], [26.06793048447774, 44.59283866492579]]]}}, {"type": "Feature", "properties": {"nr": 92, "suprafata_mp": 479, "front_m": 16.0, "adancime_m": 30}, "geometry": {"type": "Polygon", "coordinates": [[[26.068121217359973, 44.59281715274777], [26.06832003996129, 44.5927947281551], [26.068260837987296, 44.59252855149541], [26.06806201538598, 44.592550976088084], [26.068121217359973, 44.59281715274777]]]}}, {"type": "Feature", "properties": {"nr": 93, "suprafata_mp": 471, "front_m": 15.7, "adancime_m": 30}, "geometry": {"type": "Polygon", "coordinates": [[[26.068705715299604, 44.59275122901412], [26.06890132489324, 44.59272916680675], [26.068842122919246, 44.592462990147055], [26.06864651332561, 44.59248505235443], [26.068705715299604, 44.59275122901412]]]}}, {"type": "Feature", "properties": {"nr": 94, "suprafata_mp": 491, "front_m": 16.4, "adancime_m": 30}, "geometry": {"type": "Polygon", "coordinates": [[[26.06890132489324, 44.59272916680675], [26.06910505846878, 44.59270618832032], [26.069045856494785, 44.592440011660635], [26.068842122919246, 44.592462990147055], [26.06890132489324, 44.59272916680675]]]}}, {"type": "Feature", "properties": {"nr": 95, "suprafata_mp": 489, "front_m": 16.3, "adancime_m": 30}, "geometry": {"type": "Polygon", "coordinates": [[[26.063199446662107, 44.59275379543082], [26.063402417279516, 44.59273090299611], [26.063343215305522, 44.59246472633642], [26.063140244688114, 44.59248761877113], [26.063199446662107, 44.59275379543082]]]}}, {"type": "Feature", "properties": {"nr": 96, "suprafata_mp": 491, "front_m": 16.4, "adancime_m": 30}, "geometry": {"type": "Polygon", "coordinates": [[[26.063402417279516, 44.59273090299611], [26.063606468516213, 44.59270788868165], [26.06354726654222, 44.592441712021966], [26.063343215305522, 44.59246472633642], [26.063402417279516, 44.59273090299611]]]}}, {"type": "Feature", "properties": {"nr": 97, "suprafata_mp": 470, "front_m": 15.7, "adancime_m": 30}, "geometry": {"type": "Polygon", "coordinates": [[[26.063606468516213, 44.59270788868165], [26.063801867071525, 44.59268585027665], [26.063742665097532, 44.59241967361696], [26.06354726654222, 44.592441712021966], [26.063606468516213, 44.59270788868165]]]}}, {"type": "Feature", "properties": {"nr": 98, "suprafata_mp": 464, "front_m": 15.5, "adancime_m": 30}, "geometry": {"type": "Polygon", "coordinates": [[[26.063801867071525, 44.59268585027665], [26.06399459422359, 44.59266411317105], [26.063935392249597, 44.592397936511354], [26.063742665097532, 44.59241967361696], [26.063801867071525, 44.59268585027665]]]}}, {"type": "Feature", "properties": {"nr": 99, "suprafata_mp": 492, "front_m": 16.4, "adancime_m": 30}, "geometry": {"type": "Polygon", "coordinates": [[[26.06399459422359, 44.59266411317105], [26.064199060949854, 44.592641051994796], [26.06413985897586, 44.5923748753351], [26.063935392249597, 44.592397936511354], [26.06399459422359, 44.59266411317105]]]}}, {"type": "Feature", "properties": {"nr": 100, "suprafata_mp": 464, "front_m": 15.5, "adancime_m": 30}, "geometry": {"type": "Polygon", "coordinates": [[[26.064199060949854, 44.592641051994796], [26.064391752150087, 44.59261931894408], [26.064332550176093, 44.592353142284395], [26.06413985897586, 44.5923748753351], [26.064199060949854, 44.592641051994796]]]}}, {"type": "Feature", "properties": {"nr": 101, "suprafata_mp": 500, "front_m": 16.7, "adancime_m": 30}, "geometry": {"type": "Polygon", "coordinates": [[[26.064391752150087, 44.59261931894408], [26.06459946694937, 44.59259589142762], [26.064540264975378, 44.59232971476793], [26.064332550176093, 44.592353142284395], [26.064391752150087, 44.59261931894408]]]}}, {"type": "Feature", "properties": {"nr": 102, "suprafata_mp": 485, "front_m": 16.2, "adancime_m": 30}, "geometry": {"type": "Polygon", "coordinates": [[[26.06459946694937, 44.59259589142762], [26.06480074637992, 44.5925731897367], [26.064741544405926, 44.592307013077004], [26.064540264975378, 44.59232971476793], [26.06459946694937, 44.59259589142762]]]}}, {"type": "Feature", "properties": {"nr": 103, "suprafata_mp": 472, "front_m": 15.7, "adancime_m": 30}, "geometry": {"type": "Polygon", "coordinates": [[[26.06480074637992, 44.5925731897367], [26.064996698928972, 44.59255108884844], [26.06493749695498, 44.592284912188745], [26.064741544405926, 44.592307013077004], [26.06480074637992, 44.5925731897367]]]}}, {"type": "Feature", "properties": {"nr": 104, "suprafata_mp": 501, "front_m": 16.7, "adancime_m": 30}, "geometry": {"type": "Polygon", "coordinates": [[[26.064996698928972, 44.59255108884844], [26.065204756362046, 44.592527622687356], [26.065145554388053, 44.59226144602766], [26.06493749695498, 44.592284912188745], [26.064996698928972, 44.59255108884844]]]}}, {"type": "Feature", "properties": {"nr": 105, "suprafata_mp": 463, "front_m": 15.4, "adancime_m": 30}, "geometry": {"type": "Polygon", "coordinates": [[[26.065204756362046, 44.592527622687356], [26.06539723411473, 44.59250591371074], [26.065338032140737, 44.59223973705105], [26.065145554388053, 44.59226144602766], [26.065204756362046, 44.592527622687356]]]}}, {"type": "Feature", "properties": {"nr": 106, "suprafata_mp": 481, "front_m": 16.0, "adancime_m": 30}, "geometry": {"type": "Polygon", "coordinates": [[[26.06539723411473, 44.59250591371074], [26.065596875333515, 44.59248339678871], [26.065537673359522, 44.592217220129015], [26.065338032140737, 44.59223973705105], [26.06539723411473, 44.59250591371074]]]}}, {"type": "Feature", "properties": {"nr": 107, "suprafata_mp": 460, "front_m": 15.3, "adancime_m": 30}, "geometry": {"type": "Polygon", "coordinates": [[[26.065596875333515, 44.59248339678871], [26.0657880856767, 44.59246183075933], [26.065728883702707, 44.59219565409964], [26.065537673359522, 44.592217220129015], [26.065596875333515, 44.59248339678871]]]}}, {"type": "Feature", "properties": {"nr": 108, "suprafata_mp": 502, "front_m": 16.7, "adancime_m": 30}, "geometry": {"type": "Polygon", "coordinates": [[[26.0657880856767, 44.59246183075933], [26.065996716937967, 44.59243829987793], [26.065937514963974, 44.59217212321823], [26.065728883702707, 44.59219565409964], [26.0657880856767, 44.59246183075933]]]}}, {"type": "Feature", "properties": {"nr": 109, "suprafata_mp": 484, "front_m": 16.1, "adancime_m": 30}, "geometry": {"type": "Polygon", "coordinates": [[[26.065996716937967, 44.59243829987793], [26.06619757240933, 44.59241564600406], [26.066138370435336, 44.59214946934437], [26.065937514963974, 44.59217212321823], [26.065996716937967, 44.59243829987793]]]}}, {"type": "Feature", "properties": {"nr": 110, "suprafata_mp": 495, "front_m": 16.5, "adancime_m": 30}, "geometry": {"type": "Polygon", "coordinates": [[[26.06619757240933, 44.59241564600406], [26.066402978917093, 44.592392478832735], [26.0663437769431, 44.59212630217304], [26.066138370435336, 44.59214946934437], [26.06619757240933, 44.59241564600406]]]}}, {"type": "Feature", "properties": {"nr": 111, "suprafata_mp": 470, "front_m": 15.7, "adancime_m": 30}, "geometry": {"type": "Polygon", "coordinates": [[[26.066402978917093, 44.592392478832735], [26.066597984307084, 44.59237048477164], [26.06653878233309, 44.592104308111956], [26.0663437769431, 44.59212630217304], [26.066402978917093, 44.592392478832735]]]}}, {"type": "Feature", "properties": {"nr": 112, "suprafata_mp": 494, "front_m": 16.5, "adancime_m": 30}, "geometry": {"type": "Polygon", "coordinates": [[[26.066597984307084, 44.59237048477164], [26.066803353536443, 44.59234732180483], [26.06674415156245, 44.592081145145144], [26.06653878233309, 44.592104308111956], [26.066597984307084, 44.59237048477164]]]}}, {"type": "Feature", "properties": {"nr": 113, "suprafata_mp": 490, "front_m": 16.3, "adancime_m": 30}, "geometry": {"type": "Polygon", "coordinates": [[[26.066803353536443, 44.59234732180483], [26.06700675007665, 44.59232438133159], [26.066947548102654, 44.5920582046719], [26.06674415156245, 44.592081145145144], [26.066803353536443, 44.59234732180483]]]}}, {"type": "Feature", "properties": {"nr": 114, "suprafata_mp": 487, "front_m": 16.2, "adancime_m": 30}, "geometry": {"type": "Polygon", "coordinates": [[[26.06700675007665, 44.59232438133159], [26.067208967235636, 44.59230157387715], [26.067149765261643, 44.59203539721746], [26.066947548102654, 44.5920582046719], [26.06700675007665, 44.59232438133159]]]}}, {"type": "Feature", "properties": {"nr": 115, "suprafata_mp": 502, "front_m": 16.7, "adancime_m": 30}, "geometry": {"type": "Polygon", "coordinates": [[[26.067208967235636, 44.59230157387715], [26.067417302161036, 44.59227807641856], [26.067358100187043, 44.592011899758866], [26.067149765261643, 44.59203539721746], [26.067208967235636, 44.59230157387715]]]}}, {"type": "Feature", "properties": {"nr": 116, "suprafata_mp": 477, "front_m": 15.9, "adancime_m": 30}, "geometry": {"type": "Polygon", "coordinates": [[[26.067417302161036, 44.59227807641856], [26.067615329120304, 44.59225574156392], [26.06755612714631, 44.591989564904225], [26.067358100187043, 44.592011899758866], [26.067417302161036, 44.59227807641856]]]}}, {"type": "Feature", "properties": {"nr": 117, "suprafata_mp": 476, "front_m": 15.9, "adancime_m": 30}, "geometry": {"type": "Polygon", "coordinates": [[[26.067615329120304, 44.59225574156392], [26.067812989212463, 44.59223344808709], [26.06775378723847, 44.59196727142741], [26.06755612714631, 44.591989564904225], [26.067615329120304, 44.59225574156392]]]}}, {"type": "Feature", "properties": {"nr": 118, "suprafata_mp": 489, "front_m": 16.3, "adancime_m": 30}, "geometry": {"type": "Polygon", "coordinates": [[[26.067812989212463, 44.59223344808709], [26.068016172029754, 44.59221053171901], [26.06795697005576, 44.59194435505932], [26.06775378723847, 44.59196727142741], [26.067812989212463, 44.59223344808709]]]}}, {"type": "Feature", "properties": {"nr": 119, "suprafata_mp": 496, "front_m": 16.5, "adancime_m": 30}, "geometry": {"type": "Polygon", "coordinates": [[[26.068016172029754, 44.59221053171901], [26.068222204280296, 44.59218729397207], [26.068163002306303, 44.591921117312374], [26.06795697005576, 44.59194435505932], [26.068016172029754, 44.59221053171901]]]}}, {"type": "Feature", "properties": {"nr": 120, "suprafata_mp": 472, "front_m": 15.7, "adancime_m": 30}, "geometry": {"type": "Polygon", "coordinates": [[[26.068222204280296, 44.59218729397207], [26.068418269302363, 44.59216518039832], [26.06835906732837, 44.591899003738625], [26.068163002306303, 44.591921117312374], [26.068222204280296, 44.59218729397207]]]}}, {"type": "Feature", "properties": {"nr": 121, "suprafata_mp": 483, "front_m": 16.1, "adancime_m": 30}, "geometry": {"type": "Polygon", "coordinates": [[[26.063309486653168, 44.59239576945611], [26.06351009125512, 44.59237314387705], [26.06345088928113, 44.592106967217354], [26.063250284679174, 44.592129592796425], [26.063309486653168, 44.59239576945611]]]}}, {"type": "Feature", "properties": {"nr": 122, "suprafata_mp": 483, "front_m": 16.1, "adancime_m": 30}, "geometry": {"type": "Polygon", "coordinates": [[[26.06351009125512, 44.59237314387705], [26.0637106024966, 44.592350528827815], [26.063651400522605, 44.59208435216812], [26.06345088928113, 44.592106967217354], [26.06351009125512, 44.59237314387705]]]}}, {"type": "Feature", "properties": {"nr": 123, "suprafata_mp": 501, "front_m": 16.7, "adancime_m": 30}, "geometry": {"type": "Polygon", "coordinates": [[[26.0637106024966, 44.592350528827815], [26.063918569637497, 44.592327072850516], [26.063859367663504, 44.59206089619082], [26.063651400522605, 44.59208435216812], [26.0637106024966, 44.592350528827815]]]}}, {"type": "Feature", "properties": {"nr": 124, "suprafata_mp": 458, "front_m": 15.3, "adancime_m": 30}, "geometry": {"type": "Polygon", "coordinates": [[[26.063918569637497, 44.592327072850516], [26.064108744372735, 44.592305623624185], [26.06404954239874, 44.5920394469645], [26.063859367663504, 44.59206089619082], [26.063918569637497, 44.592327072850516]]]}}, {"type": "Feature", "properties": {"nr": 125, "suprafata_mp": 478, "front_m": 15.9, "adancime_m": 30}, "geometry": {"type": "Polygon", "coordinates": [[[26.064108744372735, 44.592305623624185], [26.064307156647228, 44.59228324531102], [26.064247954673235, 44.59201706865133], [26.06404954239874, 44.5920394469645], [26.064108744372735, 44.592305623624185]]]}}, {"type": "Feature", "properties": {"nr": 126, "suprafata_mp": 486, "front_m": 16.2, "adancime_m": 30}, "geometry": {"type": "Polygon", "coordinates": [[[26.064307156647228, 44.59228324531102], [26.064509122451057, 44.592260466206156], [26.064449920477063, 44.59199428954647], [26.064247954673235, 44.59201706865133], [26.064307156647228, 44.59228324531102]]]}}, {"type": "Feature", "properties": {"nr": 127, "suprafata_mp": 482, "front_m": 16.1, "adancime_m": 30}, "geometry": {"type": "Polygon", "coordinates": [[[26.064509122451057, 44.592260466206156], [26.064709486934134, 44.592237867709365], [26.06465028496014, 44.59197169104967], [26.064449920477063, 44.59199428954647], [26.064509122451057, 44.592260466206156]]]}}, {"type": "Feature", "properties": {"nr": 128, "suprafata_mp": 460, "front_m": 15.3, "adancime_m": 30}, "geometry": {"type": "Polygon", "coordinates": [[[26.064709486934134, 44.592237867709365], [26.064900350543432, 44.59221634078704], [26.06484114856944, 44.59195016412735], [26.06465028496014, 44.59197169104967], [26.064709486934134, 44.592237867709365]]]}}, {"type": "Feature", "properties": {"nr": 129, "suprafata_mp": 484, "front_m": 16.1, "adancime_m": 30}, "geometry": {"type": "Polygon", "coordinates": [[[26.064900350543432, 44.59221634078704], [26.06510156190607, 44.59219364677329], [26.065042359932075, 44.591927470113596], [26.06484114856944, 44.59195016412735], [26.064900350543432, 44.59221634078704]]]}}, {"type": "Feature", "properties": {"nr": 130, "suprafata_mp": 467, "front_m": 15.6, "adancime_m": 30}, "geometry": {"type": "Polygon", "coordinates": [[[26.06510156190607, 44.59219364677329], [26.06529537665066, 44.59217178700145], [26.065236174676667, 44.59190561034176], [26.065042359932075, 44.591927470113596], [26.06510156190607, 44.59219364677329]]]}}, {"type": "Feature", "properties": {"nr": 131, "suprafata_mp": 465, "front_m": 15.5, "adancime_m": 30}, "geometry": {"type": "Polygon", "coordinates": [[[26.06529537665066, 44.59217178700145], [26.065488660165695, 44.59214998714537], [26.0654294581917, 44.591883810485676], [26.065236174676667, 44.59190561034176], [26.06529537665066, 44.59217178700145]]]}}, {"type": "Feature", "properties": {"nr": 132, "suprafata_mp": 498, "front_m": 16.6, "adancime_m": 30}, "geometry": {"type": "Polygon", "coordinates": [[[26.065488660165695, 44.59214998714537], [26.065695562303837, 44.59212665128646], [26.065636360329844, 44.59186047462677], [26.0654294581917, 44.591883810485676], [26.065488660165695, 44.59214998714537]]]}}, {"type": "Feature", "properties": {"nr": 133, "suprafata_mp": 465, "front_m": 15.5, "adancime_m": 30}, "geometry": {"type": "Polygon", "coordinates": [[[26.065695562303837, 44.59212665128646], [26.06588889152905, 44.59210484627487], [26.065829689555056, 44.59183866961518], [26.065636360329844, 44.59186047462677], [26.065695562303837, 44.59212665128646]]]}}, {"type": "Feature", "properties": {"nr": 134, "suprafata_mp": 478, "front_m": 15.9, "adancime_m": 30}, "geometry": {"type": "Polygon", "coordinates": [[[26.06588889152905, 44.59210484627487], [26.066087333130515, 44.592082464654005], [26.06602813115652, 44.59181628799431], [26.065829689555056, 44.59183866961518], [26.06588889152905, 44.59210484627487]]]}}, {"type": "Feature", "properties": {"nr": 135, "suprafata_mp": 492, "front_m": 16.4, "adancime_m": 30}, "geometry": {"type": "Polygon", "coordinates": [[[26.066087333130515, 44.592082464654005], [26.066291675498555, 44.59205941750374], [26.06623247352456, 44.59179324084405], [26.06602813115652, 44.59181628799431], [26.066087333130515, 44.592082464654005]]]}}, {"type": "Feature", "properties": {"nr": 136, "suprafata_mp": 490, "front_m": 16.3, "adancime_m": 30}, "geometry": {"type": "Polygon", "coordinates": [[[26.066291675498555, 44.59205941750374], [26.06649516121766, 44.59203646697228], [26.066435959243666, 44.59177029031259], [26.06623247352456, 44.59179324084405], [26.066291675498555, 44.59205941750374]]]}}, {"type": "Feature", "properties": {"nr": 137, "suprafata_mp": 483, "front_m": 16.1, "adancime_m": 30}, "geometry": {"type": "Polygon", "coordinates": [[[26.06649516121766, 44.59203646697228], [26.066695579766314, 44.59201386237759], [26.06663637779232, 44.591747685717905], [26.066435959243666, 44.59177029031259], [26.06649516121766, 44.59203646697228]]]}}, {"type": "Feature", "properties": {"nr": 138, "suprafata_mp": 495, "front_m": 16.5, "adancime_m": 30}, "geometry": {"type": "Polygon", "coordinates": [[[26.066695579766314, 44.59201386237759], [26.06690105363837, 44.59199068760845], [26.06684185166438, 44.591724510948765], [26.06663637779232, 44.591747685717905], [26.066695579766314, 44.59201386237759]]]}}, {"type": "Feature", "properties": {"nr": 139, "suprafata_mp": 478, "front_m": 15.9, "adancime_m": 30}, "geometry": {"type": "Polygon", "coordinates": [[[26.06690105363837, 44.59199068760845], [26.06709972500239, 44.591968280073374], [26.067040523028396, 44.59170210341368], [26.06684185166438, 44.591724510948765], [26.06690105363837, 44.59199068760845]]]}}, {"type": "Feature", "properties": {"nr": 140, "suprafata_mp": 486, "front_m": 16.2, "adancime_m": 30}, "geometry": {"type": "Polygon", "coordinates": [[[26.06709972500239, 44.591968280073374], [26.06730147774831, 44.59194552499866], [26.067242275774316, 44.59167934833897], [26.067040523028396, 44.59170210341368], [26.06709972500239, 44.591968280073374]]]}}, {"type": "Feature", "properties": {"nr": 141, "suprafata_mp": 495, "front_m": 16.5, "adancime_m": 30}, "geometry": {"type": "Polygon", "coordinates": [[[26.06730147774831, 44.59194552499866], [26.067507188269992, 44.59192232353853], [26.067447986296, 44.59165614687884], [26.067242275774316, 44.59167934833897], [26.06730147774831, 44.59194552499866]]]}}, {"type": "Feature", "properties": {"nr": 142, "suprafata_mp": 489, "front_m": 16.3, "adancime_m": 30}, "geometry": {"type": "Polygon", "coordinates": [[[26.067507188269992, 44.59192232353853], [26.067710091405377, 44.59189943871491], [26.067650889431384, 44.59163326205522], [26.067447986296, 44.59165614687884], [26.067507188269992, 44.59192232353853]]]}}, {"type": "Feature", "properties": {"nr": 143, "suprafata_mp": 487, "front_m": 16.2, "adancime_m": 30}, "geometry": {"type": "Polygon", "coordinates": [[[26.067710091405377, 44.59189943871491], [26.067912271622234, 44.591876635427056], [26.06785306964824, 44.59161045876737], [26.067650889431384, 44.59163326205522], [26.067710091405377, 44.59189943871491]]]}}, {"type": "Feature", "properties": {"nr": 144, "suprafata_mp": 475, "front_m": 15.8, "adancime_m": 30}, "geometry": {"type": "Polygon", "coordinates": [[[26.067912271622234, 44.591876635427056], [26.068109753100043, 44.5918543620956], [26.06805055112605, 44.59158818543591], [26.06785306964824, 44.59161045876737], [26.067912271622234, 44.591876635427056]]]}}, {"type": "Feature", "properties": {"nr": 145, "suprafata_mp": 483, "front_m": 16.1, "adancime_m": 30}, "geometry": {"type": "Polygon", "coordinates": [[[26.068109753100043, 44.5918543620956], [26.068310268622927, 44.591831746563486], [26.068251066648934, 44.59156556990379], [26.06805055112605, 44.59158818543591], [26.068109753100043, 44.5918543620956]]]}}, {"type": "Feature", "properties": {"nr": 146, "suprafata_mp": 497, "front_m": 16.6, "adancime_m": 30}, "geometry": {"type": "Polygon", "coordinates": [[[26.063444563225342, 44.59210768071382], [26.06365109940754, 44.59208438612997], [26.063591897433547, 44.59181820947028], [26.06338536125135, 44.59184150405413], [26.063444563225342, 44.59210768071382]]]}}, {"type": "Feature", "properties": {"nr": 147, "suprafata_mp": 484, "front_m": 16.1, "adancime_m": 30}, "geometry": {"type": "Polygon", "coordinates": [[[26.06365109940754, 44.59208438612997], [26.06385203787538, 44.59206172289519], [26.06379283590139, 44.5917955462355], [26.063591897433547, 44.59181820947028], [26.06365109940754, 44.59208438612997]]]}}, {"type": "Feature", "properties": {"nr": 148, "suprafata_mp": 483, "front_m": 16.1, "adancime_m": 30}, "geometry": {"type": "Polygon", "coordinates": [[[26.06385203787538, 44.59206172289519], [26.064052543477835, 44.59203910848197], [26.063993341503842, 44.59177293182228], [26.06379283590139, 44.5917955462355], [26.06385203787538, 44.59206172289519]]]}}, {"type": "Feature", "properties": {"nr": 149, "suprafata_mp": 488, "front_m": 16.3, "adancime_m": 30}, "geometry": {"type": "Polygon", "coordinates": [[[26.064052543477835, 44.59203910848197], [26.06425518042236, 44.5920162536812], [26.064195978448367, 44.59175007702151], [26.063993341503842, 44.59177293182228], [26.064052543477835, 44.59203910848197]]]}}, {"type": "Feature", "properties": {"nr": 150, "suprafata_mp": 489, "front_m": 16.3, "adancime_m": 30}, "geometry": {"type": "Polygon", "coordinates": [[[26.06425518042236, 44.5920162536812], [26.06445807518485, 44.59199336980193], [26.064398873210855, 44.59172719314225], [26.064195978448367, 44.59175007702151], [26.06425518042236, 44.5920162536812]]]}}, {"type": "Feature", "properties": {"nr": 151, "suprafata_mp": 484, "front_m": 16.1, "adancime_m": 30}, "geometry": {"type": "Polygon", "coordinates": [[[26.06445807518485, 44.59199336980193], [26.064659094567876, 44.59197069744098], [26.064599892593883, 44.591704520781285], [26.064398873210855, 44.59172719314225], [26.06445807518485, 44.59199336980193]]]}}, {"type": "Feature", "properties": {"nr": 152, "suprafata_mp": 476, "front_m": 15.9, "adancime_m": 30}, "geometry": {"type": "Polygon", "coordinates": [[[26.064659094567876, 44.59197069744098], [26.064856865118987, 44.59194839150583], [26.064797663144994, 44.59168221484614], [26.064599892593883, 44.591704520781285], [26.064659094567876, 44.59197069744098]]]}}, {"type": "Feature", "properties": {"nr": 153, "suprafata_mp": 465, "front_m": 15.5, "adancime_m": 30}, "geometry": {"type": "Polygon", "coordinates": [[[26.064856865118987, 44.59194839150583], [26.065049908105046, 44.591926618778274], [26.064990706131052, 44.59166044211858], [26.064797663144994, 44.59168221484614], [26.064856865118987, 44.59194839150583]]]}}, {"type": "Feature", "properties": {"nr": 154, "suprafata_mp": 470, "front_m": 15.7, "adancime_m": 30}, "geometry": {"type": "Polygon", "coordinates": [[[26.065049908105046, 44.591926618778274], [26.06524512719362, 44.591904600614775], [26.065185925219627, 44.59163842395508], [26.064990706131052, 44.59166044211858], [26.065049908105046, 44.591926618778274]]]}}, {"type": "Feature", "properties": {"nr": 155, "suprafata_mp": 470, "front_m": 15.7, "adancime_m": 30}, "geometry": {"type": "Polygon", "coordinates": [[[26.06524512719362, 44.591904600614775], [26.065440351866904, 44.59188258182139], [26.06538114989291, 44.5916164051617], [26.065185925219627, 44.59163842395508], [26.06524512719362, 44.591904600614775]]]}}, {"type": "Feature", "properties": {"nr": 156, "suprafata_mp": 477, "front_m": 15.9, "adancime_m": 30}, "geometry": {"type": "Polygon", "coordinates": [[[26.065440351866904, 44.59188258182139], [26.065638324075643, 44.591860253141895], [26.06557912210165, 44.5915940764822], [26.06538114989291, 44.5916164051617], [26.065440351866904, 44.59188258182139]]]}}, {"type": "Feature", "properties": {"nr": 157, "suprafata_mp": 504, "front_m": 16.8, "adancime_m": 30}, "geometry": {"type": "Polygon", "coordinates": [[[26.065638324075643, 44.591860253141895], [26.06584762578133, 44.59183664664312], [26.065788423807337, 44.591570469983424], [26.06557912210165, 44.5915940764822], [26.065638324075643, 44.591860253141895]]]}}, {"type": "Feature", "properties": {"nr": 158, "suprafata_mp": 473, "front_m": 15.8, "adancime_m": 30}, "geometry": {"type": "Polygon", "coordinates": [[[26.06584762578133, 44.59183664664312], [26.066044039190842, 44.591814493775814], [26.06598483721685, 44.59154831711612], [26.065788423807337, 44.591570469983424], [26.06584762578133, 44.59183664664312]]]}}, {"type": "Feature", "properties": {"nr": 159, "suprafata_mp": 477, "front_m": 15.9, "adancime_m": 30}, "geometry": {"type": "Polygon", "coordinates": [[[26.066044039190842, 44.591814493775814], [26.066242343010195, 44.59179212769497], [26.066183141036202, 44.59152595103528], [26.06598483721685, 44.59154831711612], [26.066044039190842, 44.591814493775814]]]}}, {"type": "Feature", "properties": {"nr": 160, "suprafata_mp": 474, "front_m": 15.8, "adancime_m": 30}, "geometry": {"type": "Polygon", "coordinates": [[[26.066242343010195, 44.59179212769497], [26.066439136697625, 44.591769931937286], [26.06637993472363, 44.59150375527759], [26.066183141036202, 44.59152595103528], [26.066242343010195, 44.59179212769497]]]}}, {"type": "Feature", "properties": {"nr": 161, "suprafata_mp": 484, "front_m": 16.1, "adancime_m": 30}, "geometry": {"type": "Polygon", "coordinates": [[[26.066439136697625, 44.591769931937286], [26.066640112810894, 44.59174726445659], [26.0665809108369, 44.5914810877969], [26.06637993472363, 44.59150375527759], [26.066439136697625, 44.591769931937286]]]}}, {"type": "Feature", "properties": {"nr": 162, "suprafata_mp": 501, "front_m": 16.7, "adancime_m": 30}, "geometry": {"type": "Polygon", "coordinates": [[[26.066640112810894, 44.59174726445659], [26.066848394624007, 44.591723772988374], [26.066789192650013, 44.59145759632868], [26.0665809108369, 44.5914810877969], [26.066640112810894, 44.59174726445659]]]}}, {"type": "Feature", "properties": {"nr": 163, "suprafata_mp": 499, "front_m": 16.6, "adancime_m": 30}, "geometry": {"type": "Polygon", "coordinates": [[[26.066848394624007, 44.591723772988374], [26.067055503730433, 44.59170041378615], [26.06699630175644, 44.59143423712646], [26.066789192650013, 44.59145759632868], [26.066848394624007, 44.591723772988374]]]}}, {"type": "Feature", "properties": {"nr": 164, "suprafata_mp": 474, "front_m": 15.8, "adancime_m": 30}, "geometry": {"type": "Polygon", "coordinates": [[[26.067055503730433, 44.59170041378615], [26.067252407284833, 44.5916782056369], [26.06719320531084, 44.59141202897722], [26.06699630175644, 44.59143423712646], [26.067055503730433, 44.59170041378615]]]}}, {"type": "Feature", "properties": {"nr": 165, "suprafata_mp": 469, "front_m": 15.6, "adancime_m": 30}, "geometry": {"type": "Polygon", "coordinates": [[[26.067252407284833, 44.5916782056369], [26.067447113221426, 44.59165624535025], [26.067387911247433, 44.59139006869056], [26.06719320531084, 44.59141202897722], [26.067252407284833, 44.5916782056369]]]}}, {"type": "Feature", "properties": {"nr": 166, "suprafata_mp": 498, "front_m": 16.6, "adancime_m": 30}, "geometry": {"type": "Polygon", "coordinates": [[[26.067447113221426, 44.59165624535025], [26.067654129144575, 44.591632896657885], [26.067594927170582, 44.59136671999819], [26.067387911247433, 44.59139006869056], [26.067447113221426, 44.59165624535025]]]}}, {"type": "Feature", "properties": {"nr": 167, "suprafata_mp": 480, "front_m": 16.0, "adancime_m": 30}, "geometry": {"type": "Polygon", "coordinates": [[[26.067654129144575, 44.591632896657885], [26.067853359038693, 44.5916104261279], [26.0677941570647, 44.591344249468214], [26.067594927170582, 44.59136671999819], [26.067654129144575, 44.591632896657885]]]}}, {"type": "Feature", "properties": {"nr": 168, "suprafata_mp": 489, "front_m": 16.3, "adancime_m": 30}, "geometry": {"type": "Polygon", "coordinates": [[[26.067853359038693, 44.5916104261279], [26.06805641068219, 44.591587524554505], [26.067997208708196, 44.59132134789482], [26.0677941570647, 44.591344249468214], [26.067853359038693, 44.5916104261279]]]}}, {"type": "Feature", "properties": {"nr": 169, "suprafata_mp": 460, "front_m": 15.3, "adancime_m": 30}, "geometry": {"type": "Polygon", "coordinates": [[[26.06805641068219, 44.591587524554505], [26.068247256954272, 44.591565999587594], [26.06818805498028, 44.59129982292791], [26.067997208708196, 44.59132134789482], [26.06805641068219, 44.591587524554505]]]}}, {"type": "Feature", "properties": {"nr": 170, "suprafata_mp": 493, "front_m": 16.4, "adancime_m": 30}, "geometry": {"type": "Polygon", "coordinates": [[[26.06337328106743, 44.59177010550933], [26.063578026668413, 44.59174701287966], [26.06351882469442, 44.591480836219965], [26.063314079093438, 44.59150392884964], [26.06337328106743, 44.59177010550933]]]}}, {"type": "Feature", "properties": {"nr": 171, "suprafata_mp": 459, "front_m": 15.3, "adancime_m": 30}, "geometry": {"type": "Polygon", "coordinates": [[[26.063578026668413, 44.59174701287966], [26.06376854234797, 44.591725525199266], [26.063709340373975, 44.59145934853957], [26.06351882469442, 44.591480836219965], [26.063578026668413, 44.59174701287966]]]}}, {"type": "Feature", "properties": {"nr": 172, "suprafata_mp": 491, "front_m": 16.4, "adancime_m": 30}, "geometry": {"type": "Polygon", "coordinates": [[[26.06376854234797, 44.591725525199266], [26.063972536631173, 44.59170251730842], [26.06391333465718, 44.59143634064873], [26.063709340373975, 44.59145934853957], [26.06376854234797, 44.591725525199266]]]}}, {"type": "Feature", "properties": {"nr": 173, "suprafata_mp": 495, "front_m": 16.5, "adancime_m": 30}, "geometry": {"type": "Polygon", "coordinates": [[[26.063972536631173, 44.59170251730842], [26.06417821751497, 44.59167931919106], [26.064119015540978, 44.591413142531366], [26.06391333465718, 44.59143634064873], [26.063972536631173, 44.59170251730842]]]}}, {"type": "Feature", "properties": {"nr": 174, "suprafata_mp": 477, "front_m": 15.9, "adancime_m": 30}, "geometry": {"type": "Polygon", "coordinates": [[[26.06417821751497, 44.59167931919106], [26.064376477761606, 44.59165695802465], [26.064317275787612, 44.59139078136496], [26.064119015540978, 44.591413142531366], [26.06417821751497, 44.59167931919106]]]}}, {"type": "Feature", "properties": {"nr": 175, "suprafata_mp": 459, "front_m": 15.3, "adancime_m": 30}, "geometry": {"type": "Polygon", "coordinates": [[[26.064376477761606, 44.59165695802465], [26.06456710798486, 44.59163545742523], [26.064507906010867, 44.591369280765534], [26.064317275787612, 44.59139078136496], [26.064376477761606, 44.59165695802465]]]}}, {"type": "Feature", "properties": {"nr": 176, "suprafata_mp": 489, "front_m": 16.3, "adancime_m": 30}, "geometry": {"type": "Polygon", "coordinates": [[[26.06456710798486, 44.59163545742523], [26.06477010724059, 44.591612561760485], [26.064710905266598, 44.59134638510079], [26.064507906010867, 44.591369280765534], [26.06456710798486, 44.59163545742523]]]}}, {"type": "Feature", "properties": {"nr": 177, "suprafata_mp": 468, "front_m": 15.6, "adancime_m": 30}, "geometry": {"type": "Polygon", "coordinates": [[[26.06477010724059, 44.591612561760485], [26.064964399769607, 44.591590648100805], [26.064905197795614, 44.59132447144111], [26.064710905266598, 44.59134638510079], [26.06477010724059, 44.591612561760485]]]}}, {"type": "Feature", "properties": {"nr": 178, "suprafata_mp": 487, "front_m": 16.2, "adancime_m": 30}, "geometry": {"type": "Polygon", "coordinates": [[[26.064964399769607, 44.591590648100805], [26.065166610466758, 44.59156784137517], [26.065107408492764, 44.59130166471548], [26.064905197795614, 44.59132447144111], [26.064964399769607, 44.591590648100805]]]}}, {"type": "Feature", "properties": {"nr": 179, "suprafata_mp": 474, "front_m": 15.8, "adancime_m": 30}, "geometry": {"type": "Polygon", "coordinates": [[[26.065166610466758, 44.59156784137517], [26.065363503729834, 44.591545634386655], [26.06530430175584, 44.59127945772696], [26.065107408492764, 44.59130166471548], [26.065166610466758, 44.59156784137517]]]}}, {"type": "Feature", "properties": {"nr": 180, "suprafata_mp": 487, "front_m": 16.2, "adancime_m": 30}, "geometry": {"type": "Polygon", "coordinates": [[[26.065363503729834, 44.591545634386655], [26.065565590951657, 44.59152284158743], [26.065506388977663, 44.591256664927734], [26.06530430175584, 44.59127945772696], [26.065363503729834, 44.591545634386655]]]}}, {"type": "Feature", "properties": {"nr": 181, "suprafata_mp": 468, "front_m": 15.6, "adancime_m": 30}, "geometry": {"type": "Polygon", "coordinates": [[[26.065565590951657, 44.59152284158743], [26.06576012213034, 44.59150090101118], [26.065700920156345, 44.59123472435149], [26.065506388977663, 44.591256664927734], [26.065565590951657, 44.59152284158743]]]}}, {"type": "Feature", "properties": {"nr": 182, "suprafata_mp": 479, "front_m": 16.0, "adancime_m": 30}, "geometry": {"type": "Polygon", "coordinates": [[[26.06576012213034, 44.59150090101118], [26.0659590072175, 44.59147846937092], [26.065899805243507, 44.591212292711226], [26.065700920156345, 44.59123472435149], [26.06576012213034, 44.59150090101118]]]}}, {"type": "Feature", "properties": {"nr": 183, "suprafata_mp": 481, "front_m": 16.0, "adancime_m": 30}, "geometry": {"type": "Polygon", "coordinates": [[[26.0659590072175, 44.59147846937092], [26.06615885194365, 44.591455929495915], [26.066099649969658, 44.59118975283622], [26.065899805243507, 44.591212292711226], [26.0659590072175, 44.59147846937092]]]}}, {"type": "Feature", "properties": {"nr": 184, "suprafata_mp": 486, "front_m": 16.2, "adancime_m": 30}, "geometry": {"type": "Polygon", "coordinates": [[[26.06615885194365, 44.591455929495915], [26.06636081655675, 44.591433150525354], [26.066301614582756, 44.59116697386566], [26.066099649969658, 44.59118975283622], [26.06615885194365, 44.591455929495915]]]}}, {"type": "Feature", "properties": {"nr": 185, "suprafata_mp": 466, "front_m": 15.5, "adancime_m": 30}, "geometry": {"type": "Polygon", "coordinates": [[[26.06636081655675, 44.591433150525354], [26.066554251951974, 44.59141133353916], [26.06649504997798, 44.59114515687948], [26.066301614582756, 44.59116697386566], [26.06636081655675, 44.591433150525354]]]}}, {"type": "Feature", "properties": {"nr": 186, "suprafata_mp": 502, "front_m": 16.7, "adancime_m": 30}, "geometry": {"type": "Polygon", "coordinates": [[[26.066554251951974, 44.59141133353916], [26.06676281589909, 44.59138781024991], [26.066703613925096, 44.59112163359023], [26.06649504997798, 44.59114515687948], [26.066554251951974, 44.59141133353916]]]}}, {"type": "Feature", "properties": {"nr": 187, "suprafata_mp": 470, "front_m": 15.7, "adancime_m": 30}, "geometry": {"type": "Polygon", "coordinates": [[[26.06676281589909, 44.59138781024991], [26.066957965135245, 44.591365799964855], [26.06689876316125, 44.59109962330517], [26.066703613925096, 44.59112163359023], [26.06676281589909, 44.59138781024991]]]}}, {"type": "Feature", "properties": {"nr": 188, "suprafata_mp": 471, "front_m": 15.7, "adancime_m": 30}, "geometry": {"type": "Polygon", "coordinates": [[[26.066957965135245, 44.591365799964855], [26.06715345091996, 44.59134375172152], [26.067094248945967, 44.591077575061824], [26.06689876316125, 44.59109962330517], [26.066957965135245, 44.591365799964855]]]}}, {"type": "Feature", "properties": {"nr": 189, "suprafata_mp": 468, "front_m": 15.6, "adancime_m": 30}, "geometry": {"type": "Polygon", "coordinates": [[[26.06715345091996, 44.59134375172152], [26.06734794576665, 44.59132181524304], [26.067288743792655, 44.59105563858335], [26.067094248945967, 44.591077575061824], [26.06715345091996, 44.59134375172152]]]}}, {"type": "Feature", "properties": {"nr": 190, "suprafata_mp": 459, "front_m": 15.3, "adancime_m": 30}, "geometry": {"type": "Polygon", "coordinates": [[[26.06734794576665, 44.59132181524304], [26.067538676111827, 44.591300303351176], [26.067479474137834, 44.59103412669148], [26.067288743792655, 44.59105563858335], [26.06734794576665, 44.59132181524304]]]}}, {"type": "Feature", "properties": {"nr": 191, "suprafata_mp": 476, "front_m": 15.9, "adancime_m": 30}, "geometry": {"type": "Polygon", "coordinates": [[[26.067538676111827, 44.591300303351176], [26.067736492386548, 44.591277992258995], [26.067677290412554, 44.59101181559931], [26.067479474137834, 44.59103412669148], [26.067538676111827, 44.591300303351176]]]}}, {"type": "Feature", "properties": {"nr": 192, "suprafata_mp": 493, "front_m": 16.4, "adancime_m": 30}, "geometry": {"type": "Polygon", "coordinates": [[[26.067736492386548, 44.591277992258995], [26.067941264348548, 44.591254896656146], [26.067882062374554, 44.59098871999645], [26.067677290412554, 44.59101181559931], [26.067736492386548, 44.591277992258995]]]}}, {"type": "Feature", "properties": {"nr": 193, "suprafata_mp": 490, "front_m": 16.3, "adancime_m": 30}, "geometry": {"type": "Polygon", "coordinates": [[[26.067941264348548, 44.591254896656146], [26.068144794952957, 44.59123194106221], [26.06808559297896, 44.59096576440252], [26.067882062374554, 44.59098871999645], [26.067941264348548, 44.591254896656146]]]}}]}