{"type": "FeatureCollection", "features": [{"type": "Feature", "properties": {"nr": 1, "suprafata_mp": 676, "front_m": 19.3, "adancime_m": 35}, "geometry": {"type": "Polygon", "coordinates": [[[26.216545815052804, 44.64960245144715], [26.216770238784814, 44.649670225714644], [26.21694291428456, 44.64938080946201], [26.21671849055255, 44.64931303519452], [26.216545815052804, 44.64960245144715]]]}}, {"type": "Feature", "properties": {"nr": 2, "suprafata_mp": 684, "front_m": 19.5, "adancime_m": 35}, "geometry": {"type": "Polygon", "coordinates": [[[26.216770238784814, 44.649670225714644], [26.21699729248261, 44.64973879421189], [26.217169967982354, 44.64944937795926], [26.21694291428456, 44.64938080946201], [26.216770238784814, 44.649670225714644]]]}}, {"type": "Feature", "properties": {"nr": 3, "suprafata_mp": 727, "front_m": 20.8, "adancime_m": 35}, "geometry": {"type": "Polygon", "coordinates": [[[26.21699729248261, 44.64973879421189], [26.21723858952259, 44.64981166409061], [26.21741126502234, 44.64952224783797], [26.217169967982354, 44.64944937795926], [26.21699729248261, 44.64973879421189]]]}}, {"type": "Feature", "properties": {"nr": 4, "suprafata_mp": 701, "front_m": 20.0, "adancime_m": 35}, "geometry": {"type": "Polygon", "coordinates": [[[26.21723858952259, 44.64981166409061], [26.21747127310703, 44.64988193277099], [26.217643948606774, 44.64959251651835], [26.21741126502234, 44.64952224783797], [26.21723858952259, 44.64981166409061]]]}}, {"type": "Feature", "properties": {"nr": 5, "suprafata_mp": 724, "front_m": 20.7, "adancime_m": 35}, "geometry": {"type": "Polygon", "coordinates": [[[26.21747127310703, 44.64988193277099], [26.21771179881369, 44.64995456971288], [26.217884474313436, 44.64966515346025], [26.217643948606774, 44.64959251651835], [26.21747127310703, 44.64988193277099]]]}}, {"type": "Feature", "properties": {"nr": 6, "suprafata_mp": 710, "front_m": 20.3, "adancime_m": 35}, "geometry": {"type": "Polygon", "coordinates": [[[26.21771179881369, 44.64995456971288], [26.21794750261414, 44.65002575047562], [26.218120178113885, 44.649736334222986], [26.217884474313436, 44.64966515346025], [26.21771179881369, 44.64995456971288]]]}}, {"type": "Feature", "properties": {"nr": 7, "suprafata_mp": 717, "front_m": 20.5, "adancime_m": 35}, "geometry": {"type": "Polygon", "coordinates": [[[26.21794750261414, 44.65002575047562], [26.218185578715858, 44.65009764765538], [26.218358254215605, 44.649808231402744], [26.218120178113885, 44.649736334222986], [26.21794750261414, 44.65002575047562]]]}}, {"type": "Feature", "properties": {"nr": 8, "suprafata_mp": 671, "front_m": 19.2, "adancime_m": 35}, "geometry": {"type": "Polygon", "coordinates": [[[26.218185578715858, 44.65009764765538], [26.218408538777652, 44.650164979905554], [26.2185812142774, 44.64987556365292], [26.218358254215605, 44.649808231402744], [26.218185578715858, 44.65009764765538]]]}}, {"type": "Feature", "properties": {"nr": 9, "suprafata_mp": 698, "front_m": 19.9, "adancime_m": 35}, "geometry": {"type": "Polygon", "coordinates": [[[26.21563656204621, 44.648908229448615], [26.215868267906963, 44.64897820286384], [26.21604094340671, 44.6486887866112], [26.215809237545955, 44.648618813195974], [26.21563656204621, 44.648908229448615]]]}}, {"type": "Feature", "properties": {"nr": 10, "suprafata_mp": 703, "front_m": 20.1, "adancime_m": 35}, "geometry": {"type": "Polygon", "coordinates": [[[26.215868267906963, 44.64897820286384], [26.216101831206906, 44.649048737211636], [26.216274506706654, 44.648759320959], [26.21604094340671, 44.6486887866112], [26.215868267906963, 44.64897820286384]]]}}, {"type": "Feature", "properties": {"nr": 11, "suprafata_mp": 688, "front_m": 19.6, "adancime_m": 35}, "geometry": {"type": "Polygon", "coordinates": [[[26.216101831206906, 44.649048737211636], [26.216330153277696, 44.64911768874792], [26.21650282877744, 44.64882827249528], [26.216274506706654, 44.648759320959], [26.216101831206906, 44.649048737211636]]]}}, {"type": "Feature", "properties": {"nr": 12, "suprafata_mp": 718, "front_m": 20.5, "adancime_m": 35}, "geometry": {"type": "Polygon", "coordinates": [[[26.216330153277696, 44.64911768874792], [26.21656845146723, 44.64918965299651], [26.216741126966973, 44.64890023674388], [26.21650282877744, 44.64882827249528], [26.216330153277696, 44.64911768874792]]]}}, {"type": "Feature", "properties": {"nr": 13, "suprafata_mp": 667, "front_m": 19.1, "adancime_m": 35}, "geometry": {"type": "Polygon", "coordinates": [[[26.21656845146723, 44.64918965299651], [26.216789870375223, 44.64925651982991], [26.21696254587497, 44.64896710357728], [26.216741126966973, 44.64890023674388], [26.21656845146723, 44.64918965299651]]]}}, {"type": "Feature", "properties": {"nr": 14, "suprafata_mp": 691, "front_m": 19.7, "adancime_m": 35}, "geometry": {"type": "Polygon", "coordinates": [[[26.216789870375223, 44.64925651982991], [26.217019355236506, 44.64932582252012], [26.217192030736253, 44.649036406267484], [26.21696254587497, 44.64896710357728], [26.216789870375223, 44.64925651982991]]]}}, {"type": "Feature", "properties": {"nr": 15, "suprafata_mp": 667, "front_m": 19.1, "adancime_m": 35}, "geometry": {"type": "Polygon", "coordinates": [[[26.217019355236506, 44.64932582252012], [26.21724089393892, 44.649392725530525], [26.217413569438666, 44.64910330927789], [26.217192030736253, 44.649036406267484], [26.217019355236506, 44.64932582252012]]]}}, {"type": "Feature", "properties": {"nr": 16, "suprafata_mp": 674, "front_m": 19.2, "adancime_m": 35}, "geometry": {"type": "Polygon", "coordinates": [[[26.21724089393892, 44.649392725530525], [26.217464583831102, 44.649460278183945], [26.217637259330846, 44.64917086193131], [26.217413569438666, 44.64910330927789], [26.21724089393892, 44.649392725530525]]]}}, {"type": "Feature", "properties": {"nr": 17, "suprafata_mp": 733, "front_m": 20.9, "adancime_m": 35}, "geometry": {"type": "Polygon", "coordinates": [[[26.217464583831102, 44.649460278183945], [26.21770789896291, 44.649533757511115], [26.217880574462654, 44.64924434125848], [26.217637259330846, 44.64917086193131], [26.217464583831102, 44.649460278183945]]]}}, {"type": "Feature", "properties": {"nr": 18, "suprafata_mp": 711, "front_m": 20.3, "adancime_m": 35}, "geometry": {"type": "Polygon", "coordinates": [[[26.21770789896291, 44.649533757511115], [26.217944022196793, 44.64960506493958], [26.21811669769654, 44.64931564868694], [26.217880574462654, 44.64924434125848], [26.21770789896291, 44.649533757511115]]]}}, {"type": "Feature", "properties": {"nr": 19, "suprafata_mp": 695, "front_m": 19.9, "adancime_m": 35}, "geometry": {"type": "Polygon", "coordinates": [[[26.217944022196793, 44.64960506493958], [26.218174809624614, 44.64967476099501], [26.218347485124358, 44.64938534474238], [26.21811669769654, 44.64931564868694], [26.217944022196793, 44.64960506493958]]]}}, {"type": "Feature", "properties": {"nr": 20, "suprafata_mp": 702, "front_m": 20.0, "adancime_m": 35}, "geometry": {"type": "Polygon", "coordinates": [[[26.218174809624614, 44.64967476099501], [26.218407817468844, 44.64974512759939], [26.218580492968588, 44.649455711346754], [26.218347485124358, 44.64938534474238], [26.218174809624614, 44.64967476099501]]]}}, {"type": "Feature", "properties": {"nr": 21, "suprafata_mp": 726, "front_m": 20.7, "adancime_m": 35}, "geometry": {"type": "Polygon", "coordinates": [[[26.218407817468844, 44.64974512759939], [26.21864893963345, 44.64981794466707], [26.218821615133198, 44.649528528414436], [26.218580492968588, 44.649455711346754], [26.218407817468844, 44.64974512759939]]]}}, {"type": "Feature", "properties": {"nr": 22, "suprafata_mp": 689, "front_m": 19.7, "adancime_m": 35}, "geometry": {"type": "Polygon", "coordinates": [[[26.21864893963345, 44.64981794466707], [26.218877774208266, 44.64988705097569], [26.219050449708014, 44.64959763472305], [26.218821615133198, 44.649528528414436], [26.21864893963345, 44.64981794466707]]]}}, {"type": "Feature", "properties": {"nr": 23, "suprafata_mp": 706, "front_m": 20.2, "adancime_m": 35}, "geometry": {"type": "Polygon", "coordinates": [[[26.218877774208266, 44.64988705097569], [26.219112329067443, 44.64995788476686], [26.21928500456719, 44.64966846851423], [26.219050449708014, 44.64959763472305], [26.218877774208266, 44.64988705097569]]]}}, {"type": "Feature", "properties": {"nr": 24, "suprafata_mp": 713, "front_m": 20.4, "adancime_m": 35}, "geometry": {"type": "Polygon", "coordinates": [[[26.219112329067443, 44.64995788476686], [26.219349054911948, 44.65002937417917], [26.219521730411696, 44.649739957926535], [26.21928500456719, 44.64966846851423], [26.219112329067443, 44.64995788476686]]]}}, {"type": "Feature", "properties": {"nr": 25, "suprafata_mp": 701, "front_m": 20.0, "adancime_m": 35}, "geometry": {"type": "Polygon", "coordinates": [[[26.215347450544446, 44.64847935701866], [26.215580360169323, 44.648549693961535], [26.21575303566907, 44.6482602777089], [26.215520126044193, 44.648189940766024], [26.215347450544446, 44.64847935701866]]]}}, {"type": "Feature", "properties": {"nr": 26, "suprafata_mp": 732, "front_m": 20.9, "adancime_m": 35}, "geometry": {"type": "Polygon", "coordinates": [[[26.215580360169323, 44.648549693961535], [26.215823298489045, 44.648623059494305], [26.21599597398879, 44.64833364324167], [26.21575303566907, 44.6482602777089], [26.215580360169323, 44.648549693961535]]]}}, {"type": "Feature", "properties": {"nr": 27, "suprafata_mp": 683, "front_m": 19.5, "adancime_m": 35}, "geometry": {"type": "Polygon", "coordinates": [[[26.215823298489045, 44.648623059494305], [26.21604996630855, 44.648691511459226], [26.216222641808294, 44.64840209520659], [26.21599597398879, 44.64833364324167], [26.215823298489045, 44.648623059494305]]]}}, {"type": "Feature", "properties": {"nr": 28, "suprafata_mp": 721, "front_m": 20.6, "adancime_m": 35}, "geometry": {"type": "Polygon", "coordinates": [[[26.21604996630855, 44.648691511459226], [26.216289536363078, 44.64876385980142], [26.216462211862826, 44.648474443548785], [26.216222641808294, 44.64840209520659], [26.21604996630855, 44.648691511459226]]]}}, {"type": "Feature", "properties": {"nr": 29, "suprafata_mp": 712, "front_m": 20.4, "adancime_m": 35}, "geometry": {"type": "Polygon", "coordinates": [[[26.216289536363078, 44.64876385980142], [26.216526094533048, 44.64883529857728], [26.216698770032796, 44.64854588232465], [26.216462211862826, 44.648474443548785], [26.216289536363078, 44.64876385980142]]]}}, {"type": "Feature", "properties": {"nr": 30, "suprafata_mp": 715, "front_m": 20.4, "adancime_m": 35}, "geometry": {"type": "Polygon", "coordinates": [[[26.216526094533048, 44.64883529857728], [26.21676359681615, 44.648907022468165], [26.2169362723159, 44.648617606215524], [26.216698770032796, 44.64854588232465], [26.216526094533048, 44.64883529857728]]]}}, {"type": "Feature", "properties": {"nr": 31, "suprafata_mp": 709, "front_m": 20.3, "adancime_m": 35}, "geometry": {"type": "Polygon", "coordinates": [[[26.21676359681615, 44.648907022468165], [26.21699906595265, 44.648978132364164], [26.217171741452393, 44.64868871611153], [26.2169362723159, 44.648617606215524], [26.21676359681615, 44.648907022468165]]]}}, {"type": "Feature", "properties": {"nr": 32, "suprafata_mp": 733, "front_m": 20.9, "adancime_m": 35}, "geometry": {"type": "Polygon", "coordinates": [[[26.21699906595265, 44.648978132364164], [26.217242483655035, 44.64905164266687], [26.217415159154783, 44.648762226414235], [26.217171741452393, 44.64868871611153], [26.21699906595265, 44.648978132364164]]]}}, {"type": "Feature", "properties": {"nr": 33, "suprafata_mp": 688, "front_m": 19.7, "adancime_m": 35}, "geometry": {"type": "Polygon", "coordinates": [[[26.217242483655035, 44.64905164266687], [26.21747105022651, 44.64912066804051], [26.217643725726255, 44.648831251787875], [26.217415159154783, 44.648762226414235], [26.217242483655035, 44.64905164266687]]]}}, {"type": "Feature", "properties": {"nr": 34, "suprafata_mp": 693, "front_m": 19.8, "adancime_m": 35}, "geometry": {"type": "Polygon", "coordinates": [[[26.21747105022651, 44.64912066804051], [26.217701141572146, 44.6491901538844], [26.217873817071894, 44.64890073763176], [26.217643725726255, 44.648831251787875], [26.21747105022651, 44.64912066804051]]]}}, {"type": "Feature", "properties": {"nr": 35, "suprafata_mp": 679, "front_m": 19.4, "adancime_m": 35}, "geometry": {"type": "Polygon", "coordinates": [[[26.217701141572146, 44.6491901538844], [26.217926691569033, 44.64925826827536], [26.218099367068778, 44.64896885202272], [26.217873817071894, 44.64890073763176], [26.217701141572146, 44.6491901538844]]]}}, {"type": "Feature", "properties": {"nr": 36, "suprafata_mp": 669, "front_m": 19.1, "adancime_m": 35}, "geometry": {"type": "Polygon", "coordinates": [[[26.217926691569033, 44.64925826827536], [26.218148703406815, 44.64932531416906], [26.21832137890656, 44.64903589791643], [26.218099367068778, 44.64896885202272], [26.217926691569033, 44.64925826827536]]]}}, {"type": "Feature", "properties": {"nr": 37, "suprafata_mp": 680, "front_m": 19.4, "adancime_m": 35}, "geometry": {"type": "Polygon", "coordinates": [[[26.218148703406815, 44.64932531416906], [26.218374485777, 44.649393498734995], [26.218547161276746, 44.64910408248236], [26.21832137890656, 44.64903589791643], [26.218148703406815, 44.64932531416906]]]}}, {"type": "Feature", "properties": {"nr": 38, "suprafata_mp": 729, "front_m": 20.8, "adancime_m": 35}, "geometry": {"type": "Polygon", "coordinates": [[[26.218374485777, 44.649393498734995], [26.218616599487024, 44.649466615241884], [26.21878927498677, 44.64917719898925], [26.218547161276746, 44.64910408248236], [26.218374485777, 44.649393498734995]]]}}, {"type": "Feature", "properties": {"nr": 39, "suprafata_mp": 678, "front_m": 19.4, "adancime_m": 35}, "geometry": {"type": "Polygon", "coordinates": [[[26.215042441376855, 44.64796761208353], [26.215267720351626, 44.64803564462786], [26.21544039585137, 44.64774622837522], [26.2152151168766, 44.64767819583089], [26.215042441376855, 44.64796761208353]]]}}, {"type": "Feature", "properties": {"nr": 40, "suprafata_mp": 705, "front_m": 20.1, "adancime_m": 35}, "geometry": {"type": "Polygon", "coordinates": [[[26.215267720351626, 44.64803564462786], [26.215501905693316, 44.648106366827555], [26.215674581193063, 44.647816950574914], [26.21544039585137, 44.64774622837522], [26.215267720351626, 44.64803564462786]]]}}, {"type": "Feature", "properties": {"nr": 41, "suprafata_mp": 668, "front_m": 19.1, "adancime_m": 35}, "geometry": {"type": "Polygon", "coordinates": [[[26.215501905693316, 44.648106366827555], [26.215723661419528, 44.6481733353775], [26.215896336919275, 44.647883919124865], [26.215674581193063, 44.647816950574914], [26.215501905693316, 44.648106366827555]]]}}, {"type": "Feature", "properties": {"nr": 42, "suprafata_mp": 721, "front_m": 20.6, "adancime_m": 35}, "geometry": {"type": "Polygon", "coordinates": [[[26.215723661419528, 44.6481733353775], [26.215963129780555, 44.64824565300903], [26.216135805280302, 44.647956236756386], [26.215896336919275, 44.647883919124865], [26.215723661419528, 44.6481733353775]]]}}, {"type": "Feature", "properties": {"nr": 43, "suprafata_mp": 732, "front_m": 20.9, "adancime_m": 35}, "geometry": {"type": "Polygon", "coordinates": [[[26.215963129780555, 44.64824565300903], [26.21620628039586, 44.64831908265345], [26.216378955895603, 44.64802966640082], [26.216135805280302, 44.647956236756386], [26.215963129780555, 44.64824565300903]]]}}, {"type": "Feature", "properties": {"nr": 44, "suprafata_mp": 725, "front_m": 20.7, "adancime_m": 35}, "geometry": {"type": "Polygon", "coordinates": [[[26.21620628039586, 44.64831908265345], [26.216446965540012, 44.648391767744265], [26.21661964103976, 44.64810235149163], [26.216378955895603, 44.64802966640082], [26.21620628039586, 44.64831908265345]]]}}, {"type": "Feature", "properties": {"nr": 45, "suprafata_mp": 669, "front_m": 19.1, "adancime_m": 35}, "geometry": {"type": "Polygon", "coordinates": [[[26.216446965540012, 44.648391767744265], [26.21666897750775, 44.648458813677216], [26.2168416530075, 44.64816939742458], [26.21661964103976, 44.64810235149163], [26.216446965540012, 44.648391767744265]]]}}, {"type": "Feature", "properties": {"nr": 46, "suprafata_mp": 689, "front_m": 19.7, "adancime_m": 35}, "geometry": {"type": "Polygon", "coordinates": [[[26.21666897750775, 44.648458813677216], [26.216897683055926, 44.64852788102077], [26.217070358555674, 44.64823846476813], [26.2168416530075, 44.64816939742458], [26.21666897750775, 44.648458813677216]]]}}, {"type": "Feature", "properties": {"nr": 47, "suprafata_mp": 687, "front_m": 19.6, "adancime_m": 35}, "geometry": {"type": "Polygon", "coordinates": [[[26.216897683055926, 44.64852788102077], [26.21712590842242, 44.64859680335309], [26.217298583922165, 44.64830738710045], [26.217070358555674, 44.64823846476813], [26.216897683055926, 44.64852788102077]]]}}, {"type": "Feature", "properties": {"nr": 48, "suprafata_mp": 673, "front_m": 19.2, "adancime_m": 35}, "geometry": {"type": "Polygon", "coordinates": [[[26.21712590842242, 44.64859680335309], [26.217349361788063, 44.648664284577286], [26.217522037287807, 44.64837486832465], [26.217298583922165, 44.64830738710045], [26.21712590842242, 44.64859680335309]]]}}, {"type": "Feature", "properties": {"nr": 49, "suprafata_mp": 709, "front_m": 20.3, "adancime_m": 35}, "geometry": {"type": "Polygon", "coordinates": [[[26.217349361788063, 44.648664284577286], [26.217584760946856, 44.64873537334055], [26.2177574364466, 44.648445957087915], [26.217522037287807, 44.64837486832465], [26.217349361788063, 44.648664284577286]]]}}, {"type": "Feature", "properties": {"nr": 50, "suprafata_mp": 721, "front_m": 20.6, "adancime_m": 35}, "geometry": {"type": "Polygon", "coordinates": [[[26.217584760946856, 44.64873537334055], [26.217824131531554, 44.648807661444366], [26.217996807031298, 44.64851824519173], [26.2177574364466, 44.648445957087915], [26.217584760946856, 44.64873537334055]]]}}, {"type": "Feature", "properties": {"nr": 51, "suprafata_mp": 687, "front_m": 19.6, "adancime_m": 35}, "geometry": {"type": "Polygon", "coordinates": [[[26.217824131531554, 44.648807661444366], [26.218052257366764, 44.64887655371899], [26.21822493286651, 44.64858713746635], [26.217996807031298, 44.64851824519173], [26.217824131531554, 44.648807661444366]]]}}, {"type": "Feature", "properties": {"nr": 52, "suprafata_mp": 706, "front_m": 20.2, "adancime_m": 35}, "geometry": {"type": "Polygon", "coordinates": [[[26.214516448099317, 44.64746720315121], [26.21475074176146, 44.647537958062856], [26.214923417261204, 44.64724854181022], [26.21468912359906, 44.64717778689857], [26.214516448099317, 44.64746720315121]]]}}, {"type": "Feature", "properties": {"nr": 53, "suprafata_mp": 686, "front_m": 19.6, "adancime_m": 35}, "geometry": {"type": "Polygon", "coordinates": [[[26.21475074176146, 44.647537958062856], [26.214978541516725, 44.647606751863805], [26.21515121701647, 44.64731733561117], [26.214923417261204, 44.64724854181022], [26.21475074176146, 44.647537958062856]]]}}, {"type": "Feature", "properties": {"nr": 54, "suprafata_mp": 670, "front_m": 19.2, "adancime_m": 35}, "geometry": {"type": "Polygon", "coordinates": [[[26.214978541516725, 44.647606751863805], [26.215201177324897, 44.64767398619184], [26.215373852824644, 44.647384569939206], [26.21515121701647, 44.64731733561117], [26.214978541516725, 44.647606751863805]]]}}, {"type": "Feature", "properties": {"nr": 55, "suprafata_mp": 718, "front_m": 20.5, "adancime_m": 35}, "geometry": {"type": "Polygon", "coordinates": [[[26.215201177324897, 44.64767398619184], [26.215439751114985, 44.64774603366972], [26.215612426614733, 44.64745661741708], [26.215373852824644, 44.647384569939206], [26.215201177324897, 44.64767398619184]]]}}, {"type": "Feature", "properties": {"nr": 56, "suprafata_mp": 674, "front_m": 19.3, "adancime_m": 35}, "geometry": {"type": "Polygon", "coordinates": [[[26.215439751114985, 44.64774603366972], [26.21566363131624, 44.64781364379504], [26.215836306815984, 44.647524227542405], [26.215612426614733, 44.64745661741708], [26.215439751114985, 44.64774603366972]]]}}, {"type": "Feature", "properties": {"nr": 57, "suprafata_mp": 674, "front_m": 19.3, "adancime_m": 35}, "geometry": {"type": "Polygon", "coordinates": [[[26.21566363131624, 44.64781364379504], [26.215887560976086, 44.64788126885648], [26.21606023647583, 44.647591852603846], [26.215836306815984, 44.647524227542405], [26.21566363131624, 44.64781364379504]]]}}, {"type": "Feature", "properties": {"nr": 58, "suprafata_mp": 674, "front_m": 19.3, "adancime_m": 35}, "geometry": {"type": "Polygon", "coordinates": [[[26.215887560976086, 44.64788126885648], [26.216111432001313, 44.64794887621071], [26.216284107501057, 44.64765945995808], [26.21606023647583, 44.647591852603846], [26.215887560976086, 44.64788126885648]]]}}, {"type": "Feature", "properties": {"nr": 59, "suprafata_mp": 671, "front_m": 19.2, "adancime_m": 35}, "geometry": {"type": "Polygon", "coordinates": [[[26.216111432001313, 44.64794887621071], [26.216334154184057, 44.64801613662322], [26.216506829683805, 44.64772672037058], [26.216284107501057, 44.64765945995808], [26.216111432001313, 44.64794887621071]]]}}, {"type": "Feature", "properties": {"nr": 60, "suprafata_mp": 728, "front_m": 20.8, "adancime_m": 35}, "geometry": {"type": "Polygon", "coordinates": [[[26.216334154184057, 44.64801613662322], [26.216576057009267, 44.648089189444484], [26.216748732509014, 44.64779977319185], [26.216506829683805, 44.64772672037058], [26.216334154184057, 44.64801613662322]]]}}, {"type": "Feature", "properties": {"nr": 61, "suprafata_mp": 684, "front_m": 19.5, "adancime_m": 35}, "geometry": {"type": "Polygon", "coordinates": [[[26.216576057009267, 44.648089189444484], [26.21680314894596, 44.648157769489586], [26.216975824445708, 44.64786835323695], [26.216748732509014, 44.64779977319185], [26.216576057009267, 44.648089189444484]]]}}, {"type": "Feature", "properties": {"nr": 62, "suprafata_mp": 686, "front_m": 19.6, "adancime_m": 35}, "geometry": {"type": "Polygon", "coordinates": [[[26.21680314894596, 44.648157769489586], [26.21703110483509, 44.64822661044178], [26.217203780334835, 44.64793719418915], [26.216975824445708, 44.64786835323695], [26.21680314894596, 44.648157769489586]]]}}, {"type": "Feature", "properties": {"nr": 63, "suprafata_mp": 723, "front_m": 20.7, "adancime_m": 35}, "geometry": {"type": "Polygon", "coordinates": [[[26.21703110483509, 44.64822661044178], [26.217271296829406, 44.64829914660508], [26.217443972329153, 44.64800973035245], [26.217203780334835, 44.64793719418915], [26.21703110483509, 44.64822661044178]]]}}, {"type": "Feature", "properties": {"nr": 64, "suprafata_mp": 708, "front_m": 20.2, "adancime_m": 35}, "geometry": {"type": "Polygon", "coordinates": [[[26.217271296829406, 44.64829914660508], [26.217506540513273, 44.648370188416095], [26.21767921601302, 44.64808077216346], [26.217443972329153, 44.64800973035245], [26.217271296829406, 44.64829914660508]]]}}, {"type": "Feature", "properties": {"nr": 65, "suprafata_mp": 678, "front_m": 19.4, "adancime_m": 35}, "geometry": {"type": "Polygon", "coordinates": [[[26.217506540513273, 44.648370188416095], [26.217731723965052, 44.64843819211321], [26.2179043994648, 44.64814877586057], [26.21767921601302, 44.64808077216346], [26.217506540513273, 44.648370188416095]]]}}, {"type": "Feature", "properties": {"nr": 66, "suprafata_mp": 716, "front_m": 20.4, "adancime_m": 35}, "geometry": {"type": "Polygon", "coordinates": [[[26.21410594454187, 44.646923599709254], [26.214343552692736, 44.6469953555714], [26.214516228192483, 44.646705939318764], [26.21427862004162, 44.64663418345662], [26.21410594454187, 44.646923599709254]]]}}, {"type": "Feature", "properties": {"nr": 67, "suprafata_mp": 692, "front_m": 19.8, "adancime_m": 35}, "geometry": {"type": "Polygon", "coordinates": [[[26.214343552692736, 44.6469953555714], [26.214573253170826, 44.647064723376246], [26.21474592867057, 44.64677530712361], [26.214516228192483, 44.646705939318764], [26.214343552692736, 44.6469953555714]]]}}, {"type": "Feature", "properties": {"nr": 68, "suprafata_mp": 723, "front_m": 20.7, "adancime_m": 35}, "geometry": {"type": "Polygon", "coordinates": [[[26.214573253170826, 44.647064723376246], [26.21481339510257, 44.647137244421025], [26.214986070602315, 44.64684782816839], [26.21474592867057, 44.64677530712361], [26.214573253170826, 44.647064723376246]]]}}, {"type": "Feature", "properties": {"nr": 69, "suprafata_mp": 729, "front_m": 20.8, "adancime_m": 35}, "geometry": {"type": "Polygon", "coordinates": [[[26.21481339510257, 44.647137244421025], [26.215055601770562, 44.64721038900051], [26.215228277270306, 44.64692097274788], [26.214986070602315, 44.64684782816839], [26.21481339510257, 44.647137244421025]]]}}, {"type": "Feature", "properties": {"nr": 70, "suprafata_mp": 692, "front_m": 19.8, "adancime_m": 35}, "geometry": {"type": "Polygon", "coordinates": [[[26.215055601770562, 44.64721038900051], [26.215285441058068, 44.64727979872476], [26.215458116557812, 44.64699038247212], [26.215228277270306, 44.64692097274788], [26.215055601770562, 44.64721038900051]]]}}, {"type": "Feature", "properties": {"nr": 71, "suprafata_mp": 675, "front_m": 19.3, "adancime_m": 35}, "geometry": {"type": "Polygon", "coordinates": [[[26.215285441058068, 44.64727979872476], [26.215509477868782, 44.64734745614495], [26.21568215336853, 44.647058039892315], [26.215458116557812, 44.64699038247212], [26.215285441058068, 44.64727979872476]]]}}, {"type": "Feature", "properties": {"nr": 72, "suprafata_mp": 718, "front_m": 20.5, "adancime_m": 35}, "geometry": {"type": "Polygon", "coordinates": [[[26.215509477868782, 44.64734745614495], [26.21574798639324, 44.647419483913104], [26.215920661892987, 44.64713006766046], [26.21568215336853, 44.647058039892315], [26.215509477868782, 44.64734745614495]]]}}, {"type": "Feature", "properties": {"nr": 73, "suprafata_mp": 735, "front_m": 21.0, "adancime_m": 35}, "geometry": {"type": "Polygon", "coordinates": [[[26.21574798639324, 44.647419483913104], [26.215991901275995, 44.64749314436051], [26.21616457677574, 44.647203728107876], [26.215920661892987, 44.64713006766046], [26.21574798639324, 44.647419483913104]]]}}, {"type": "Feature", "properties": {"nr": 74, "suprafata_mp": 675, "front_m": 19.3, "adancime_m": 35}, "geometry": {"type": "Polygon", "coordinates": [[[26.215991901275995, 44.64749314436051], [26.216216174540815, 44.647560873188056], [26.21638885004056, 44.64727145693542], [26.21616457677574, 44.647203728107876], [26.215991901275995, 44.64749314436051]]]}}, {"type": "Feature", "properties": {"nr": 75, "suprafata_mp": 715, "front_m": 20.4, "adancime_m": 35}, "geometry": {"type": "Polygon", "coordinates": [[[26.216216174540815, 44.647560873188056], [26.21645357430552, 44.64763256611916], [26.216626249805266, 44.64734314986652], [26.21638885004056, 44.64727145693542], [26.216216174540815, 44.647560873188056]]]}}, {"type": "Feature", "properties": {"nr": 76, "suprafata_mp": 723, "front_m": 20.7, "adancime_m": 35}, "geometry": {"type": "Polygon", "coordinates": [[[26.21645357430552, 44.64763256611916], [26.216693592634066, 44.64770504983671], [26.21686626813381, 44.64741563358407], [26.216626249805266, 44.64734314986652], [26.21645357430552, 44.64763256611916]]]}}, {"type": "Feature", "properties": {"nr": 77, "suprafata_mp": 729, "front_m": 20.8, "adancime_m": 35}, "geometry": {"type": "Polygon", "coordinates": [[[26.216693592634066, 44.64770504983671], [26.216935825072095, 44.64777820219855], [26.217108500571843, 44.64748878594592], [26.21686626813381, 44.64741563358407], [26.216693592634066, 44.64770504983671]]]}}, {"type": "Feature", "properties": {"nr": 78, "suprafata_mp": 674, "front_m": 19.2, "adancime_m": 35}, "geometry": {"type": "Polygon", "coordinates": [[[26.216935825072095, 44.64777820219855], [26.21715952633863, 44.64784575828695], [26.217332201838374, 44.64755634203431], [26.217108500571843, 44.64748878594592], [26.216935825072095, 44.64777820219855]]]}}, {"type": "Feature", "properties": {"nr": 79, "suprafata_mp": 671, "front_m": 19.2, "adancime_m": 35}, "geometry": {"type": "Polygon", "coordinates": [[[26.21715952633863, 44.64784575828695], [26.217382493706705, 44.64791309274356], [26.21755516920645, 44.64762367649092], [26.217332201838374, 44.64755634203431], [26.21715952633863, 44.64784575828695]]]}}, {"type": "Feature", "properties": {"nr": 80, "suprafata_mp": 693, "front_m": 19.8, "adancime_m": 35}, "geometry": {"type": "Polygon", "coordinates": [[[26.20912222723103, 44.645076991877445], [26.20935222175166, 44.645146448480915], [26.209524897251406, 44.64485703222828], [26.20929490273078, 44.64478757562481], [26.20912222723103, 44.645076991877445]]]}}, {"type": "Feature", "properties": {"nr": 81, "suprafata_mp": 681, "front_m": 19.5, "adancime_m": 35}, "geometry": {"type": "Polygon", "coordinates": [[[26.20935222175166, 44.645146448480915], [26.209578335866905, 44.64521473323135], [26.20975101136665, 44.64492531697871], [26.209524897251406, 44.64485703222828], [26.20935222175166, 44.645146448480915]]]}}, {"type": "Feature", "properties": {"nr": 82, "suprafata_mp": 674, "front_m": 19.2, "adancime_m": 35}, "geometry": {"type": "Polygon", "coordinates": [[[26.209578335866905, 44.64521473323135], [26.20980207258223, 44.645282300025], [26.209974748081976, 44.64499288377237], [26.20975101136665, 44.64492531697871], [26.209578335866905, 44.64521473323135]]]}}, {"type": "Feature", "properties": {"nr": 83, "suprafata_mp": 667, "front_m": 19.1, "adancime_m": 35}, "geometry": {"type": "Polygon", "coordinates": [[[26.20980207258223, 44.645282300025], [26.210023673434783, 44.64534922180428], [26.210196348934527, 44.64505980555165], [26.209974748081976, 44.64499288377237], [26.20980207258223, 44.645282300025]]]}}, {"type": "Feature", "properties": {"nr": 84, "suprafata_mp": 700, "front_m": 20.0, "adancime_m": 35}, "geometry": {"type": "Polygon", "coordinates": [[[26.210023673434783, 44.64534922180428], [26.21025620698371, 44.64541944517507], [26.21042888248346, 44.64513002892243], [26.210196348934527, 44.64505980555165], [26.210023673434783, 44.64534922180428]]]}}, {"type": "Feature", "properties": {"nr": 85, "suprafata_mp": 675, "front_m": 19.3, "adancime_m": 35}, "geometry": {"type": "Polygon", "coordinates": [[[26.21396373148022, 44.64653908949574], [26.21418773324983, 44.64660673633379], [26.214360408749577, 44.64631732008115], [26.214136406979964, 44.646249673243105], [26.21396373148022, 44.64653908949574]]]}}, {"type": "Feature", "properties": {"nr": 86, "suprafata_mp": 673, "front_m": 19.2, "adancime_m": 35}, "geometry": {"type": "Polygon", "coordinates": [[[26.21418773324983, 44.64660673633379], [26.214411197648975, 44.64667422089002], [26.21458387314872, 44.646384804637385], [26.214360408749577, 44.64631732008115], [26.21418773324983, 44.64660673633379]]]}}, {"type": "Feature", "properties": {"nr": 87, "suprafata_mp": 734, "front_m": 21.0, "adancime_m": 35}, "geometry": {"type": "Polygon", "coordinates": [[[26.214411197648975, 44.64667422089002], [26.214654802153508, 44.64674778760556], [26.21482747765325, 44.64645837135293], [26.21458387314872, 44.646384804637385], [26.214411197648975, 44.64667422089002]]]}}, {"type": "Feature", "properties": {"nr": 88, "suprafata_mp": 731, "front_m": 20.9, "adancime_m": 35}, "geometry": {"type": "Polygon", "coordinates": [[[26.214654802153508, 44.64674778760556], [26.214897523199106, 44.64682108752319], [26.21507019869885, 44.64653167127056], [26.21482747765325, 44.64645837135293], [26.214654802153508, 44.64674778760556]]]}}, {"type": "Feature", "properties": {"nr": 89, "suprafata_mp": 681, "front_m": 19.5, "adancime_m": 35}, "geometry": {"type": "Polygon", "coordinates": [[[26.214897523199106, 44.64682108752319], [26.215123718387595, 44.64688939675713], [26.21529639388734, 44.64659998050449], [26.21507019869885, 44.64653167127056], [26.214897523199106, 44.64682108752319]]]}}, {"type": "Feature", "properties": {"nr": 90, "suprafata_mp": 733, "front_m": 20.9, "adancime_m": 35}, "geometry": {"type": "Polygon", "coordinates": [[[26.215123718387595, 44.64688939675713], [26.215367097661872, 44.64696289545484], [26.215539773161616, 44.6466734792022], [26.21529639388734, 44.64659998050449], [26.215123718387595, 44.64688939675713]]]}}, {"type": "Feature", "properties": {"nr": 91, "suprafata_mp": 680, "front_m": 19.4, "adancime_m": 35}, "geometry": {"type": "Polygon", "coordinates": [[[26.215367097661872, 44.64696289545484], [26.21559276169969, 44.64703104428529], [26.215765437199433, 44.64674162803266], [26.215539773161616, 44.6466734792022], [26.215367097661872, 44.64696289545484]]]}}, {"type": "Feature", "properties": {"nr": 92, "suprafata_mp": 700, "front_m": 20.0, "adancime_m": 35}, "geometry": {"type": "Polygon", "coordinates": [[[26.21559276169969, 44.64703104428529], [26.215825368229762, 44.64710128969583], [26.21599804372951, 44.6468118734432], [26.215765437199433, 44.64674162803266], [26.21559276169969, 44.64703104428529]]]}}, {"type": "Feature", "properties": {"nr": 93, "suprafata_mp": 700, "front_m": 20.0, "adancime_m": 35}, "geometry": {"type": "Polygon", "coordinates": [[[26.215825368229762, 44.64710128969583], [26.216057763434748, 44.6471714712878], [26.216230438934492, 44.646882055035164], [26.21599804372951, 44.6468118734432], [26.215825368229762, 44.64710128969583]]]}}, {"type": "Feature", "properties": {"nr": 94, "suprafata_mp": 729, "front_m": 20.8, "adancime_m": 35}, "geometry": {"type": "Polygon", "coordinates": [[[26.216057763434748, 44.6471714712878], [26.216299865324512, 44.64724458422506], [26.216472540824256, 44.64695516797242], [26.216230438934492, 44.646882055035164], [26.216057763434748, 44.6471714712878]]]}}, {"type": "Feature", "properties": {"nr": 95, "suprafata_mp": 668, "front_m": 19.1, "adancime_m": 35}, "geometry": {"type": "Polygon", "coordinates": [[[26.216299865324512, 44.64724458422506], [26.21652164063378, 44.64731155868894], [26.216694316133523, 44.647022142436306], [26.216472540824256, 44.64695516797242], [26.216299865324512, 44.64724458422506]]]}}, {"type": "Feature", "properties": {"nr": 96, "suprafata_mp": 687, "front_m": 19.6, "adancime_m": 35}, "geometry": {"type": "Polygon", "coordinates": [[[26.21652164063378, 44.64731155868894], [26.21674980434403, 44.64738046240154], [26.216922479843777, 44.64709104614891], [26.216694316133523, 44.647022142436306], [26.21652164063378, 44.64731155868894]]]}}, {"type": "Feature", "properties": {"nr": 97, "suprafata_mp": 707, "front_m": 20.2, "adancime_m": 35}, "geometry": {"type": "Polygon", "coordinates": [[[26.21674980434403, 44.64738046240154], [26.216984584306992, 44.647451364172355], [26.217157259806736, 44.64716194791972], [26.216922479843777, 44.64709104614891], [26.21674980434403, 44.64738046240154]]]}}, {"type": "Feature", "properties": {"nr": 98, "suprafata_mp": 670, "front_m": 19.1, "adancime_m": 35}, "geometry": {"type": "Polygon", "coordinates": [[[26.216984584306992, 44.647451364172355], [26.217206960965, 44.647518520239004], [26.217379636464745, 44.64722910398637], [26.217157259806736, 44.64716194791972], [26.216984584306992, 44.647451364172355]]]}}, {"type": "Feature", "properties": {"nr": 99, "suprafata_mp": 685, "front_m": 19.6, "adancime_m": 35}, "geometry": {"type": "Polygon", "coordinates": [[[26.20958267093163, 44.6447964079117], [26.209810057578792, 44.64486507695713], [26.20998273307854, 44.64457566070449], [26.209755346431376, 44.64450699165906], [26.20958267093163, 44.6447964079117]]]}}, {"type": "Feature", "properties": {"nr": 100, "suprafata_mp": 721, "front_m": 20.6, "adancime_m": 35}, "geometry": {"type": "Polygon", "coordinates": [[[26.209810057578792, 44.64486507695713], [26.210049529013393, 44.64493739551685], [26.210222204513137, 44.644647979264214], [26.20998273307854, 44.64457566070449], [26.209810057578792, 44.64486507695713]]]}}, {"type": "Feature", "properties": {"nr": 101, "suprafata_mp": 714, "front_m": 20.4, "adancime_m": 35}, "geometry": {"type": "Polygon", "coordinates": [[[26.210049529013393, 44.64493739551685], [26.210286700187606, 44.645009019415355], [26.21045937568735, 44.64471960316271], [26.210222204513137, 44.644647979264214], [26.210049529013393, 44.64493739551685]]]}}, {"type": "Feature", "properties": {"nr": 102, "suprafata_mp": 710, "front_m": 20.3, "adancime_m": 35}, "geometry": {"type": "Polygon", "coordinates": [[[26.210286700187606, 44.645009019415355], [26.21052249614065, 44.64508022800748], [26.210695171640396, 44.64479081175484], [26.21045937568735, 44.64471960316271], [26.210286700187606, 44.645009019415355]]]}}, {"type": "Feature", "properties": {"nr": 103, "suprafata_mp": 732, "front_m": 20.9, "adancime_m": 35}, "geometry": {"type": "Polygon", "coordinates": [[[26.21052249614065, 44.64508022800748], [26.210765425734422, 44.645153590905075], [26.21093810123417, 44.64486417465244], [26.210695171640396, 44.64479081175484], [26.21052249614065, 44.64508022800748]]]}}, {"type": "Feature", "properties": {"nr": 104, "suprafata_mp": 695, "front_m": 19.9, "adancime_m": 35}, "geometry": {"type": "Polygon", "coordinates": [[[26.210765425734422, 44.645153590905075], [26.210996335691927, 44.64522332396355], [26.211169011191675, 44.644933907710914], [26.21093810123417, 44.64486417465244], [26.210765425734422, 44.645153590905075]]]}}, {"type": "Feature", "properties": {"nr": 105, "suprafata_mp": 694, "front_m": 19.8, "adancime_m": 35}, "geometry": {"type": "Polygon", "coordinates": [[[26.210996335691927, 44.64522332396355], [26.211226817862894, 44.64529292783373], [26.211399493362638, 44.645003511581095], [26.211169011191675, 44.644933907710914], [26.210996335691927, 44.64522332396355]]]}}, {"type": "Feature", "properties": {"nr": 106, "suprafata_mp": 713, "front_m": 20.4, "adancime_m": 35}, "geometry": {"type": "Polygon", "coordinates": [[[26.211226817862894, 44.64529292783373], [26.211463739824833, 44.64536447647201], [26.211636415324577, 44.645075060219376], [26.211399493362638, 44.645003511581095], [26.211226817862894, 44.64529292783373]]]}}, {"type": "Feature", "properties": {"nr": 107, "suprafata_mp": 723, "front_m": 20.7, "adancime_m": 35}, "geometry": {"type": "Polygon", "coordinates": [[[26.211463739824833, 44.64536447647201], [26.21170398437736, 44.645437028507494], [26.211876659877106, 44.64514761225485], [26.211636415324577, 44.645075060219376], [26.211463739824833, 44.64536447647201]]]}}, {"type": "Feature", "properties": {"nr": 108, "suprafata_mp": 688, "front_m": 19.7, "adancime_m": 35}, "geometry": {"type": "Polygon", "coordinates": [[[26.21170398437736, 44.645437028507494], [26.211932606611832, 44.645506070690935], [26.21210528211158, 44.6452166544383], [26.211876659877106, 44.64514761225485], [26.21170398437736, 44.645437028507494]]]}}, {"type": "Feature", "properties": {"nr": 109, "suprafata_mp": 712, "front_m": 20.3, "adancime_m": 35}, "geometry": {"type": "Polygon", "coordinates": [[[26.211932606611832, 44.645506070690935], [26.21216900638291, 44.64557746163153], [26.21234168188266, 44.6452880453789], [26.21210528211158, 44.6452166544383], [26.211932606611832, 44.645506070690935]]]}}, {"type": "Feature", "properties": {"nr": 110, "suprafata_mp": 680, "front_m": 19.4, "adancime_m": 35}, "geometry": {"type": "Polygon", "coordinates": [[[26.21216900638291, 44.64557746163153], [26.212394698774336, 44.64564561902456], [26.21256737427408, 44.64535620277193], [26.21234168188266, 44.6452880453789], [26.21216900638291, 44.64557746163153]]]}}, {"type": "Feature", "properties": {"nr": 111, "suprafata_mp": 704, "front_m": 20.1, "adancime_m": 35}, "geometry": {"type": "Polygon", "coordinates": [[[26.212394698774336, 44.64564561902456], [26.212628356562394, 44.645716181907055], [26.212801032062142, 44.64542676565442], [26.21256737427408, 44.64535620277193], [26.212394698774336, 44.64564561902456]]]}}, {"type": "Feature", "properties": {"nr": 112, "suprafata_mp": 719, "front_m": 20.5, "adancime_m": 35}, "geometry": {"type": "Polygon", "coordinates": [[[26.212628356562394, 44.645716181907055], [26.212867069611068, 44.64578827143997], [26.213039745110812, 44.645498855187334], [26.212801032062142, 44.64542676565442], [26.212628356562394, 44.645716181907055]]]}}, {"type": "Feature", "properties": {"nr": 113, "suprafata_mp": 670, "front_m": 19.1, "adancime_m": 35}, "geometry": {"type": "Polygon", "coordinates": [[[26.212867069611068, 44.64578827143997], [26.213089421087876, 44.645855419902084], [26.213262096587624, 44.64556600364945], [26.213039745110812, 44.645498855187334], [26.212867069611068, 44.64578827143997]]]}}, {"type": "Feature", "properties": {"nr": 114, "suprafata_mp": 716, "front_m": 20.5, "adancime_m": 35}, "geometry": {"type": "Polygon", "coordinates": [[[26.213089421087876, 44.645855419902084], [26.21332717340439, 44.645927219301164], [26.213499848904135, 44.64563780304852], [26.213262096587624, 44.64556600364945], [26.213089421087876, 44.645855419902084]]]}}, {"type": "Feature", "properties": {"nr": 115, "suprafata_mp": 666, "front_m": 19.0, "adancime_m": 35}, "geometry": {"type": "Polygon", "coordinates": [[[26.21332717340439, 44.645927219301164], [26.2135483653332, 44.64599401758856], [26.213721040832947, 44.64570460133593], [26.213499848904135, 44.64563780304852], [26.21332717340439, 44.645927219301164]]]}}, {"type": "Feature", "properties": {"nr": 116, "suprafata_mp": 732, "front_m": 20.9, "adancime_m": 35}, "geometry": {"type": "Polygon", "coordinates": [[[26.2135483653332, 44.64599401758856], [26.21379147594543, 44.64606743515237], [26.213964151445175, 44.64577801889973], [26.213721040832947, 44.64570460133593], [26.2135483653332, 44.64599401758856]]]}}, {"type": "Feature", "properties": {"nr": 117, "suprafata_mp": 698, "front_m": 19.9, "adancime_m": 35}, "geometry": {"type": "Polygon", "coordinates": [[[26.21379147594543, 44.64606743515237], [26.21402320364737, 44.64613741516347], [26.214195879147116, 44.64584799891083], [26.213964151445175, 44.64577801889973], [26.21379147594543, 44.64606743515237]]]}}, {"type": "Feature", "properties": {"nr": 118, "suprafata_mp": 694, "front_m": 19.8, "adancime_m": 35}, "geometry": {"type": "Polygon", "coordinates": [[[26.21402320364737, 44.64613741516347], [26.214253545936145, 44.64620697679029], [26.21442622143589, 44.64591756053765], [26.214195879147116, 44.64584799891083], [26.21402320364737, 44.64613741516347]]]}}, {"type": "Feature", "properties": {"nr": 119, "suprafata_mp": 715, "front_m": 20.4, "adancime_m": 35}, "geometry": {"type": "Polygon", "coordinates": [[[26.214253545936145, 44.64620697679029], [26.214491126295325, 44.64627872425955], [26.21466380179507, 44.64598930800691], [26.21442622143589, 44.64591756053765], [26.214253545936145, 44.64620697679029]]]}}, {"type": "Feature", "properties": {"nr": 120, "suprafata_mp": 702, "front_m": 20.0, "adancime_m": 35}, "geometry": {"type": "Polygon", "coordinates": [[[26.214491126295325, 44.64627872425955], [26.214724123882714, 44.64634908776644], [26.21489679938246, 44.646059671513804], [26.21466380179507, 44.64598930800691], [26.214491126295325, 44.64627872425955]]]}}, {"type": "Feature", "properties": {"nr": 121, "suprafata_mp": 716, "front_m": 20.5, "adancime_m": 35}, "geometry": {"type": "Polygon", "coordinates": [[[26.214724123882714, 44.64634908776644], [26.214961946093858, 44.646420908273164], [26.215134621593606, 44.64613149202053], [26.21489679938246, 44.646059671513804], [26.214724123882714, 44.64634908776644]]]}}, {"type": "Feature", "properties": {"nr": 122, "suprafata_mp": 671, "front_m": 19.2, "adancime_m": 35}, "geometry": {"type": "Polygon", "coordinates": [[[26.214961946093858, 44.646420908273164], [26.215184749533538, 44.64648819322465], [26.215357425033286, 44.64619877697201], [26.215134621593606, 44.64613149202053], [26.214961946093858, 44.646420908273164]]]}}, {"type": "Feature", "properties": {"nr": 123, "suprafata_mp": 704, "front_m": 20.1, "adancime_m": 35}, "geometry": {"type": "Polygon", "coordinates": [[[26.215184749533538, 44.64648819322465], [26.21541866515939, 44.6465588339722], [26.215591340659138, 44.64626941771956], [26.215357425033286, 44.64619877697201], [26.215184749533538, 44.64648819322465]]]}}, {"type": "Feature", "properties": {"nr": 124, "suprafata_mp": 704, "front_m": 20.1, "adancime_m": 35}, "geometry": {"type": "Polygon", "coordinates": [[[26.21541866515939, 44.6465588339722], [26.215652471921967, 44.646629441843864], [26.215825147421715, 44.64634002559123], [26.215591340659138, 44.64626941771956], [26.21541866515939, 44.6465588339722]]]}}, {"type": "Feature", "properties": {"nr": 125, "suprafata_mp": 730, "front_m": 20.9, "adancime_m": 35}, "geometry": {"type": "Polygon", "coordinates": [[[26.215652471921967, 44.646629441843864], [26.215894972659466, 44.646702675230124], [26.216067648159214, 44.64641325897748], [26.215825147421715, 44.64634002559123], [26.215652471921967, 44.646629441843864]]]}}, {"type": "Feature", "properties": {"nr": 126, "suprafata_mp": 668, "front_m": 19.1, "adancime_m": 35}, "geometry": {"type": "Polygon", "coordinates": [[[26.215894972659466, 44.646702675230124], [26.216116726506495, 44.64676964321257], [26.216289402006243, 44.64648022695993], [26.216067648159214, 44.64641325897748], [26.215894972659466, 44.646702675230124]]]}}, {"type": "Feature", "properties": {"nr": 127, "suprafata_mp": 697, "front_m": 19.9, "adancime_m": 35}, "geometry": {"type": "Polygon", "coordinates": [[[26.216116726506495, 44.64676964321257], [26.21634808576203, 44.64683951195565], [26.216520761261776, 44.646550095703006], [26.216289402006243, 44.64648022695993], [26.216116726506495, 44.64676964321257]]]}}, {"type": "Feature", "properties": {"nr": 128, "suprafata_mp": 709, "front_m": 20.3, "adancime_m": 35}, "geometry": {"type": "Polygon", "coordinates": [[[26.21634808576203, 44.64683951195565], [26.2165835886216, 44.64691063203576], [26.216756264121344, 44.64662121578312], [26.216520761261776, 44.646550095703006], [26.21634808576203, 44.64683951195565]]]}}, {"type": "Feature", "properties": {"nr": 129, "suprafata_mp": 704, "front_m": 20.1, "adancime_m": 35}, "geometry": {"type": "Polygon", "coordinates": [[[26.2165835886216, 44.64691063203576], [26.216817224256083, 44.64698118822804], [26.216989899755827, 44.646691771975405], [26.216756264121344, 44.64662121578312], [26.2165835886216, 44.64691063203576]]]}}, {"type": "Feature", "properties": {"nr": 130, "suprafata_mp": 670, "front_m": 19.1, "adancime_m": 35}, "geometry": {"type": "Polygon", "coordinates": [[[26.216817224256083, 44.64698118822804], [26.21703978136687, 44.64704839879006], [26.217212456866616, 44.64675898253743], [26.216989899755827, 44.646691771975405], [26.216817224256083, 44.64698118822804]]]}}, {"type": "Feature", "properties": {"nr": 131, "suprafata_mp": 724, "front_m": 20.7, "adancime_m": 35}, "geometry": {"type": "Polygon", "coordinates": [[[26.20996932216043, 44.64457161070879], [26.210209791586106, 44.64464423065425], [26.21038246708585, 44.644354814401616], [26.210141997660173, 44.644282194456146], [26.20996932216043, 44.64457161070879]]]}}, {"type": "Feature", "properties": {"nr": 132, "suprafata_mp": 720, "front_m": 20.6, "adancime_m": 35}, "geometry": {"type": "Polygon", "coordinates": [[[26.210209791586106, 44.64464423065425], [26.21044887816136, 44.64471643298936], [26.210621553661102, 44.64442701673673], [26.21038246708585, 44.644354814401616], [26.210209791586106, 44.64464423065425]]]}}, {"type": "Feature", "properties": {"nr": 133, "suprafata_mp": 696, "front_m": 19.9, "adancime_m": 35}, "geometry": {"type": "Polygon", "coordinates": [[[26.21044887816136, 44.64471643298936], [26.210680108849683, 44.644786262906116], [26.210852784349427, 44.64449684665348], [26.210621553661102, 44.64442701673673], [26.21044887816136, 44.64471643298936]]]}}, {"type": "Feature", "properties": {"nr": 134, "suprafata_mp": 715, "front_m": 20.4, "adancime_m": 35}, "geometry": {"type": "Polygon", "coordinates": [[[26.210680108849683, 44.644786262906116], [26.210917513618323, 44.644857957348364], [26.211090189118067, 44.64456854109573], [26.210852784349427, 44.64449684665348], [26.210680108849683, 44.644786262906116]]]}}, {"type": "Feature", "properties": {"nr": 135, "suprafata_mp": 667, "front_m": 19.1, "adancime_m": 35}, "geometry": {"type": "Polygon", "coordinates": [[[26.210917513618323, 44.644857957348364], [26.211139146219146, 44.64492488871538], [26.21131182171889, 44.644635472462745], [26.211090189118067, 44.64456854109573], [26.210917513618323, 44.644857957348364]]]}}, {"type": "Feature", "properties": {"nr": 136, "suprafata_mp": 692, "front_m": 19.8, "adancime_m": 35}, "geometry": {"type": "Polygon", "coordinates": [[[26.211139146219146, 44.64492488871538], [26.211369040508217, 44.64499431504968], [26.211541716007964, 44.644704898797045], [26.21131182171889, 44.644635472462745], [26.211139146219146, 44.64492488871538]]]}}, {"type": "Feature", "properties": {"nr": 137, "suprafata_mp": 725, "front_m": 20.7, "adancime_m": 35}, "geometry": {"type": "Polygon", "coordinates": [[[26.211369040508217, 44.64499431504968], [26.211609872671833, 44.64506704453926], [26.21178254817158, 44.64477762828662], [26.211541716007964, 44.644704898797045], [26.211369040508217, 44.64499431504968]]]}}, {"type": "Feature", "properties": {"nr": 138, "suprafata_mp": 706, "front_m": 20.2, "adancime_m": 35}, "geometry": {"type": "Polygon", "coordinates": [[[26.211609872671833, 44.64506704453926], [26.21184417760305, 44.64513780285408], [26.212016853102796, 44.644848386601446], [26.21178254817158, 44.64477762828662], [26.211609872671833, 44.64506704453926]]]}}, {"type": "Feature", "properties": {"nr": 139, "suprafata_mp": 704, "front_m": 20.1, "adancime_m": 35}, "geometry": {"type": "Polygon", "coordinates": [[[26.21184417760305, 44.64513780285408], [26.212077977790223, 44.645208408740025], [26.21225065328997, 44.64491899248739], [26.212016853102796, 44.644848386601446], [26.21184417760305, 44.64513780285408]]]}}, {"type": "Feature", "properties": {"nr": 140, "suprafata_mp": 712, "front_m": 20.3, "adancime_m": 35}, "geometry": {"type": "Polygon", "coordinates": [[[26.212077977790223, 44.645208408740025], [26.212314263235513, 44.6452797651551], [26.21248693873526, 44.64499034890247], [26.21225065328997, 44.64491899248739], [26.212077977790223, 44.645208408740025]]]}}, {"type": "Feature", "properties": {"nr": 141, "suprafata_mp": 712, "front_m": 20.4, "adancime_m": 35}, "geometry": {"type": "Polygon", "coordinates": [[[26.212314263235513, 44.6452797651551], [26.212550849310244, 44.645351212357994], [26.21272352480999, 44.64506179610535], [26.21248693873526, 44.64499034890247], [26.212314263235513, 44.6452797651551]]]}}, {"type": "Feature", "properties": {"nr": 142, "suprafata_mp": 706, "front_m": 20.2, "adancime_m": 35}, "geometry": {"type": "Polygon", "coordinates": [[[26.212550849310244, 44.645351212357994], [26.212785248592873, 44.64542199916623], [26.212957924092617, 44.64513258291359], [26.21272352480999, 44.64506179610535], [26.212550849310244, 44.645351212357994]]]}}, {"type": "Feature", "properties": {"nr": 143, "suprafata_mp": 694, "front_m": 19.8, "adancime_m": 35}, "geometry": {"type": "Polygon", "coordinates": [[[26.212785248592873, 44.64542199916623], [26.21301585956484, 44.64549164193333], [26.213188535064585, 44.6452022256807], [26.212957924092617, 44.64513258291359], [26.212785248592873, 44.64542199916623]]]}}, {"type": "Feature", "properties": {"nr": 144, "suprafata_mp": 678, "front_m": 19.4, "adancime_m": 35}, "geometry": {"type": "Polygon", "coordinates": [[[26.21301585956484, 44.64549164193333], [26.213240957944738, 44.645559619939384], [26.213413633444485, 44.64527020368674], [26.213188535064585, 44.6452022256807], [26.21301585956484, 44.64549164193333]]]}}, {"type": "Feature", "properties": {"nr": 145, "suprafata_mp": 685, "front_m": 19.6, "adancime_m": 35}, "geometry": {"type": "Polygon", "coordinates": [[[26.213240957944738, 44.645559619939384], [26.21346859377581, 44.645628364236465], [26.213641269275556, 44.64533894798383], [26.213413633444485, 44.64527020368674], [26.213240957944738, 44.645559619939384]]]}}, {"type": "Feature", "properties": {"nr": 146, "suprafata_mp": 686, "front_m": 19.6, "adancime_m": 35}, "geometry": {"type": "Polygon", "coordinates": [[[26.21346859377581, 44.645628364236465], [26.21369623611895, 44.64569711050015], [26.213868911618697, 44.64540769424751], [26.213641269275556, 44.64533894798383], [26.21346859377581, 44.645628364236465]]]}}, {"type": "Feature", "properties": {"nr": 147, "suprafata_mp": 695, "front_m": 19.9, "adancime_m": 35}, "geometry": {"type": "Polygon", "coordinates": [[[26.21369623611895, 44.64569711050015], [26.213927082234427, 44.645766824278816], [26.214099757734175, 44.645477408026174], [26.213868911618697, 44.64540769424751], [26.21369623611895, 44.64569711050015]]]}}, {"type": "Feature", "properties": {"nr": 148, "suprafata_mp": 735, "front_m": 21.0, "adancime_m": 35}, "geometry": {"type": "Polygon", "coordinates": [[[26.213927082234427, 44.645766824278816], [26.214171139145392, 44.64584052761767], [26.21434381464514, 44.64555111136503], [26.214099757734175, 44.645477408026174], [26.213927082234427, 44.645766824278816]]]}}, {"type": "Feature", "properties": {"nr": 149, "suprafata_mp": 690, "front_m": 19.7, "adancime_m": 35}, "geometry": {"type": "Polygon", "coordinates": [[[26.214171139145392, 44.64584052761767], [26.21440016761814, 44.64590969248199], [26.21457284311789, 44.64562027622936], [26.21434381464514, 44.64555111136503], [26.214171139145392, 44.64584052761767]]]}}, {"type": "Feature", "properties": {"nr": 150, "suprafata_mp": 696, "front_m": 19.9, "adancime_m": 35}, "geometry": {"type": "Polygon", "coordinates": [[[26.21440016761814, 44.64590969248199], [26.214631400409218, 44.645979523033766], [26.214804075908965, 44.645690106781124], [26.21457284311789, 44.64562027622936], [26.21440016761814, 44.64590969248199]]]}}, {"type": "Feature", "properties": {"nr": 151, "suprafata_mp": 691, "front_m": 19.7, "adancime_m": 35}, "geometry": {"type": "Polygon", "coordinates": [[[26.214631400409218, 44.645979523033766], [26.21486087230623, 44.646048821808854], [26.215033547805973, 44.64575940555622], [26.214804075908965, 44.645690106781124], [26.214631400409218, 44.645979523033766]]]}}, {"type": "Feature", "properties": {"nr": 152, "suprafata_mp": 706, "front_m": 20.2, "adancime_m": 35}, "geometry": {"type": "Polygon", "coordinates": [[[26.21486087230623, 44.646048821808854], [26.215095221134014, 44.646119593380114], [26.215267896633762, 44.64583017712748], [26.215033547805973, 44.64575940555622], [26.21486087230623, 44.646048821808854]]]}}, {"type": "Feature", "properties": {"nr": 153, "suprafata_mp": 731, "front_m": 20.9, "adancime_m": 35}, "geometry": {"type": "Polygon", "coordinates": [[[26.215095221134014, 44.646119593380114], [26.215338088796038, 44.646192937574796], [26.215510764295782, 44.64590352132216], [26.215267896633762, 44.64583017712748], [26.215095221134014, 44.646119593380114]]]}}, {"type": "Feature", "properties": {"nr": 154, "suprafata_mp": 727, "front_m": 20.8, "adancime_m": 35}, "geometry": {"type": "Polygon", "coordinates": [[[26.215338088796038, 44.646192937574796], [26.21557958901975, 44.646265868813465], [26.215752264519498, 44.645976452560824], [26.215510764295782, 44.64590352132216], [26.215338088796038, 44.646192937574796]]]}}, {"type": "Feature", "properties": {"nr": 155, "suprafata_mp": 691, "front_m": 19.8, "adancime_m": 35}, "geometry": {"type": "Polygon", "coordinates": [[[26.21557958901975, 44.646265868813465], [26.215809189027485, 44.64633520627703], [26.21598186452723, 44.64604579002439], [26.215752264519498, 44.645976452560824], [26.21557958901975, 44.646265868813465]]]}}, {"type": "Feature", "properties": {"nr": 156, "suprafata_mp": 684, "front_m": 19.5, "adancime_m": 35}, "geometry": {"type": "Polygon", "coordinates": [[[26.215809189027485, 44.64633520627703], [26.216036226496076, 44.646403769873174], [26.21620890199582, 44.64611435362054], [26.21598186452723, 44.64604579002439], [26.215809189027485, 44.64633520627703]]]}}, {"type": "Feature", "properties": {"nr": 157, "suprafata_mp": 727, "front_m": 20.8, "adancime_m": 35}, "geometry": {"type": "Polygon", "coordinates": [[[26.216036226496076, 44.646403769873174], [26.21627761806313, 44.646476668298355], [26.21645029356288, 44.64618725204572], [26.21620890199582, 44.64611435362054], [26.216036226496076, 44.646403769873174]]]}}, {"type": "Feature", "properties": {"nr": 158, "suprafata_mp": 700, "front_m": 20.0, "adancime_m": 35}, "geometry": {"type": "Polygon", "coordinates": [[[26.21627761806313, 44.646476668298355], [26.216509930706597, 44.64654682495737], [26.216682606206344, 44.64625740870473], [26.21645029356288, 44.64618725204572], [26.21627761806313, 44.646476668298355]]]}}, {"type": "Feature", "properties": {"nr": 159, "suprafata_mp": 713, "front_m": 20.4, "adancime_m": 35}, "geometry": {"type": "Polygon", "coordinates": [[[26.216509930706597, 44.64654682495737], [26.21674669971292, 44.64661832740421], [26.21691937521267, 44.64632891115158], [26.216682606206344, 44.64625740870473], [26.216509930706597, 44.64654682495737]]]}}, {"type": "Feature", "properties": {"nr": 160, "suprafata_mp": 679, "front_m": 19.4, "adancime_m": 35}, "geometry": {"type": "Polygon", "coordinates": [[[26.21064300018365, 44.644355421893636], [26.210868556133487, 44.644423538082336], [26.21104123163323, 44.6441341218297], [26.210815675683396, 44.644066005640994], [26.21064300018365, 44.644355421893636]]]}}, {"type": "Feature", "properties": {"nr": 161, "suprafata_mp": 732, "front_m": 20.9, "adancime_m": 35}, "geometry": {"type": "Polygon", "coordinates": [[[26.210868556133487, 44.644423538082336], [26.211111752778752, 44.64449698162747], [26.211284428278496, 44.64420756537483], [26.21104123163323, 44.6441341218297], [26.210868556133487, 44.644423538082336]]]}}, {"type": "Feature", "properties": {"nr": 162, "suprafata_mp": 685, "front_m": 19.6, "adancime_m": 35}, "geometry": {"type": "Polygon", "coordinates": [[[26.211111752778752, 44.64449698162747], [26.211339307158187, 44.644565701326776], [26.211511982657935, 44.64427628507414], [26.211284428278496, 44.64420756537483], [26.211111752778752, 44.64449698162747]]]}}, {"type": "Feature", "properties": {"nr": 163, "suprafata_mp": 686, "front_m": 19.6, "adancime_m": 35}, "geometry": {"type": "Polygon", "coordinates": [[[26.211339307158187, 44.644565701326776], [26.211567253971133, 44.64463453953803], [26.211739929470877, 44.6443451232854], [26.211511982657935, 44.64427628507414], [26.211339307158187, 44.644565701326776]]]}}, {"type": "Feature", "properties": {"nr": 164, "suprafata_mp": 683, "front_m": 19.5, "adancime_m": 35}, "geometry": {"type": "Polygon", "coordinates": [[[26.211567253971133, 44.64463453953803], [26.21179404529768, 44.644703028801146], [26.211966720797424, 44.64441361254851], [26.211739929470877, 44.6443451232854], [26.211567253971133, 44.64463453953803]]]}}, {"type": "Feature", "properties": {"nr": 165, "suprafata_mp": 670, "front_m": 19.1, "adancime_m": 35}, "geometry": {"type": "Polygon", "coordinates": [[[26.21179404529768, 44.644703028801146], [26.21201644701542, 44.644770192435644], [26.212189122515166, 44.64448077618301], [26.211966720797424, 44.64441361254851], [26.21179404529768, 44.644703028801146]]]}}, {"type": "Feature", "properties": {"nr": 166, "suprafata_mp": 695, "front_m": 19.8, "adancime_m": 35}, "geometry": {"type": "Polygon", "coordinates": [[[26.21201644701542, 44.644770192435644], [26.212247111303547, 44.64483985130383], [26.212419786803295, 44.644550435051194], [26.212189122515166, 44.64448077618301], [26.21201644701542, 44.644770192435644]]]}}, {"type": "Feature", "properties": {"nr": 167, "suprafata_mp": 719, "front_m": 20.5, "adancime_m": 35}, "geometry": {"type": "Polygon", "coordinates": [[[26.212247111303547, 44.64483985130383], [26.212485886292665, 44.644911959542284], [26.212658561792413, 44.64462254328965], [26.212419786803295, 44.644550435051194], [26.212247111303547, 44.64483985130383]]]}}, {"type": "Feature", "properties": {"nr": 168, "suprafata_mp": 715, "front_m": 20.4, "adancime_m": 35}, "geometry": {"type": "Polygon", "coordinates": [[[26.212485886292665, 44.644911959542284], [26.212723213792863, 44.64498363065005], [26.212895889292607, 44.64469421439742], [26.212658561792413, 44.64462254328965], [26.212485886292665, 44.644911959542284]]]}}, {"type": "Feature", "properties": {"nr": 169, "suprafata_mp": 679, "front_m": 19.4, "adancime_m": 35}, "geometry": {"type": "Polygon", "coordinates": [[[26.212723213792863, 44.64498363065005], [26.21294859318334, 44.645051693519164], [26.21312126868309, 44.64476227726653], [26.212895889292607, 44.64469421439742], [26.212723213792863, 44.64498363065005]]]}}, {"type": "Feature", "properties": {"nr": 170, "suprafata_mp": 675, "front_m": 19.3, "adancime_m": 35}, "geometry": {"type": "Polygon", "coordinates": [[[26.21294859318334, 44.645051693519164], [26.213172609439095, 44.64511934473192], [26.21334528493884, 44.64482992847928], [26.21312126868309, 44.64476227726653], [26.21294859318334, 44.645051693519164]]]}}, {"type": "Feature", "properties": {"nr": 171, "suprafata_mp": 687, "front_m": 19.6, "adancime_m": 35}, "geometry": {"type": "Polygon", "coordinates": [[[26.213172609439095, 44.64511934473192], [26.21340091441578, 44.64518829110591], [26.213573589915526, 44.644898874853276], [26.21334528493884, 44.64482992847928], [26.213172609439095, 44.64511934473192]]]}}, {"type": "Feature", "properties": {"nr": 172, "suprafata_mp": 719, "front_m": 20.5, "adancime_m": 35}, "geometry": {"type": "Polygon", "coordinates": [[[26.21340091441578, 44.64518829110591], [26.213639606158736, 44.64526037420466], [26.21381228165848, 44.644970957952026], [26.213573589915526, 44.644898874853276], [26.21340091441578, 44.64518829110591]]]}}, {"type": "Feature", "properties": {"nr": 173, "suprafata_mp": 699, "front_m": 20.0, "adancime_m": 35}, "geometry": {"type": "Polygon", "coordinates": [[[26.213639606158736, 44.64526037420466], [26.21387178501906, 44.64533049046217], [26.214044460518803, 44.64504107420954], [26.21381228165848, 44.644970957952026], [26.213639606158736, 44.64526037420466]]]}}, {"type": "Feature", "properties": {"nr": 174, "suprafata_mp": 730, "front_m": 20.8, "adancime_m": 35}, "geometry": {"type": "Polygon", "coordinates": [[[26.21387178501906, 44.64533049046217], [26.214114078180113, 44.645403661161914], [26.21428675367986, 44.64511424490928], [26.214044460518803, 44.64504107420954], [26.21387178501906, 44.64533049046217]]]}}, {"type": "Feature", "properties": {"nr": 175, "suprafata_mp": 711, "front_m": 20.3, "adancime_m": 35}, "geometry": {"type": "Polygon", "coordinates": [[[26.214114078180113, 44.645403661161914], [26.214350169405645, 44.6454749589241], [26.21452284490539, 44.645185542671456], [26.21428675367986, 44.64511424490928], [26.214114078180113, 44.645403661161914]]]}}, {"type": "Feature", "properties": {"nr": 176, "suprafata_mp": 708, "front_m": 20.2, "adancime_m": 35}, "geometry": {"type": "Polygon", "coordinates": [[[26.214350169405645, 44.6454749589241], [26.214585435947395, 44.64554600763802], [26.21475811144714, 44.64525659138538], [26.21452284490539, 44.645185542671456], [26.214350169405645, 44.6454749589241]]]}}, {"type": "Feature", "properties": {"nr": 177, "suprafata_mp": 719, "front_m": 20.5, "adancime_m": 35}, "geometry": {"type": "Polygon", "coordinates": [[[26.214585435947395, 44.64554600763802], [26.214824114579198, 44.6456180867773], [26.214996790078942, 44.64532867052466], [26.21475811144714, 44.64525659138538], [26.214585435947395, 44.64554600763802]]]}}, {"type": "Feature", "properties": {"nr": 178, "suprafata_mp": 718, "front_m": 20.5, "adancime_m": 35}, "geometry": {"type": "Polygon", "coordinates": [[[26.214824114579198, 44.6456180867773], [26.215062387973298, 44.645690043537854], [26.215235063473042, 44.64540062728522], [26.214996790078942, 44.64532867052466], [26.214824114579198, 44.6456180867773]]]}}, {"type": "Feature", "properties": {"nr": 179, "suprafata_mp": 689, "front_m": 19.7, "adancime_m": 35}, "geometry": {"type": "Polygon", "coordinates": [[[26.215062387973298, 44.645690043537854], [26.21529121388815, 44.64575914723123], [26.215463889387898, 44.6454697309786], [26.215235063473042, 44.64540062728522], [26.215062387973298, 44.645690043537854]]]}}, {"type": "Feature", "properties": {"nr": 180, "suprafata_mp": 683, "front_m": 19.5, "adancime_m": 35}, "geometry": {"type": "Polygon", "coordinates": [[[26.21529121388815, 44.64575914723123], [26.215518021394065, 44.64582764138039], [26.215690696893812, 44.64553822512776], [26.215463889387898, 44.6454697309786], [26.21529121388815, 44.64575914723123]]]}}, {"type": "Feature", "properties": {"nr": 181, "suprafata_mp": 696, "front_m": 19.9, "adancime_m": 35}, "geometry": {"type": "Polygon", "coordinates": [[[26.215518021394065, 44.64582764138039], [26.215749027357095, 44.64589740343181], [26.215921702856843, 44.645607987179176], [26.215690696893812, 44.64553822512776], [26.215518021394065, 44.64582764138039]]]}}, {"type": "Feature", "properties": {"nr": 182, "suprafata_mp": 699, "front_m": 20.0, "adancime_m": 35}, "geometry": {"type": "Polygon", "coordinates": [[[26.215749027357095, 44.64589740343181], [26.21598123339257, 44.64596752789601], [26.216153908892313, 44.64567811164338], [26.215921702856843, 44.645607987179176], [26.215749027357095, 44.64589740343181]]]}}, {"type": "Feature", "properties": {"nr": 183, "suprafata_mp": 675, "front_m": 19.3, "adancime_m": 35}, "geometry": {"type": "Polygon", "coordinates": [[[26.21598123339257, 44.64596752789601], [26.216205361014914, 44.646035212740635], [26.21637803651466, 44.645745796487994], [26.216153908892313, 44.64567811164338], [26.21598123339257, 44.64596752789601]]]}}, {"type": "Feature", "properties": {"nr": 184, "suprafata_mp": 696, "front_m": 19.9, "adancime_m": 35}, "geometry": {"type": "Polygon", "coordinates": [[[26.216205361014914, 44.646035212740635], [26.216436453237836, 44.646105000841885], [26.21660912873758, 44.64581558458924], [26.21637803651466, 44.645745796487994], [26.216205361014914, 44.646035212740635]]]}}, {"type": "Feature", "properties": {"nr": 185, "suprafata_mp": 710, "front_m": 20.3, "adancime_m": 35}, "geometry": {"type": "Polygon", "coordinates": [[[26.216436453237836, 44.646105000841885], [26.216672159504387, 44.646176182349365], [26.21684483500413, 44.64588676609673], [26.21660912873758, 44.64581558458924], [26.216436453237836, 44.646105000841885]]]}}, {"type": "Feature", "properties": {"nr": 186, "suprafata_mp": 729, "front_m": 20.8, "adancime_m": 35}, "geometry": {"type": "Polygon", "coordinates": [[[26.21128557141062, 44.64420791059207], [26.211527676527894, 44.64428102450402], [26.21170035202764, 44.643991608251376], [26.211458246910365, 44.64391849433944], [26.21128557141062, 44.64420791059207]]]}}, {"type": "Feature", "properties": {"nr": 187, "suprafata_mp": 734, "front_m": 21.0, "adancime_m": 35}, "geometry": {"type": "Polygon", "coordinates": [[[26.211527676527894, 44.64428102450402], [26.211771518428595, 44.644354662911404], [26.21194419392834, 44.64406524665876], [26.21170035202764, 44.643991608251376], [26.211527676527894, 44.64428102450402]]]}}, {"type": "Feature", "properties": {"nr": 188, "suprafata_mp": 708, "front_m": 20.2, "adancime_m": 35}, "geometry": {"type": "Polygon", "coordinates": [[[26.211771518428595, 44.644354662911404], [26.212006576183885, 44.644425648573396], [26.21217925168363, 44.644136232320754], [26.21194419392834, 44.64406524665876], [26.211771518428595, 44.644354662911404]]]}}, {"type": "Feature", "properties": {"nr": 189, "suprafata_mp": 712, "front_m": 20.3, "adancime_m": 35}, "geometry": {"type": "Polygon", "coordinates": [[[26.212006576183885, 44.644425648573396], [26.212242890609307, 44.64449701374025], [26.212415566109055, 44.644207597487615], [26.21217925168363, 44.644136232320754], [26.212006576183885, 44.644425648573396]]]}}, {"type": "Feature", "properties": {"nr": 190, "suprafata_mp": 712, "front_m": 20.4, "adancime_m": 35}, "geometry": {"type": "Polygon", "coordinates": [[[26.212242890609307, 44.64449701374025], [26.212479493744016, 44.64456846609512], [26.212652169243764, 44.64427904984249], [26.212415566109055, 44.644207597487615], [26.212242890609307, 44.64449701374025]]]}}, {"type": "Feature", "properties": {"nr": 191, "suprafata_mp": 705, "front_m": 20.1, "adancime_m": 35}, "geometry": {"type": "Polygon", "coordinates": [[[26.212479493744016, 44.64456846609512], [26.21271358037761, 44.64463915848572], [26.212886255877354, 44.64434974223308], [26.212652169243764, 44.64427904984249], [26.212479493744016, 44.64456846609512]]]}}, {"type": "Feature", "properties": {"nr": 192, "suprafata_mp": 732, "front_m": 20.9, "adancime_m": 35}, "geometry": {"type": "Polygon", "coordinates": [[[26.21271358037761, 44.64463915848572], [26.212956553210436, 44.64471253444119], [26.213129228710184, 44.64442311818855], [26.212886255877354, 44.64434974223308], [26.21271358037761, 44.64463915848572]]]}}, {"type": "Feature", "properties": {"nr": 193, "suprafata_mp": 708, "front_m": 20.2, "adancime_m": 35}, "geometry": {"type": "Polygon", "coordinates": [[[26.212956553210436, 44.64471253444119], [26.21319151650052, 44.6447834915754], [26.213364192000263, 44.64449407532277], [26.213129228710184, 44.64442311818855], [26.212956553210436, 44.64471253444119]]]}}, {"type": "Feature", "properties": {"nr": 194, "suprafata_mp": 689, "front_m": 19.7, "adancime_m": 35}, "geometry": {"type": "Polygon", "coordinates": [[[26.21319151650052, 44.6447834915754], [26.213420153845078, 44.64485253832198], [26.213592829344822, 44.64456312206934], [26.213364192000263, 44.64449407532277], [26.21319151650052, 44.6447834915754]]]}}, {"type": "Feature", "properties": {"nr": 195, "suprafata_mp": 701, "front_m": 20.0, "adancime_m": 35}, "geometry": {"type": "Polygon", "coordinates": [[[26.213420153845078, 44.64485253832198], [26.213652909175433, 44.64492282866908], [26.213825584675178, 44.64463341241644], [26.213592829344822, 44.64456312206934], [26.213420153845078, 44.64485253832198]]]}}, {"type": "Feature", "properties": {"nr": 196, "suprafata_mp": 666, "front_m": 19.0, "adancime_m": 35}, "geometry": {"type": "Polygon", "coordinates": [[[26.213652909175433, 44.64492282866908], [26.21387417619678, 44.64498964963386], [26.214046851696523, 44.64470023338122], [26.213825584675178, 44.64463341241644], [26.213652909175433, 44.64492282866908]]]}}, {"type": "Feature", "properties": {"nr": 197, "suprafata_mp": 716, "front_m": 20.4, "adancime_m": 35}, "geometry": {"type": "Polygon", "coordinates": [[[26.21387417619678, 44.64498964963386], [26.21411184213821, 44.64506142294832], [26.214284517637957, 44.644772006695675], [26.214046851696523, 44.64470023338122], [26.21387417619678, 44.64498964963386]]]}}, {"type": "Feature", "properties": {"nr": 198, "suprafata_mp": 714, "front_m": 20.4, "adancime_m": 35}, "geometry": {"type": "Polygon", "coordinates": [[[26.21411184213821, 44.64506142294832], [26.214348805941007, 44.64513298422222], [26.21452148144075, 44.64484356796958], [26.214284517637957, 44.644772006695675], [26.21411184213821, 44.64506142294832]]]}}, {"type": "Feature", "properties": {"nr": 199, "suprafata_mp": 694, "front_m": 19.8, "adancime_m": 35}, "geometry": {"type": "Polygon", "coordinates": [[[26.214348805941007, 44.64513298422222], [26.214579426718682, 44.645202629950575], [26.21475210221843, 44.64491321369794], [26.21452148144075, 44.64484356796958], [26.214348805941007, 44.64513298422222]]]}}, {"type": "Feature", "properties": {"nr": 200, "suprafata_mp": 725, "front_m": 20.7, "adancime_m": 35}, "geometry": {"type": "Polygon", "coordinates": [[[26.214579426718682, 44.645202629950575], [26.214820053098407, 44.64527529729497], [26.214992728598155, 44.64498588104234], [26.21475210221843, 44.64491321369794], [26.214579426718682, 44.645202629950575]]]}}, {"type": "Feature", "properties": {"nr": 201, "suprafata_mp": 718, "front_m": 20.5, "adancime_m": 35}, "geometry": {"type": "Polygon", "coordinates": [[[26.214820053098407, 44.64527529729497], [26.215058448946795, 44.645347291035804], [26.21523112444654, 44.64505787478317], [26.214992728598155, 44.64498588104234], [26.214820053098407, 44.64527529729497]]]}}, {"type": "Feature", "properties": {"nr": 202, "suprafata_mp": 689, "front_m": 19.7, "adancime_m": 35}, "geometry": {"type": "Polygon", "coordinates": [[[26.215058448946795, 44.645347291035804], [26.215287108573637, 44.64541634451146], [26.21545978407338, 44.645126928258826], [26.21523112444654, 44.64505787478317], [26.215058448946795, 44.645347291035804]]]}}, {"type": "Feature", "properties": {"nr": 203, "suprafata_mp": 670, "front_m": 19.2, "adancime_m": 35}, "geometry": {"type": "Polygon", "coordinates": [[[26.215287108573637, 44.64541634451146], [26.21550974325201, 44.64548357849831], [26.215682418751758, 44.645194162245666], [26.21545978407338, 44.645126928258826], [26.215287108573637, 44.64541634451146]]]}}, {"type": "Feature", "properties": {"nr": 204, "suprafata_mp": 674, "front_m": 19.3, "adancime_m": 35}, "geometry": {"type": "Polygon", "coordinates": [[[26.21550974325201, 44.64548357849831], [26.215733650047078, 44.64555119665476], [26.215906325546825, 44.64526178040212], [26.215682418751758, 44.645194162245666], [26.21550974325201, 44.64548357849831]]]}}, {"type": "Feature", "properties": {"nr": 205, "suprafata_mp": 678, "front_m": 19.4, "adancime_m": 35}, "geometry": {"type": "Polygon", "coordinates": [[[26.215733650047078, 44.64555119665476], [26.215958766757087, 44.64561918019636], [26.216131442256835, 44.64532976394372], [26.215906325546825, 44.64526178040212], [26.215733650047078, 44.64555119665476]]]}}, {"type": "Feature", "properties": {"nr": 206, "suprafata_mp": 686, "front_m": 19.6, "adancime_m": 35}, "geometry": {"type": "Polygon", "coordinates": [[[26.215958766757087, 44.64561918019636], [26.216186664705393, 44.64568800365087], [26.216359340205138, 44.645398587398226], [26.216131442256835, 44.64532976394372], [26.215958766757087, 44.64561918019636]]]}}, {"type": "Feature", "properties": {"nr": 207, "suprafata_mp": 696, "front_m": 19.9, "adancime_m": 35}, "geometry": {"type": "Polygon", "coordinates": [[[26.216186664705393, 44.64568800365087], [26.216417900668155, 44.64575783516046], [26.216590576167903, 44.645468418907825], [26.216359340205138, 44.645398587398226], [26.216186664705393, 44.64568800365087]]]}}, {"type": "Feature", "properties": {"nr": 208, "suprafata_mp": 715, "front_m": 20.4, "adancime_m": 35}, "geometry": {"type": "Polygon", "coordinates": [[[26.2129097802729, 44.6442787748919], [26.213147201533275, 44.64435047431453], [26.21331987703302, 44.644061058061894], [26.213082455772643, 44.64398935863926], [26.2129097802729, 44.6442787748919]]]}}, {"type": "Feature", "properties": {"nr": 209, "suprafata_mp": 679, "front_m": 19.4, "adancime_m": 35}, "geometry": {"type": "Polygon", "coordinates": [[[26.213147201533275, 44.64435047431453], [26.213372793997458, 44.64441860153029], [26.213545469497205, 44.644129185277656], [26.21331987703302, 44.644061058061894], [26.213147201533275, 44.64435047431453]]]}}, {"type": "Feature", "properties": {"nr": 210, "suprafata_mp": 716, "front_m": 20.5, "adancime_m": 35}, "geometry": {"type": "Polygon", "coordinates": [[[26.213372793997458, 44.64441860153029], [26.213610615240615, 44.64449042174469], [26.213783290740363, 44.64420100549206], [26.213545469497205, 44.644129185277656], [26.213372793997458, 44.64441860153029]]]}}, {"type": "Feature", "properties": {"nr": 211, "suprafata_mp": 685, "front_m": 19.6, "adancime_m": 35}, "geometry": {"type": "Polygon", "coordinates": [[[26.213610615240615, 44.64449042174469], [26.213837926594007, 44.644559068051976], [26.21401060209375, 44.644269651799334], [26.213783290740363, 44.64420100549206], [26.213610615240615, 44.64449042174469]]]}}, {"type": "Feature", "properties": {"nr": 212, "suprafata_mp": 698, "front_m": 19.9, "adancime_m": 35}, "geometry": {"type": "Polygon", "coordinates": [[[26.213837926594007, 44.644559068051976], [26.21406966860576, 44.64462905238453], [26.214242344105504, 44.64433963613189], [26.21401060209375, 44.644269651799334], [26.213837926594007, 44.644559068051976]]]}}, {"type": "Feature", "properties": {"nr": 213, "suprafata_mp": 725, "front_m": 20.7, "adancime_m": 35}, "geometry": {"type": "Polygon", "coordinates": [[[26.21406966860576, 44.64462905238453], [26.214310490412867, 44.64470177874652], [26.21448316591261, 44.64441236249388], [26.214242344105504, 44.64433963613189], [26.21406966860576, 44.64462905238453]]]}}, {"type": "Feature", "properties": {"nr": 214, "suprafata_mp": 696, "front_m": 19.9, "adancime_m": 35}, "geometry": {"type": "Polygon", "coordinates": [[[26.214310490412867, 44.64470177874652], [26.214541739308984, 44.64477161416189], [26.214714414808732, 44.64448219790925], [26.21448316591261, 44.64441236249388], [26.214310490412867, 44.64470177874652]]]}}, {"type": "Feature", "properties": {"nr": 215, "suprafata_mp": 685, "front_m": 19.6, "adancime_m": 35}, "geometry": {"type": "Polygon", "coordinates": [[[26.214541739308984, 44.64477161416189], [26.21476926738596, 44.644840325918054], [26.214941942885705, 44.64455090966542], [26.214714414808732, 44.64448219790925], [26.214541739308984, 44.64477161416189]]]}}, {"type": "Feature", "properties": {"nr": 216, "suprafata_mp": 686, "front_m": 19.6, "adancime_m": 35}, "geometry": {"type": "Polygon", "coordinates": [[[26.21476926738596, 44.644840325918054], [26.21499720190151, 44.64490916041559], [26.21516987740126, 44.64461974416295], [26.214941942885705, 44.64455090966542], [26.21476926738596, 44.644840325918054]]]}}, {"type": "Feature", "properties": {"nr": 217, "suprafata_mp": 670, "front_m": 19.2, "adancime_m": 35}, "geometry": {"type": "Polygon", "coordinates": [[[26.21499720190151, 44.64490916041559], [26.215219825405658, 44.6449763910279], [26.215392500905402, 44.64468697477527], [26.21516987740126, 44.64461974416295], [26.21499720190151, 44.64490916041559]]]}}, {"type": "Feature", "properties": {"nr": 218, "suprafata_mp": 680, "front_m": 19.4, "adancime_m": 35}, "geometry": {"type": "Polygon", "coordinates": [[[26.215219825405658, 44.6449763910279], [26.215445761136003, 44.645044621907445], [26.21561843663575, 44.64475520565481], [26.215392500905402, 44.64468697477527], [26.215219825405658, 44.6449763910279]]]}}, {"type": "Feature", "properties": {"nr": 219, "suprafata_mp": 684, "front_m": 19.5, "adancime_m": 35}, "geometry": {"type": "Polygon", "coordinates": [[[26.215445761136003, 44.645044621907445], [26.215672896354366, 44.64511321502329], [26.21584557185411, 44.644823798770645], [26.21561843663575, 44.64475520565481], [26.215445761136003, 44.645044621907445]]]}}, {"type": "Feature", "properties": {"nr": 220, "suprafata_mp": 677, "front_m": 19.3, "adancime_m": 35}, "geometry": {"type": "Polygon", "coordinates": [[[26.215672896354366, 44.64511321502329], [26.215897750316657, 44.645181119217064], [26.216070425816405, 44.64489170296443], [26.21584557185411, 44.644823798770645], [26.215672896354366, 44.64511321502329]]]}}, {"type": "Feature", "properties": {"nr": 221, "suprafata_mp": 669, "front_m": 19.1, "adancime_m": 35}, "geometry": {"type": "Polygon", "coordinates": [[[26.215897750316657, 44.645181119217064], [26.216120049508614, 44.645248251889555], [26.216292725008362, 44.64495883563691], [26.216070425816405, 44.64489170296443], [26.215897750316657, 44.645181119217064]]]}}]}