{"type": "FeatureCollection", "features": [{"type": "Feature", "properties": {"nr": 1, "suprafata_mp": 537, "front_m": 16.8, "adancime_m": 32}, "geometry": {"type": "Polygon", "coordinates": [[[26.056469679799946, 44.60565770775863], [26.056645171502293, 44.605741990006635], [26.056870932196766, 44.60550367412743], [26.05669544049442, 44.605419391879416], [26.056469679799946, 44.60565770775863]]]}}, {"type": "Feature", "properties": {"nr": 2, "suprafata_mp": 564, "front_m": 17.6, "adancime_m": 32}, "geometry": {"type": "Polygon", "coordinates": [[[26.05676844940703, 44.60536777026914], [26.0569529505067, 44.60545637940127], [26.057178711201175, 44.60521806352205], [26.056994210101504, 44.605129454389925], [26.05676844940703, 44.60536777026914]]]}}, {"type": "Feature", "properties": {"nr": 3, "suprafata_mp": 542, "front_m": 16.9, "adancime_m": 32}, "geometry": {"type": "Polygon", "coordinates": [[[26.0569529505067, 44.60545637940127], [26.057130188209587, 44.605541500189496], [26.05735594890406, 44.60530318431028], [26.057178711201175, 44.60521806352205], [26.0569529505067, 44.60545637940127]]]}}, {"type": "Feature", "properties": {"nr": 4, "suprafata_mp": 547, "front_m": 17.1, "adancime_m": 32}, "geometry": {"type": "Polygon", "coordinates": [[[26.057130188209587, 44.605541500189496], [26.05730884671493, 44.605627303337194], [26.0575346074094, 44.60538898745798], [26.05735594890406, 44.60530318431028], [26.057130188209587, 44.605541500189496]]]}}, {"type": "Feature", "properties": {"nr": 5, "suprafata_mp": 534, "front_m": 16.7, "adancime_m": 32}, "geometry": {"type": "Polygon", "coordinates": [[[26.05730884671493, 44.605627303337194], [26.057483496070855, 44.605711181037016], [26.057709256765328, 44.6054728651578], [26.0575346074094, 44.60538898745798], [26.05730884671493, 44.605627303337194]]]}}, {"type": "Feature", "properties": {"nr": 6, "suprafata_mp": 558, "front_m": 17.4, "adancime_m": 32}, "geometry": {"type": "Polygon", "coordinates": [[[26.057483496070855, 44.605711181037016], [26.057665776413604, 44.605798723620794], [26.057891537108077, 44.60556040774158], [26.057709256765328, 44.6054728651578], [26.057483496070855, 44.605711181037016]]]}}, {"type": "Feature", "properties": {"nr": 7, "suprafata_mp": 518, "front_m": 16.2, "adancime_m": 32}, "geometry": {"type": "Polygon", "coordinates": [[[26.057665776413604, 44.605798723620794], [26.057835145364834, 44.605880065335306], [26.058060906059307, 44.6056417494561], [26.057891537108077, 44.60556040774158], [26.057665776413604, 44.605798723620794]]]}}, {"type": "Feature", "properties": {"nr": 8, "suprafata_mp": 537, "front_m": 16.8, "adancime_m": 32}, "geometry": {"type": "Polygon", "coordinates": [[[26.057835145364834, 44.605880065335306], [26.058010684168767, 44.60596437020449], [26.05823644486324, 44.60572605432528], [26.058060906059307, 44.6056417494561], [26.057835145364834, 44.605880065335306]]]}}, {"type": "Feature", "properties": {"nr": 9, "suprafata_mp": 518, "front_m": 16.2, "adancime_m": 32}, "geometry": {"type": "Polygon", "coordinates": [[[26.058010684168767, 44.60596437020449], [26.05818014475379, 44.60604575592737], [26.058405905448264, 44.60580744004816], [26.05823644486324, 44.60572605432528], [26.058010684168767, 44.60596437020449]]]}}, {"type": "Feature", "properties": {"nr": 10, "suprafata_mp": 523, "front_m": 16.4, "adancime_m": 32}, "geometry": {"type": "Polygon", "coordinates": [[[26.05818014475379, 44.60604575592737], [26.058351250838548, 44.6061279319236], [26.05857701153302, 44.605889616044394], [26.058405905448264, 44.60580744004816], [26.05818014475379, 44.60604575592737]]]}}, {"type": "Feature", "properties": {"nr": 11, "suprafata_mp": 569, "front_m": 17.8, "adancime_m": 32}, "geometry": {"type": "Polygon", "coordinates": [[[26.058351250838548, 44.6061279319236], [26.058537368767976, 44.606217317559945], [26.05876312946245, 44.60597900168074], [26.05857701153302, 44.605889616044394], [26.058351250838548, 44.6061279319236]]]}}, {"type": "Feature", "properties": {"nr": 12, "suprafata_mp": 553, "front_m": 17.3, "adancime_m": 32}, "geometry": {"type": "Polygon", "coordinates": [[[26.058537368767976, 44.606217317559945], [26.058717985431862, 44.606304061139596], [26.058943746126335, 44.60606574526039], [26.05876312946245, 44.60597900168074], [26.058537368767976, 44.606217317559945]]]}}, {"type": "Feature", "properties": {"nr": 13, "suprafata_mp": 540, "front_m": 16.9, "adancime_m": 32}, "geometry": {"type": "Polygon", "coordinates": [[[26.058717985431862, 44.606304061139596], [26.058894520602053, 44.60638884452706], [26.059120281296526, 44.606150528647845], [26.058943746126335, 44.60606574526039], [26.058717985431862, 44.606304061139596]]]}}, {"type": "Feature", "properties": {"nr": 14, "suprafata_mp": 545, "front_m": 17.0, "adancime_m": 32}, "geometry": {"type": "Polygon", "coordinates": [[[26.058894520602053, 44.60638884452706], [26.0590727542252, 44.60647444361937], [26.05929851491967, 44.60623612774016], [26.059120281296526, 44.606150528647845], [26.058894520602053, 44.60638884452706]]]}}, {"type": "Feature", "properties": {"nr": 15, "suprafata_mp": 564, "front_m": 17.6, "adancime_m": 32}, "geometry": {"type": "Polygon", "coordinates": [[[26.0590727542252, 44.60647444361937], [26.05925719469827, 44.60656302363476], [26.059482955392742, 44.60632470775555], [26.05929851491967, 44.60623612774016], [26.0590727542252, 44.60647444361937]]]}}, {"type": "Feature", "properties": {"nr": 16, "suprafata_mp": 536, "front_m": 16.7, "adancime_m": 32}, "geometry": {"type": "Polygon", "coordinates": [[[26.05925719469827, 44.60656302363476], [26.059432236081552, 44.60664708961099], [26.059657996776025, 44.60640877373178], [26.059482955392742, 44.60632470775555], [26.05925719469827, 44.60656302363476]]]}}, {"type": "Feature", "properties": {"nr": 17, "suprafata_mp": 549, "front_m": 17.2, "adancime_m": 32}, "geometry": {"type": "Polygon", "coordinates": [[[26.059432236081552, 44.60664708961099], [26.059611653055757, 44.60673325702355], [26.05983741375023, 44.60649494114434], [26.059657996776025, 44.60640877373178], [26.059432236081552, 44.60664708961099]]]}}, {"type": "Feature", "properties": {"nr": 18, "suprafata_mp": 554, "front_m": 17.3, "adancime_m": 32}, "geometry": {"type": "Polygon", "coordinates": [[[26.059611653055757, 44.60673325702355], [26.059792730671823, 44.60682022198168], [26.060018491366296, 44.60658190610247], [26.05983741375023, 44.60649494114434], [26.059611653055757, 44.60673325702355]]]}}, {"type": "Feature", "properties": {"nr": 19, "suprafata_mp": 536, "front_m": 16.8, "adancime_m": 32}, "geometry": {"type": "Polygon", "coordinates": [[[26.059792730671823, 44.60682022198168], [26.059967971259287, 44.60690438362839], [26.06019373195376, 44.60666606774918], [26.060018491366296, 44.60658190610247], [26.059792730671823, 44.60682022198168]]]}}, {"type": "Feature", "properties": {"nr": 20, "suprafata_mp": 521, "front_m": 16.3, "adancime_m": 32}, "geometry": {"type": "Polygon", "coordinates": [[[26.05702413614186, 44.6051438267729], [26.057194278901715, 44.60522554011941], [26.05742003959619, 44.6049872242402], [26.057249896836332, 44.604905510893694], [26.05702413614186, 44.6051438267729]]]}}, {"type": "Feature", "properties": {"nr": 21, "suprafata_mp": 540, "front_m": 16.9, "adancime_m": 32}, "geometry": {"type": "Polygon", "coordinates": [[[26.057194278901715, 44.60522554011941], [26.057370845662174, 44.60531033867852], [26.057596606356647, 44.60507202279931], [26.05742003959619, 44.6049872242402], [26.057194278901715, 44.60522554011941]]]}}, {"type": "Feature", "properties": {"nr": 22, "suprafata_mp": 545, "front_m": 17.0, "adancime_m": 32}, "geometry": {"type": "Polygon", "coordinates": [[[26.057370845662174, 44.60531033867852], [26.05754900415484, 44.60539590168842], [26.057774764849313, 44.6051575858092], [26.057596606356647, 44.60507202279931], [26.057370845662174, 44.60531033867852]]]}}, {"type": "Feature", "properties": {"nr": 23, "suprafata_mp": 569, "front_m": 17.8, "adancime_m": 32}, "geometry": {"type": "Polygon", "coordinates": [[[26.05754900415484, 44.60539590168842], [26.05773483385112, 44.60548514889692], [26.057960594545595, 44.6052468330177], [26.057774764849313, 44.6051575858092], [26.05754900415484, 44.60539590168842]]]}}, {"type": "Feature", "properties": {"nr": 24, "suprafata_mp": 530, "front_m": 16.6, "adancime_m": 32}, "geometry": {"type": "Polygon", "coordinates": [[[26.05773483385112, 44.60548514889692], [26.057908217828192, 44.60556841888154], [26.058133978522665, 44.60533010300233], [26.057960594545595, 44.6052468330177], [26.05773483385112, 44.60548514889692]]]}}, {"type": "Feature", "properties": {"nr": 25, "suprafata_mp": 561, "front_m": 17.5, "adancime_m": 32}, "geometry": {"type": "Polygon", "coordinates": [[[26.057908217828192, 44.60556841888154], [26.05809147105281, 44.605656428704904], [26.05831723174728, 44.605418112825696], [26.058133978522665, 44.60533010300233], [26.057908217828192, 44.60556841888154]]]}}, {"type": "Feature", "properties": {"nr": 26, "suprafata_mp": 554, "front_m": 17.3, "adancime_m": 32}, "geometry": {"type": "Polygon", "coordinates": [[[26.05809147105281, 44.605656428704904], [26.05827242041036, 44.60574333206516], [26.058498181104834, 44.60550501618595], [26.05831723174728, 44.605418112825696], [26.05809147105281, 44.605656428704904]]]}}, {"type": "Feature", "properties": {"nr": 27, "suprafata_mp": 556, "front_m": 17.4, "adancime_m": 32}, "geometry": {"type": "Polygon", "coordinates": [[[26.05827242041036, 44.60574333206516], [26.05845409194405, 44.605830582260204], [26.058679852638523, 44.605592266380995], [26.058498181104834, 44.60550501618595], [26.05827242041036, 44.60574333206516]]]}}, {"type": "Feature", "properties": {"nr": 28, "suprafata_mp": 551, "front_m": 17.2, "adancime_m": 32}, "geometry": {"type": "Polygon", "coordinates": [[[26.05845409194405, 44.605830582260204], [26.058634208272217, 44.605917085546906], [26.05885996896669, 44.60567876966769], [26.058679852638523, 44.605592266380995], [26.05845409194405, 44.605830582260204]]]}}, {"type": "Feature", "properties": {"nr": 29, "suprafata_mp": 570, "front_m": 17.8, "adancime_m": 32}, "geometry": {"type": "Polygon", "coordinates": [[[26.058634208272217, 44.605917085546906], [26.058820404660487, 44.60600650886416], [26.05904616535496, 44.60576819298495], [26.05885996896669, 44.60567876966769], [26.058634208272217, 44.605917085546906]]]}}, {"type": "Feature", "properties": {"nr": 30, "suprafata_mp": 535, "front_m": 16.7, "adancime_m": 32}, "geometry": {"type": "Polygon", "coordinates": [[[26.058820404660487, 44.60600650886416], [26.058995241041202, 44.60609047638515], [26.059221001735676, 44.60585216050594], [26.05904616535496, 44.60576819298495], [26.058820404660487, 44.60600650886416]]]}}, {"type": "Feature", "properties": {"nr": 31, "suprafata_mp": 538, "front_m": 16.8, "adancime_m": 32}, "geometry": {"type": "Polygon", "coordinates": [[[26.058995241041202, 44.60609047638515], [26.05917124376044, 44.606175004055885], [26.05939700445491, 44.605936688176676], [26.059221001735676, 44.60585216050594], [26.058995241041202, 44.60609047638515]]]}}, {"type": "Feature", "properties": {"nr": 32, "suprafata_mp": 528, "front_m": 16.5, "adancime_m": 32}, "geometry": {"type": "Polygon", "coordinates": [[[26.05917124376044, 44.606175004055885], [26.05934377268657, 44.60625786339081], [26.059569533381044, 44.6060195475116], [26.05939700445491, 44.605936688176676], [26.05917124376044, 44.606175004055885]]]}}, {"type": "Feature", "properties": {"nr": 33, "suprafata_mp": 520, "front_m": 16.2, "adancime_m": 32}, "geometry": {"type": "Polygon", "coordinates": [[[26.05934377268657, 44.60625786339081], [26.059513595184864, 44.6063394229274], [26.059739355879337, 44.60610110704819], [26.059569533381044, 44.6060195475116], [26.05934377268657, 44.60625786339081]]]}}, {"type": "Feature", "properties": {"nr": 34, "suprafata_mp": 528, "front_m": 16.5, "adancime_m": 32}, "geometry": {"type": "Polygon", "coordinates": [[[26.059513595184864, 44.6063394229274], [26.05968630185924, 44.606422367628305], [26.059912062553714, 44.606184051749096], [26.059739355879337, 44.60610110704819], [26.059513595184864, 44.6063394229274]]]}}, {"type": "Feature", "properties": {"nr": 35, "suprafata_mp": 567, "front_m": 17.7, "adancime_m": 32}, "geometry": {"type": "Polygon", "coordinates": [[[26.05968630185924, 44.606422367628305], [26.059871500790603, 44.60651131190348], [26.060097261485076, 44.606272996024266], [26.059912062553714, 44.606184051749096], [26.05968630185924, 44.606422367628305]]]}}, {"type": "Feature", "properties": {"nr": 36, "suprafata_mp": 563, "front_m": 17.6, "adancime_m": 32}, "geometry": {"type": "Polygon", "coordinates": [[[26.059871500790603, 44.60651131190348], [26.06005536087999, 44.60659961318181], [26.060281121574462, 44.60636129730259], [26.060097261485076, 44.606272996024266], [26.059871500790603, 44.60651131190348]]]}}, {"type": "Feature", "properties": {"nr": 37, "suprafata_mp": 523, "front_m": 16.3, "adancime_m": 32}, "geometry": {"type": "Polygon", "coordinates": [[[26.06005536087999, 44.60659961318181], [26.060226280505198, 44.60668169962834], [26.06045204119967, 44.606443383749124], [26.060281121574462, 44.60636129730259], [26.06005536087999, 44.60659961318181]]]}}, {"type": "Feature", "properties": {"nr": 38, "suprafata_mp": 553, "front_m": 17.3, "adancime_m": 32}, "geometry": {"type": "Polygon", "coordinates": [[[26.05725647579154, 44.604821985403795], [26.057437097173683, 44.60490873124945], [26.057662857868156, 44.60467041537024], [26.057482236486013, 44.60458366952459], [26.05725647579154, 44.604821985403795]]]}}, {"type": "Feature", "properties": {"nr": 39, "suprafata_mp": 550, "front_m": 17.2, "adancime_m": 32}, "geometry": {"type": "Polygon", "coordinates": [[[26.057437097173683, 44.60490873124945], [26.05761687794671, 44.60499507338128], [26.057842638641183, 44.604756757502074], [26.057662857868156, 44.60467041537024], [26.057437097173683, 44.60490873124945]]]}}, {"type": "Feature", "properties": {"nr": 40, "suprafata_mp": 527, "front_m": 16.5, "adancime_m": 32}, "geometry": {"type": "Polygon", "coordinates": [[[26.05761687794671, 44.60499507338128], [26.057789199561135, 44.605077833151974], [26.05801496025561, 44.604839517272765], [26.057842638641183, 44.604756757502074], [26.05761687794671, 44.60499507338128]]]}}, {"type": "Feature", "properties": {"nr": 41, "suprafata_mp": 548, "front_m": 17.1, "adancime_m": 32}, "geometry": {"type": "Polygon", "coordinates": [[[26.057789199561135, 44.605077833151974], [26.057968333882023, 44.60516386481648], [26.058194094576496, 44.604925548937274], [26.05801496025561, 44.604839517272765], [26.057789199561135, 44.605077833151974]]]}}, {"type": "Feature", "properties": {"nr": 42, "suprafata_mp": 519, "front_m": 16.2, "adancime_m": 32}, "geometry": {"type": "Polygon", "coordinates": [[[26.057968333882023, 44.60516386481648], [26.058137960474067, 44.60524533026646], [26.05836372116854, 44.605007014387255], [26.058194094576496, 44.604925548937274], [26.057968333882023, 44.60516386481648]]]}}, {"type": "Feature", "properties": {"nr": 43, "suprafata_mp": 560, "front_m": 17.5, "adancime_m": 32}, "geometry": {"type": "Polygon", "coordinates": [[[26.058137960474067, 44.60524533026646], [26.058321135910738, 44.605333302731125], [26.05854689660521, 44.60509498685191], [26.05836372116854, 44.605007014387255], [26.058137960474067, 44.60524533026646]]]}}, {"type": "Feature", "properties": {"nr": 44, "suprafata_mp": 569, "front_m": 17.8, "adancime_m": 32}, "geometry": {"type": "Polygon", "coordinates": [[[26.058321135910738, 44.605333302731125], [26.058507127997306, 44.60542262792974], [26.05873288869178, 44.60518431205053], [26.05854689660521, 44.60509498685191], [26.058321135910738, 44.605333302731125]]]}}, {"type": "Feature", "properties": {"nr": 45, "suprafata_mp": 563, "front_m": 17.6, "adancime_m": 32}, "geometry": {"type": "Polygon", "coordinates": [[[26.058507127997306, 44.60542262792974], [26.058691234182323, 44.6055110473988], [26.058916994876796, 44.60527273151959], [26.05873288869178, 44.60518431205053], [26.058507127997306, 44.60542262792974]]]}}, {"type": "Feature", "properties": {"nr": 46, "suprafata_mp": 520, "front_m": 16.2, "adancime_m": 32}, "geometry": {"type": "Polygon", "coordinates": [[[26.058691234182323, 44.6055110473988], [26.058861056780025, 44.60559260698313], [26.059086817474498, 44.60535429110392], [26.058916994876796, 44.60527273151959], [26.058691234182323, 44.6055110473988]]]}}, {"type": "Feature", "properties": {"nr": 47, "suprafata_mp": 535, "front_m": 16.7, "adancime_m": 32}, "geometry": {"type": "Polygon", "coordinates": [[[26.058861056780025, 44.60559260698313], [26.05903599946755, 44.6056766255594], [26.059261760162023, 44.60543830968019], [26.059086817474498, 44.60535429110392], [26.058861056780025, 44.60559260698313]]]}}, {"type": "Feature", "properties": {"nr": 48, "suprafata_mp": 534, "front_m": 16.7, "adancime_m": 32}, "geometry": {"type": "Polygon", "coordinates": [[[26.05903599946755, 44.6056766255594], [26.059210574851907, 44.60576046773338], [26.05943633554638, 44.60552215185417], [26.059261760162023, 44.60543830968019], [26.05903599946755, 44.6056766255594]]]}}, {"type": "Feature", "properties": {"nr": 49, "suprafata_mp": 523, "front_m": 16.3, "adancime_m": 32}, "geometry": {"type": "Polygon", "coordinates": [[[26.059210574851907, 44.60576046773338], [26.0593815000115, 44.60584255683788], [26.059607260705974, 44.60560424095866], [26.05943633554638, 44.60552215185417], [26.059210574851907, 44.60576046773338]]]}}, {"type": "Feature", "properties": {"nr": 50, "suprafata_mp": 551, "front_m": 17.2, "adancime_m": 32}, "geometry": {"type": "Polygon", "coordinates": [[[26.0593815000115, 44.60584255683788], [26.059561562811947, 44.605929034417166], [26.05978732350642, 44.60569071853796], [26.059607260705974, 44.60560424095866], [26.0593815000115, 44.60584255683788]]]}}, {"type": "Feature", "properties": {"nr": 51, "suprafata_mp": 560, "front_m": 17.5, "adancime_m": 32}, "geometry": {"type": "Polygon", "coordinates": [[[26.059561562811947, 44.605929034417166], [26.059744663457018, 44.60601697096215], [26.05997042415149, 44.60577865508294], [26.05978732350642, 44.60569071853796], [26.059561562811947, 44.605929034417166]]]}}, {"type": "Feature", "properties": {"nr": 52, "suprafata_mp": 534, "front_m": 16.7, "adancime_m": 32}, "geometry": {"type": "Polygon", "coordinates": [[[26.059744663457018, 44.60601697096215], [26.059919162707363, 44.60610077657176], [26.060144923401836, 44.60586246069254], [26.05997042415149, 44.60577865508294], [26.059744663457018, 44.60601697096215]]]}}, {"type": "Feature", "properties": {"nr": 53, "suprafata_mp": 564, "front_m": 17.6, "adancime_m": 32}, "geometry": {"type": "Polygon", "coordinates": [[[26.059919162707363, 44.60610077657176], [26.060103425369405, 44.606189271191006], [26.06032918606388, 44.6059509553118], [26.060144923401836, 44.60586246069254], [26.059919162707363, 44.60610077657176]]]}}, {"type": "Feature", "properties": {"nr": 54, "suprafata_mp": 560, "front_m": 17.5, "adancime_m": 32}, "geometry": {"type": "Polygon", "coordinates": [[[26.060103425369405, 44.606189271191006], [26.060286520124247, 44.60627720490714], [26.06051228081872, 44.60603888902792], [26.06032918606388, 44.6059509553118], [26.060103425369405, 44.606189271191006]]]}}, {"type": "Feature", "properties": {"nr": 55, "suprafata_mp": 524, "front_m": 16.4, "adancime_m": 32}, "geometry": {"type": "Polygon", "coordinates": [[[26.060286520124247, 44.60627720490714], [26.060457737267207, 44.60635943424057], [26.060683497961683, 44.60612111836136], [26.06051228081872, 44.60603888902792], [26.060286520124247, 44.60627720490714]]]}}, {"type": "Feature", "properties": {"nr": 56, "suprafata_mp": 559, "front_m": 17.5, "adancime_m": 32}, "geometry": {"type": "Polygon", "coordinates": [[[26.060457737267207, 44.60635943424057], [26.06064029382655, 44.606447109481074], [26.06086605452102, 44.60620879360186], [26.060683497961683, 44.60612111836136], [26.060457737267207, 44.60635943424057]]]}}, {"type": "Feature", "properties": {"nr": 57, "suprafata_mp": 521, "front_m": 16.3, "adancime_m": 32}, "geometry": {"type": "Polygon", "coordinates": [[[26.057489238832613, 44.60458703249562], [26.057659609477607, 44.60466885528703], [26.05788537017208, 44.60443053940782], [26.057714999527086, 44.604348716616414], [26.057489238832613, 44.60458703249562]]]}}, {"type": "Feature", "properties": {"nr": 58, "suprafata_mp": 558, "front_m": 17.4, "adancime_m": 32}, "geometry": {"type": "Polygon", "coordinates": [[[26.057659609477607, 44.60466885528703], [26.057841914842285, 44.604756409887926], [26.05806767553676, 44.60451809400872], [26.05788537017208, 44.60443053940782], [26.057659609477607, 44.60466885528703]]]}}, {"type": "Feature", "properties": {"nr": 59, "suprafata_mp": 548, "front_m": 17.1, "adancime_m": 32}, "geometry": {"type": "Polygon", "coordinates": [[[26.057841914842285, 44.604756409887926], [26.058021132020237, 44.604842481345656], [26.05824689271471, 44.60460416546644], [26.05806767553676, 44.60451809400872], [26.057841914842285, 44.604756409887926]]]}}, {"type": "Feature", "properties": {"nr": 60, "suprafata_mp": 533, "front_m": 16.7, "adancime_m": 32}, "geometry": {"type": "Polygon", "coordinates": [[[26.058021132020237, 44.604842481345656], [26.058195381843742, 44.60492616716466], [26.058421142538215, 44.604687851285455], [26.05824689271471, 44.60460416546644], [26.058021132020237, 44.604842481345656]]]}}, {"type": "Feature", "properties": {"nr": 61, "suprafata_mp": 521, "front_m": 16.3, "adancime_m": 32}, "geometry": {"type": "Polygon", "coordinates": [[[26.058195381843742, 44.60492616716466], [26.05836568163285, 44.60500795592658], [26.058591442327323, 44.604769640047365], [26.058421142538215, 44.604687851285455], [26.058195381843742, 44.60492616716466]]]}}, {"type": "Feature", "properties": {"nr": 62, "suprafata_mp": 558, "front_m": 17.4, "adancime_m": 32}, "geometry": {"type": "Polygon", "coordinates": [[[26.05836568163285, 44.60500795592658], [26.05854817278947, 44.60509559975655], [26.058773933483945, 44.60485728387734], [26.058591442327323, 44.604769640047365], [26.05836568163285, 44.60500795592658]]]}}, {"type": "Feature", "properties": {"nr": 63, "suprafata_mp": 524, "front_m": 16.4, "adancime_m": 32}, "geometry": {"type": "Polygon", "coordinates": [[[26.05854817278947, 44.60509559975655], [26.058719424446476, 44.605177845665814], [26.05894518514095, 44.604939529786606], [26.058773933483945, 44.60485728387734], [26.05854817278947, 44.60509559975655]]]}}, {"type": "Feature", "properties": {"nr": 64, "suprafata_mp": 524, "front_m": 16.4, "adancime_m": 32}, "geometry": {"type": "Polygon", "coordinates": [[[26.058719424446476, 44.605177845665814], [26.058890713935618, 44.60526010974447], [26.05911647463009, 44.60502179386526], [26.05894518514095, 44.604939529786606], [26.058719424446476, 44.605177845665814]]]}}, {"type": "Feature", "properties": {"nr": 65, "suprafata_mp": 524, "front_m": 16.4, "adancime_m": 32}, "geometry": {"type": "Polygon", "coordinates": [[[26.058890713935618, 44.60526010974447], [26.05906195857365, 44.605342352282776], [26.059287719268124, 44.60510403640357], [26.05911647463009, 44.60502179386526], [26.058890713935618, 44.60526010974447]]]}}, {"type": "Feature", "properties": {"nr": 66, "suprafata_mp": 521, "front_m": 16.3, "adancime_m": 32}, "geometry": {"type": "Polygon", "coordinates": [[[26.05906195857365, 44.605342352282776], [26.059232324432863, 44.60542417277575], [26.059458085127336, 44.60518585689654], [26.059287719268124, 44.60510403640357], [26.05906195857365, 44.605342352282776]]]}}, {"type": "Feature", "properties": {"nr": 67, "suprafata_mp": 566, "front_m": 17.7, "adancime_m": 32}, "geometry": {"type": "Polygon", "coordinates": [[[26.059232324432863, 44.60542417277575], [26.059417362053072, 44.60551303957907], [26.059643122747545, 44.605274723699864], [26.059458085127336, 44.60518585689654], [26.059232324432863, 44.60542417277575]]]}}, {"type": "Feature", "properties": {"nr": 68, "suprafata_mp": 531, "front_m": 16.6, "adancime_m": 32}, "geometry": {"type": "Polygon", "coordinates": [[[26.059417362053072, 44.60551303957907], [26.059591070448157, 44.605596465369814], [26.059816831142633, 44.6053581494906], [26.059643122747545, 44.605274723699864], [26.059417362053072, 44.60551303957907]]]}}, {"type": "Feature", "properties": {"nr": 69, "suprafata_mp": 533, "front_m": 16.7, "adancime_m": 32}, "geometry": {"type": "Polygon", "coordinates": [[[26.059591070448157, 44.605596465369814], [26.059765439702424, 44.60568020854705], [26.059991200396897, 44.60544189266784], [26.059816831142633, 44.6053581494906], [26.059591070448157, 44.605596465369814]]]}}, {"type": "Feature", "properties": {"nr": 70, "suprafata_mp": 562, "front_m": 17.6, "adancime_m": 32}, "geometry": {"type": "Polygon", "coordinates": [[[26.059765439702424, 44.60568020854705], [26.059949168664595, 44.605768446849765], [26.060174929359068, 44.60553013097056], [26.059991200396897, 44.60544189266784], [26.059765439702424, 44.60568020854705]]]}}, {"type": "Feature", "properties": {"nr": 71, "suprafata_mp": 551, "front_m": 17.2, "adancime_m": 32}, "geometry": {"type": "Polygon", "coordinates": [[[26.059949168664595, 44.605768446849765], [26.060129112538313, 44.6058548673129], [26.06035487323279, 44.605616551433684], [26.060174929359068, 44.60553013097056], [26.059949168664595, 44.605768446849765]]]}}, {"type": "Feature", "properties": {"nr": 72, "suprafata_mp": 527, "front_m": 16.5, "adancime_m": 32}, "geometry": {"type": "Polygon", "coordinates": [[[26.060129112538313, 44.6058548673129], [26.06030136108478, 44.60593759199172], [26.060527121779252, 44.60569927611251], [26.06035487323279, 44.605616551433684], [26.060129112538313, 44.6058548673129]]]}}, {"type": "Feature", "properties": {"nr": 73, "suprafata_mp": 540, "front_m": 16.9, "adancime_m": 32}, "geometry": {"type": "Polygon", "coordinates": [[[26.06030136108478, 44.60593759199172], [26.06047801348904, 44.60602243168242], [26.060703774183512, 44.60578411580321], [26.060527121779252, 44.60569927611251], [26.06030136108478, 44.60593759199172]]]}}, {"type": "Feature", "properties": {"nr": 74, "suprafata_mp": 565, "front_m": 17.7, "adancime_m": 32}, "geometry": {"type": "Polygon", "coordinates": [[[26.06047801348904, 44.60602243168242], [26.06066265156858, 44.60611110660097], [26.060888412263054, 44.60587279072176], [26.060703774183512, 44.60578411580321], [26.06047801348904, 44.60602243168242]]]}}, {"type": "Feature", "properties": {"nr": 75, "suprafata_mp": 537, "front_m": 16.8, "adancime_m": 32}, "geometry": {"type": "Polygon", "coordinates": [[[26.06066265156858, 44.60611110660097], [26.060838247072056, 44.606195438700865], [26.06106400776653, 44.60595712282166], [26.060888412263054, 44.60587279072176], [26.06066265156858, 44.60611110660097]]]}}, {"type": "Feature", "properties": {"nr": 76, "suprafata_mp": 538, "front_m": 16.8, "adancime_m": 32}, "geometry": {"type": "Polygon", "coordinates": [[[26.057818233896093, 44.60431161118769], [26.05799404534491, 44.60439604699823], [26.058219806039382, 44.604157731119024], [26.058043994590566, 44.604073295308474], [26.057818233896093, 44.60431161118769]]]}}, {"type": "Feature", "properties": {"nr": 77, "suprafata_mp": 547, "front_m": 17.1, "adancime_m": 32}, "geometry": {"type": "Polygon", "coordinates": [[[26.05799404534491, 44.60439604699823], [26.05817271084836, 44.60448185350687], [26.058398471542834, 44.60424353762766], [26.058219806039382, 44.604157731119024], [26.05799404534491, 44.60439604699823]]]}}, {"type": "Feature", "properties": {"nr": 78, "suprafata_mp": 556, "front_m": 17.4, "adancime_m": 32}, "geometry": {"type": "Polygon", "coordinates": [[[26.05817271084836, 44.60448185350687], [26.058354463362992, 44.6045691425941], [26.058580224057465, 44.604330826714886], [26.058398471542834, 44.60424353762766], [26.05817271084836, 44.60448185350687]]]}}, {"type": "Feature", "properties": {"nr": 79, "suprafata_mp": 538, "front_m": 16.8, "adancime_m": 32}, "geometry": {"type": "Polygon", "coordinates": [[[26.058354463362992, 44.6045691425941], [26.058530167097704, 44.6046535266735], [26.058755927792177, 44.604415210794286], [26.058580224057465, 44.604330826714886], [26.058354463362992, 44.6045691425941]]]}}, {"type": "Feature", "properties": {"nr": 80, "suprafata_mp": 562, "front_m": 17.6, "adancime_m": 32}, "geometry": {"type": "Polygon", "coordinates": [[[26.058530167097704, 44.6046535266735], [26.05871385776574, 44.60474174658495], [26.05893961846021, 44.60450343070573], [26.058755927792177, 44.604415210794286], [26.058530167097704, 44.6046535266735]]]}}, {"type": "Feature", "properties": {"nr": 81, "suprafata_mp": 567, "front_m": 17.7, "adancime_m": 32}, "geometry": {"type": "Polygon", "coordinates": [[[26.05871385776574, 44.60474174658495], [26.058899127803013, 44.60483072500969], [26.059124888497486, 44.604592409130476], [26.05893961846021, 44.60450343070573], [26.05871385776574, 44.60474174658495]]]}}, {"type": "Feature", "properties": {"nr": 82, "suprafata_mp": 538, "front_m": 16.8, "adancime_m": 32}, "geometry": {"type": "Polygon", "coordinates": [[[26.058899127803013, 44.60483072500969], [26.059074937716577, 44.60491516008291], [26.05930069841105, 44.6046768442037], [26.059124888497486, 44.604592409130476], [26.058899127803013, 44.60483072500969]]]}}, {"type": "Feature", "properties": {"nr": 83, "suprafata_mp": 524, "front_m": 16.4, "adancime_m": 32}, "geometry": {"type": "Polygon", "coordinates": [[[26.059074937716577, 44.60491516008291], [26.05924630916814, 44.60499746352512], [26.059472069862615, 44.60475914764591], [26.05930069841105, 44.6046768442037], [26.059074937716577, 44.60491516008291]]]}}, {"type": "Feature", "properties": {"nr": 84, "suprafata_mp": 558, "front_m": 17.4, "adancime_m": 32}, "geometry": {"type": "Polygon", "coordinates": [[[26.05924630916814, 44.60499746352512], [26.05942875040142, 44.60508508337874], [26.059654511095896, 44.604846767499524], [26.059472069862615, 44.60475914764591], [26.05924630916814, 44.60499746352512]]]}}, {"type": "Feature", "properties": {"nr": 85, "suprafata_mp": 571, "front_m": 17.8, "adancime_m": 32}, "geometry": {"type": "Polygon", "coordinates": [[[26.05942875040142, 44.60508508337874], [26.059615327095592, 44.605174689343016], [26.059841087790065, 44.6049363734638], [26.059654511095896, 44.604846767499524], [26.05942875040142, 44.60508508337874]]]}}, {"type": "Feature", "properties": {"nr": 86, "suprafata_mp": 525, "front_m": 16.4, "adancime_m": 32}, "geometry": {"type": "Polygon", "coordinates": [[[26.059615327095592, 44.605174689343016], [26.05978687941691, 44.60525707965035], [26.060012640111385, 44.60501876377114], [26.059841087790065, 44.6049363734638], [26.059615327095592, 44.605174689343016]]]}}, {"type": "Feature", "properties": {"nr": 87, "suprafata_mp": 556, "front_m": 17.4, "adancime_m": 32}, "geometry": {"type": "Polygon", "coordinates": [[[26.05978687941691, 44.60525707965035], [26.059968472531672, 44.60534429218365], [26.060194233226145, 44.60510597630444], [26.060012640111385, 44.60501876377114], [26.05978687941691, 44.60525707965035]]]}}, {"type": "Feature", "properties": {"nr": 88, "suprafata_mp": 562, "front_m": 17.6, "adancime_m": 32}, "geometry": {"type": "Polygon", "coordinates": [[[26.059968472531672, 44.60534429218365], [26.060152068652478, 44.605432466687525], [26.060377829346955, 44.60519415080831], [26.060194233226145, 44.60510597630444], [26.059968472531672, 44.60534429218365]]]}}, {"type": "Feature", "properties": {"nr": 89, "suprafata_mp": 567, "front_m": 17.7, "adancime_m": 32}, "geometry": {"type": "Polygon", "coordinates": [[[26.060152068652478, 44.605432466687525], [26.060337358401917, 44.605521454579296], [26.06056311909639, 44.60528313870009], [26.060377829346955, 44.60519415080831], [26.060152068652478, 44.605432466687525]]]}}, {"type": "Feature", "properties": {"nr": 90, "suprafata_mp": 524, "front_m": 16.4, "adancime_m": 32}, "geometry": {"type": "Polygon", "coordinates": [[[26.060337358401917, 44.605521454579296], [26.060508473187205, 44.60560363475408], [26.06073423388168, 44.60536531887487], [26.06056311909639, 44.60528313870009], [26.060337358401917, 44.605521454579296]]]}}, {"type": "Feature", "properties": {"nr": 91, "suprafata_mp": 522, "front_m": 16.3, "adancime_m": 32}, "geometry": {"type": "Polygon", "coordinates": [[[26.060508473187205, 44.60560363475408], [26.060679026594908, 44.60568554531974], [26.06090478728938, 44.60544722944052], [26.06073423388168, 44.60536531887487], [26.060508473187205, 44.60560363475408]]]}}, {"type": "Feature", "properties": {"nr": 92, "suprafata_mp": 571, "front_m": 17.8, "adancime_m": 32}, "geometry": {"type": "Polygon", "coordinates": [[[26.060679026594908, 44.60568554531974], [26.06086551300926, 44.605775107925915], [26.061091273703735, 44.6055367920467], [26.06090478728938, 44.60544722944052], [26.060679026594908, 44.60568554531974]]]}}, {"type": "Feature", "properties": {"nr": 93, "suprafata_mp": 523, "front_m": 16.3, "adancime_m": 32}, "geometry": {"type": "Polygon", "coordinates": [[[26.06086551300926, 44.605775107925915], [26.061036509995695, 44.605857231526215], [26.061262270690168, 44.605618915647], [26.061091273703735, 44.6055367920467], [26.06086551300926, 44.605775107925915]]]}}, {"type": "Feature", "properties": {"nr": 94, "suprafata_mp": 546, "front_m": 17.1, "adancime_m": 32}, "geometry": {"type": "Polygon", "coordinates": [[[26.05795872890875, 44.604032345319126], [26.058137184226766, 44.604118050883386], [26.05836294492124, 44.60387973500417], [26.058184489603224, 44.60379402943992], [26.05795872890875, 44.604032345319126]]]}}, {"type": "Feature", "properties": {"nr": 95, "suprafata_mp": 538, "front_m": 16.8, "adancime_m": 32}, "geometry": {"type": "Polygon", "coordinates": [[[26.058137184226766, 44.604118050883386], [26.058313139444508, 44.60420255574089], [26.05853890013898, 44.603964239861675], [26.05836294492124, 44.60387973500417], [26.058137184226766, 44.604118050883386]]]}}, {"type": "Feature", "properties": {"nr": 96, "suprafata_mp": 560, "front_m": 17.5, "adancime_m": 32}, "geometry": {"type": "Polygon", "coordinates": [[[26.058313139444508, 44.60420255574089], [26.058496121944923, 44.604290435545316], [26.058721882639396, 44.60405211966611], [26.05853890013898, 44.603964239861675], [26.058313139444508, 44.60420255574089]]]}}, {"type": "Feature", "properties": {"nr": 97, "suprafata_mp": 564, "front_m": 17.6, "adancime_m": 32}, "geometry": {"type": "Polygon", "coordinates": [[[26.058496121944923, 44.604290435545316], [26.05868057358883, 44.604379020925656], [26.058906334283307, 44.60414070504644], [26.058721882639396, 44.60405211966611], [26.058496121944923, 44.604290435545316]]]}}, {"type": "Feature", "properties": {"nr": 98, "suprafata_mp": 527, "front_m": 16.5, "adancime_m": 32}, "geometry": {"type": "Polygon", "coordinates": [[[26.05868057358883, 44.604379020925656], [26.058852683938014, 44.604461679233374], [26.05907844463249, 44.60422336335416], [26.058906334283307, 44.60414070504644], [26.05868057358883, 44.604379020925656]]]}}, {"type": "Feature", "properties": {"nr": 99, "suprafata_mp": 524, "front_m": 16.4, "adancime_m": 32}, "geometry": {"type": "Polygon", "coordinates": [[[26.058852683938014, 44.604461679233374], [26.05902402858575, 44.604543969802684], [26.059249789280223, 44.604305653923475], [26.05907844463249, 44.60422336335416], [26.058852683938014, 44.604461679233374]]]}}, {"type": "Feature", "properties": {"nr": 100, "suprafata_mp": 523, "front_m": 16.3, "adancime_m": 32}, "geometry": {"type": "Polygon", "coordinates": [[[26.05902402858575, 44.604543969802684], [26.059194962185153, 44.60462606296051], [26.059420722879626, 44.6043877470813], [26.059249789280223, 44.604305653923475], [26.05902402858575, 44.604543969802684]]]}}, {"type": "Feature", "properties": {"nr": 101, "suprafata_mp": 570, "front_m": 17.8, "adancime_m": 32}, "geometry": {"type": "Polygon", "coordinates": [[[26.059194962185153, 44.60462606296051], [26.059381301463134, 44.60471555490247], [26.059607062157607, 44.60447723902326], [26.059420722879626, 44.6043877470813], [26.059194962185153, 44.60462606296051]]]}}, {"type": "Feature", "properties": {"nr": 102, "suprafata_mp": 568, "front_m": 17.8, "adancime_m": 32}, "geometry": {"type": "Polygon", "coordinates": [[[26.059381301463134, 44.60471555490247], [26.059566964960915, 44.60480472229191], [26.059792725655388, 44.604566406412694], [26.059607062157607, 44.60447723902326], [26.059381301463134, 44.60471555490247]]]}}, {"type": "Feature", "properties": {"nr": 103, "suprafata_mp": 529, "front_m": 16.5, "adancime_m": 32}, "geometry": {"type": "Polygon", "coordinates": [[[26.059566964960915, 44.60480472229191], [26.059739987410506, 44.6048878186481], [26.05996574810498, 44.60464950276889], [26.059792725655388, 44.604566406412694], [26.059566964960915, 44.60480472229191]]]}}, {"type": "Feature", "properties": {"nr": 104, "suprafata_mp": 570, "front_m": 17.8, "adancime_m": 32}, "geometry": {"type": "Polygon", "coordinates": [[[26.059739987410506, 44.6048878186481], [26.05992615440414, 44.60497722784819], [26.06015191509861, 44.60473891196898], [26.05996574810498, 44.60464950276889], [26.059739987410506, 44.6048878186481]]]}}, {"type": "Feature", "properties": {"nr": 105, "suprafata_mp": 528, "front_m": 16.5, "adancime_m": 32}, "geometry": {"type": "Polygon", "coordinates": [[[26.05992615440414, 44.60497722784819], [26.060098770563076, 44.60506012907784], [26.06032453125755, 44.60482181319863], [26.06015191509861, 44.60473891196898], [26.05992615440414, 44.60497722784819]]]}}, {"type": "Feature", "properties": {"nr": 106, "suprafata_mp": 544, "front_m": 17.0, "adancime_m": 32}, "geometry": {"type": "Polygon", "coordinates": [[[26.060098770563076, 44.60506012907784], [26.060276697210824, 44.605145580741095], [26.060502457905297, 44.604907264861886], [26.06032453125755, 44.60482181319863], [26.060098770563076, 44.60506012907784]]]}}, {"type": "Feature", "properties": {"nr": 107, "suprafata_mp": 544, "front_m": 17.0, "adancime_m": 32}, "geometry": {"type": "Polygon", "coordinates": [[[26.060276697210824, 44.605145580741095], [26.060454462210636, 44.60523095477076], [26.06068022290511, 44.604992638891545], [26.060502457905297, 44.604907264861886], [26.060276697210824, 44.605145580741095]]]}}, {"type": "Feature", "properties": {"nr": 108, "suprafata_mp": 567, "front_m": 17.7, "adancime_m": 32}, "geometry": {"type": "Polygon", "coordinates": [[[26.060454462210636, 44.60523095477076], [26.060639652100384, 44.60531989470358], [26.060865412794858, 44.60508157882436], [26.06068022290511, 44.604992638891545], [26.060454462210636, 44.60523095477076]]]}}, {"type": "Feature", "properties": {"nr": 109, "suprafata_mp": 519, "front_m": 16.2, "adancime_m": 32}, "geometry": {"type": "Polygon", "coordinates": [[[26.060639652100384, 44.60531989470358], [26.060809293672005, 44.605401367347696], [26.061035054366478, 44.60516305146849], [26.060865412794858, 44.60508157882436], [26.060639652100384, 44.60531989470358]]]}}, {"type": "Feature", "properties": {"nr": 110, "suprafata_mp": 534, "front_m": 16.7, "adancime_m": 32}, "geometry": {"type": "Polygon", "coordinates": [[[26.060809293672005, 44.605401367347696], [26.06098382189393, 44.60548518687129], [26.061209582588404, 44.605246870992076], [26.061035054366478, 44.60516305146849], [26.060809293672005, 44.605401367347696]]]}}, {"type": "Feature", "properties": {"nr": 111, "suprafata_mp": 549, "front_m": 17.2, "adancime_m": 32}, "geometry": {"type": "Polygon", "coordinates": [[[26.06098382189393, 44.60548518687129], [26.06116341105574, 44.60557143697926], [26.061389171750214, 44.60533312110005], [26.061209582588404, 44.605246870992076], [26.06098382189393, 44.60548518687129]]]}}, {"type": "Feature", "properties": {"nr": 112, "suprafata_mp": 520, "front_m": 16.3, "adancime_m": 32}, "geometry": {"type": "Polygon", "coordinates": [[[26.06116341105574, 44.60557143697926], [26.0613335126143, 44.60565313053829], [26.061559273308774, 44.605414814659085], [26.061389171750214, 44.60533312110005], [26.06116341105574, 44.60557143697926]]]}}, {"type": "Feature", "properties": {"nr": 113, "suprafata_mp": 528, "front_m": 16.5, "adancime_m": 32}, "geometry": {"type": "Polygon", "coordinates": [[[26.058168564763065, 44.60369969619993], [26.058341202610396, 44.60378260784572], [26.05856696330487, 44.603544291966514], [26.058394325457538, 44.60346138032072], [26.058168564763065, 44.60369969619993]]]}}, {"type": "Feature", "properties": {"nr": 114, "suprafata_mp": 547, "front_m": 17.1, "adancime_m": 32}, "geometry": {"type": "Polygon", "coordinates": [[[26.058341202610396, 44.60378260784572], [26.0585199333921, 44.60386844570512], [26.05874569408657, 44.6036301298259], [26.05856696330487, 44.603544291966514], [26.058341202610396, 44.60378260784572]]]}}, {"type": "Feature", "properties": {"nr": 115, "suprafata_mp": 559, "front_m": 17.5, "adancime_m": 32}, "geometry": {"type": "Polygon", "coordinates": [[[26.0585199333921, 44.60386844570512], [26.05870253107115, 44.60395614069392], [26.058928291765625, 44.6037178248147], [26.05874569408657, 44.6036301298259], [26.0585199333921, 44.60386844570512]]]}}, {"type": "Feature", "properties": {"nr": 116, "suprafata_mp": 520, "front_m": 16.3, "adancime_m": 32}, "geometry": {"type": "Polygon", "coordinates": [[[26.05870253107115, 44.60395614069392], [26.05887261336797, 44.60403782500224], [26.059098374062444, 44.60379950912303], [26.058928291765625, 44.6037178248147], [26.05870253107115, 44.60395614069392]]]}}, {"type": "Feature", "properties": {"nr": 117, "suprafata_mp": 556, "front_m": 17.4, "adancime_m": 32}, "geometry": {"type": "Polygon", "coordinates": [[[26.05887261336797, 44.60403782500224], [26.059054476158572, 44.60412516705099], [26.059280236853045, 44.60388685117177], [26.059098374062444, 44.60379950912303], [26.05887261336797, 44.60403782500224]]]}}, {"type": "Feature", "properties": {"nr": 118, "suprafata_mp": 518, "front_m": 16.2, "adancime_m": 32}, "geometry": {"type": "Polygon", "coordinates": [[[26.059054476158572, 44.60412516705099], [26.05922367148765, 44.604206425381136], [26.059449432182124, 44.60396810950192], [26.059280236853045, 44.60388685117177], [26.059054476158572, 44.60412516705099]]]}}, {"type": "Feature", "properties": {"nr": 119, "suprafata_mp": 569, "front_m": 17.8, "adancime_m": 32}, "geometry": {"type": "Polygon", "coordinates": [[[26.05922367148765, 44.604206425381136], [26.05940963297485, 44.604295735883994], [26.059635393669325, 44.604057420004786], [26.059449432182124, 44.60396810950192], [26.05922367148765, 44.604206425381136]]]}}, {"type": "Feature", "properties": {"nr": 120, "suprafata_mp": 542, "front_m": 16.9, "adancime_m": 32}, "geometry": {"type": "Polygon", "coordinates": [[[26.05940963297485, 44.604295735883994], [26.05958688738462, 44.604380864695926], [26.05981264807909, 44.60414254881672], [26.059635393669325, 44.604057420004786], [26.05940963297485, 44.604295735883994]]]}}, {"type": "Feature", "properties": {"nr": 121, "suprafata_mp": 539, "front_m": 16.8, "adancime_m": 32}, "geometry": {"type": "Polygon", "coordinates": [[[26.05958688738462, 44.604380864695926], [26.059763082056637, 44.60446548455457], [26.05998884275111, 44.60422716867536], [26.05981264807909, 44.60414254881672], [26.05958688738462, 44.604380864695926]]]}}, {"type": "Feature", "properties": {"nr": 122, "suprafata_mp": 556, "front_m": 17.4, "adancime_m": 32}, "geometry": {"type": "Polygon", "coordinates": [[[26.059763082056637, 44.60446548455457], [26.0599448133127, 44.60455276343208], [26.060170574007174, 44.60431444755287], [26.05998884275111, 44.60422716867536], [26.059763082056637, 44.60446548455457]]]}}, {"type": "Feature", "properties": {"nr": 123, "suprafata_mp": 545, "front_m": 17.0, "adancime_m": 32}, "geometry": {"type": "Polygon", "coordinates": [[[26.0599448133127, 44.60455276343208], [26.06012303909013, 44.60463835875639], [26.060348799784602, 44.604400042877174], [26.060170574007174, 44.60431444755287], [26.0599448133127, 44.60455276343208]]]}}, {"type": "Feature", "properties": {"nr": 124, "suprafata_mp": 557, "front_m": 17.4, "adancime_m": 32}, "geometry": {"type": "Polygon", "coordinates": [[[26.06012303909013, 44.60463835875639], [26.06030495534491, 44.60472572648202], [26.060530716039384, 44.604487410602815], [26.060348799784602, 44.604400042877174], [26.06012303909013, 44.60463835875639]]]}}, {"type": "Feature", "properties": {"nr": 125, "suprafata_mp": 521, "front_m": 16.3, "adancime_m": 32}, "geometry": {"type": "Polygon", "coordinates": [[[26.06030495534491, 44.60472572648202], [26.06047538335962, 44.60480757682601], [26.060701144054093, 44.604569260946796], [26.060530716039384, 44.604487410602815], [26.06030495534491, 44.60472572648202]]]}}, {"type": "Feature", "properties": {"nr": 126, "suprafata_mp": 547, "front_m": 17.1, "adancime_m": 32}, "geometry": {"type": "Polygon", "coordinates": [[[26.06047538335962, 44.60480757682601], [26.060654311368, 44.60489350940617], [26.060880072062474, 44.60465519352695], [26.060701144054093, 44.604569260946796], [26.06047538335962, 44.60480757682601]]]}}, {"type": "Feature", "properties": {"nr": 127, "suprafata_mp": 547, "front_m": 17.1, "adancime_m": 32}, "geometry": {"type": "Polygon", "coordinates": [[[26.060654311368, 44.60489350940617], [26.0608331561041, 44.60497940199369], [26.061058916798572, 44.60474108611447], [26.060880072062474, 44.60465519352695], [26.060654311368, 44.60489350940617]]]}}, {"type": "Feature", "properties": {"nr": 128, "suprafata_mp": 568, "front_m": 17.7, "adancime_m": 32}, "geometry": {"type": "Polygon", "coordinates": [[[26.0608331561041, 44.60497940199369], [26.061018651082616, 44.60506848844948], [26.06124441177709, 44.604830172570274], [26.061058916798572, 44.60474108611447], [26.0608331561041, 44.60497940199369]]]}}, {"type": "Feature", "properties": {"nr": 129, "suprafata_mp": 519, "front_m": 16.2, "adancime_m": 32}, "geometry": {"type": "Polygon", "coordinates": [[[26.061018651082616, 44.60506848844948], [26.061188276237225, 44.605149953209114], [26.061414036931698, 44.604911637329906], [26.06124441177709, 44.604830172570274], [26.061018651082616, 44.60506848844948]]]}}, {"type": "Feature", "properties": {"nr": 130, "suprafata_mp": 541, "front_m": 16.9, "adancime_m": 32}, "geometry": {"type": "Polygon", "coordinates": [[[26.061188276237225, 44.605149953209114], [26.06136524881297, 44.60523494666647], [26.061591009507442, 44.60499663078726], [26.061414036931698, 44.604911637329906], [26.061188276237225, 44.605149953209114]]]}}, {"type": "Feature", "properties": {"nr": 131, "suprafata_mp": 551, "front_m": 17.2, "adancime_m": 32}, "geometry": {"type": "Polygon", "coordinates": [[[26.06136524881297, 44.60523494666647], [26.06154539093677, 44.60532146234187], [26.061771151631245, 44.60508314646266], [26.061591009507442, 44.60499663078726], [26.06136524881297, 44.60523494666647]]]}}, {"type": "Feature", "properties": {"nr": 132, "suprafata_mp": 547, "front_m": 17.1, "adancime_m": 32}, "geometry": {"type": "Polygon", "coordinates": [[[26.058539634320734, 44.60353116685468], [26.05871847402714, 44.603617057026625], [26.058944234721615, 44.60337874114742], [26.058765395015207, 44.60329285097547], [26.058539634320734, 44.60353116685468]]]}}, {"type": "Feature", "properties": {"nr": 133, "suprafata_mp": 553, "front_m": 17.3, "adancime_m": 32}, "geometry": {"type": "Polygon", "coordinates": [[[26.05871847402714, 44.603617057026625], [26.058899214770655, 44.603703860197186], [26.059124975465128, 44.60346554431797], [26.058944234721615, 44.60337874114742], [26.05871847402714, 44.603617057026625]]]}}, {"type": "Feature", "properties": {"nr": 134, "suprafata_mp": 554, "front_m": 17.3, "adancime_m": 32}, "geometry": {"type": "Polygon", "coordinates": [[[26.058899214770655, 44.603703860197186], [26.059080185473267, 44.60379077380869], [26.05930594616774, 44.603552457929474], [26.059124975465128, 44.60346554431797], [26.058899214770655, 44.603703860197186]]]}}, {"type": "Feature", "properties": {"nr": 135, "suprafata_mp": 549, "front_m": 17.1, "adancime_m": 32}, "geometry": {"type": "Polygon", "coordinates": [[[26.059080185473267, 44.60379077380869], [26.059259483443014, 44.60387688406776], [26.059485244137488, 44.60363856818855], [26.05930594616774, 44.603552457929474], [26.059080185473267, 44.60379077380869]]]}}, {"type": "Feature", "properties": {"nr": 136, "suprafata_mp": 540, "front_m": 16.9, "adancime_m": 32}, "geometry": {"type": "Polygon", "coordinates": [[[26.059259483443014, 44.60387688406776], [26.05943588363764, 44.603961602631394], [26.059661644332113, 44.60372328675218], [26.059485244137488, 44.60363856818855], [26.059259483443014, 44.60387688406776]]]}}, {"type": "Feature", "properties": {"nr": 137, "suprafata_mp": 527, "front_m": 16.5, "adancime_m": 32}, "geometry": {"type": "Polygon", "coordinates": [[[26.05943588363764, 44.603961602631394], [26.059608067110457, 44.60404429605772], [26.05983382780493, 44.60380598017851], [26.059661644332113, 44.60372328675218], [26.05943588363764, 44.603961602631394]]]}}, {"type": "Feature", "properties": {"nr": 138, "suprafata_mp": 533, "front_m": 16.6, "adancime_m": 32}, "geometry": {"type": "Polygon", "coordinates": [[[26.059608067110457, 44.60404429605772], [26.05978219154418, 44.6041279216566], [26.060007952238653, 44.60388960577739], [26.05983382780493, 44.60380598017851], [26.059608067110457, 44.60404429605772]]]}}, {"type": "Feature", "properties": {"nr": 139, "suprafata_mp": 533, "front_m": 16.6, "adancime_m": 32}, "geometry": {"type": "Polygon", "coordinates": [[[26.05978219154418, 44.6041279216566], [26.05995632095915, 44.60421154964779], [26.060182081653625, 44.603973233768585], [26.060007952238653, 44.60388960577739], [26.05978219154418, 44.6041279216566]]]}}, {"type": "Feature", "properties": {"nr": 140, "suprafata_mp": 540, "front_m": 16.9, "adancime_m": 32}, "geometry": {"type": "Polygon", "coordinates": [[[26.05995632095915, 44.60421154964779], [26.060132901021024, 44.60429635459509], [26.060358661715497, 44.60405803871588], [26.060182081653625, 44.603973233768585], [26.05995632095915, 44.60421154964779]]]}}, {"type": "Feature", "properties": {"nr": 141, "suprafata_mp": 571, "front_m": 17.8, "adancime_m": 32}, "geometry": {"type": "Polygon", "coordinates": [[[26.060132901021024, 44.60429635459509], [26.060319586356183, 44.60438601273566], [26.060545347050656, 44.604147696856444], [26.060358661715497, 44.60405803871588], [26.060132901021024, 44.60429635459509]]]}}, {"type": "Feature", "properties": {"nr": 142, "suprafata_mp": 536, "front_m": 16.7, "adancime_m": 32}, "geometry": {"type": "Polygon", "coordinates": [[[26.060319586356183, 44.60438601273566], [26.060494776056924, 44.60447014994334], [26.060720536751397, 44.60423183406413], [26.060545347050656, 44.604147696856444], [26.060319586356183, 44.60438601273566]]]}}, {"type": "Feature", "properties": {"nr": 143, "suprafata_mp": 541, "front_m": 16.9, "adancime_m": 32}, "geometry": {"type": "Polygon", "coordinates": [[[26.060494776056924, 44.60447014994334], [26.060671651896794, 44.60455509694199], [26.060897412591267, 44.60431678106278], [26.060720536751397, 44.60423183406413], [26.060494776056924, 44.60447014994334]]]}}, {"type": "Feature", "properties": {"nr": 144, "suprafata_mp": 537, "front_m": 16.8, "adancime_m": 32}, "geometry": {"type": "Polygon", "coordinates": [[[26.060671651896794, 44.60455509694199], [26.060847180784023, 44.604639397048544], [26.061072941478496, 44.60440108116933], [26.060897412591267, 44.60431678106278], [26.060671651896794, 44.60455509694199]]]}}, {"type": "Feature", "properties": {"nr": 145, "suprafata_mp": 548, "front_m": 17.1, "adancime_m": 32}, "geometry": {"type": "Polygon", "coordinates": [[[26.060847180784023, 44.604639397048544], [26.06102644015958, 44.60472548877223], [26.061252200854053, 44.60448717289302], [26.061072941478496, 44.60440108116933], [26.060847180784023, 44.604639397048544]]]}}, {"type": "Feature", "properties": {"nr": 146, "suprafata_mp": 568, "front_m": 17.8, "adancime_m": 32}, "geometry": {"type": "Polygon", "coordinates": [[[26.06102644015958, 44.60472548877223], [26.061212215807995, 44.60481471002352], [26.061437976502468, 44.60457639414431], [26.061252200854053, 44.60448717289302], [26.06102644015958, 44.60472548877223]]]}}, {"type": "Feature", "properties": {"nr": 147, "suprafata_mp": 565, "front_m": 17.7, "adancime_m": 32}, "geometry": {"type": "Polygon", "coordinates": [[[26.061212215807995, 44.60481471002352], [26.061396945468083, 44.60490342892486], [26.06162270616256, 44.60466511304565], [26.061437976502468, 44.60457639414431], [26.061212215807995, 44.60481471002352]]]}}, {"type": "Feature", "properties": {"nr": 148, "suprafata_mp": 537, "front_m": 16.8, "adancime_m": 32}, "geometry": {"type": "Polygon", "coordinates": [[[26.061396945468083, 44.60490342892486], [26.061572572350467, 44.604987776094895], [26.06179833304494, 44.604749460215686], [26.06162270616256, 44.60466511304565], [26.061396945468083, 44.60490342892486]]]}}, {"type": "Feature", "properties": {"nr": 149, "suprafata_mp": 531, "front_m": 16.6, "adancime_m": 32}, "geometry": {"type": "Polygon", "coordinates": [[[26.061572572350467, 44.604987776094895], [26.06174623908152, 44.60507118187592], [26.06197199977599, 44.60483286599671], [26.06179833304494, 44.604749460215686], [26.061572572350467, 44.604987776094895]]]}}, {"type": "Feature", "properties": {"nr": 150, "suprafata_mp": 533, "front_m": 16.7, "adancime_m": 32}, "geometry": {"type": "Polygon", "coordinates": [[[26.0587905248777, 44.603218234808054], [26.05896488718936, 44.60330197465101], [26.059190647883835, 44.6030636587718], [26.059016285572174, 44.602979918928845], [26.0587905248777, 44.603218234808054]]]}}, {"type": "Feature", "properties": {"nr": 151, "suprafata_mp": 531, "front_m": 16.6, "adancime_m": 32}, "geometry": {"type": "Polygon", "coordinates": [[[26.05896488718936, 44.60330197465101], [26.059138365640106, 44.60338529000789], [26.05936412633458, 44.60314697412868], [26.059190647883835, 44.6030636587718], [26.05896488718936, 44.60330197465101]]]}}, {"type": "Feature", "properties": {"nr": 152, "suprafata_mp": 520, "front_m": 16.3, "adancime_m": 32}, "geometry": {"type": "Polygon", "coordinates": [[[26.059138365640106, 44.60338529000789], [26.05930848636749, 44.60346699277301], [26.059534247061965, 44.6032286768938], [26.05936412633458, 44.60314697412868], [26.059138365640106, 44.60338529000789]]]}}, {"type": "Feature", "properties": {"nr": 153, "suprafata_mp": 540, "front_m": 16.9, "adancime_m": 32}, "geometry": {"type": "Polygon", "coordinates": [[[26.05930848636749, 44.60346699277301], [26.059484927345004, 44.60355173092317], [26.059710688039477, 44.60331341504396], [26.059534247061965, 44.6032286768938], [26.05930848636749, 44.60346699277301]]]}}, {"type": "Feature", "properties": {"nr": 154, "suprafata_mp": 559, "front_m": 17.5, "adancime_m": 32}, "geometry": {"type": "Polygon", "coordinates": [[[26.059484927345004, 44.60355173092317], [26.059667572403875, 44.60363944866676], [26.059893333098348, 44.60340113278755], [26.059710688039477, 44.60331341504396], [26.059484927345004, 44.60355173092317]]]}}, {"type": "Feature", "properties": {"nr": 155, "suprafata_mp": 555, "front_m": 17.4, "adancime_m": 32}, "geometry": {"type": "Polygon", "coordinates": [[[26.059667572403875, 44.60363944866676], [26.059849110241675, 44.60372663465257], [26.06007487093615, 44.60348831877335], [26.059893333098348, 44.60340113278755], [26.059667572403875, 44.60363944866676]]]}}, {"type": "Feature", "properties": {"nr": 156, "suprafata_mp": 527, "front_m": 16.5, "adancime_m": 32}, "geometry": {"type": "Polygon", "coordinates": [[[26.059849110241675, 44.60372663465257], [26.06002150866663, 44.60380943131254], [26.060247269361103, 44.60357111543333], [26.06007487093615, 44.60348831877335], [26.059849110241675, 44.60372663465257]]]}}, {"type": "Feature", "properties": {"nr": 157, "suprafata_mp": 524, "front_m": 16.4, "adancime_m": 32}, "geometry": {"type": "Polygon", "coordinates": [[[26.06002150866663, 44.60380943131254], [26.06019286439518, 44.60389172720357], [26.060418625089653, 44.60365341132435], [26.060247269361103, 44.60357111543333], [26.06002150866663, 44.60380943131254]]]}}, {"type": "Feature", "properties": {"nr": 158, "suprafata_mp": 534, "front_m": 16.7, "adancime_m": 32}, "geometry": {"type": "Polygon", "coordinates": [[[26.06019286439518, 44.60389172720357], [26.060367500675394, 44.603975598623606], [26.060593261369867, 44.60373728274439], [26.060418625089653, 44.60365341132435], [26.06019286439518, 44.60389172720357]]]}}, {"type": "Feature", "properties": {"nr": 159, "suprafata_mp": 559, "front_m": 17.5, "adancime_m": 32}, "geometry": {"type": "Polygon", "coordinates": [[[26.060367500675394, 44.603975598623606], [26.060550082057162, 44.604063285785415], [26.060775842751635, 44.6038249699062], [26.060593261369867, 44.60373728274439], [26.060367500675394, 44.603975598623606]]]}}, {"type": "Feature", "properties": {"nr": 160, "suprafata_mp": 543, "front_m": 17.0, "adancime_m": 32}, "geometry": {"type": "Polygon", "coordinates": [[[26.060550082057162, 44.604063285785415], [26.060727681569443, 44.604148580337466], [26.060953442263916, 44.60391026445825], [26.060775842751635, 44.6038249699062], [26.060550082057162, 44.604063285785415]]]}}, {"type": "Feature", "properties": {"nr": 161, "suprafata_mp": 567, "front_m": 17.7, "adancime_m": 32}, "geometry": {"type": "Polygon", "coordinates": [[[26.060727681569443, 44.604148580337466], [26.060913017767465, 44.6042375905368], [26.061138778461938, 44.60399927465758], [26.060953442263916, 44.60391026445825], [26.060727681569443, 44.604148580337466]]]}}, {"type": "Feature", "properties": {"nr": 162, "suprafata_mp": 553, "front_m": 17.3, "adancime_m": 32}, "geometry": {"type": "Polygon", "coordinates": [[[26.060913017767465, 44.6042375905368], [26.061093609947346, 44.60432432235767], [26.06131937064182, 44.60408600647846], [26.061138778461938, 44.60399927465758], [26.060913017767465, 44.6042375905368]]]}}, {"type": "Feature", "properties": {"nr": 163, "suprafata_mp": 551, "front_m": 17.2, "adancime_m": 32}, "geometry": {"type": "Polygon", "coordinates": [[[26.061093609947346, 44.60432432235767], [26.06127357130564, 44.604410751218005], [26.061499332000114, 44.604172435338796], [26.06131937064182, 44.60408600647846], [26.061093609947346, 44.60432432235767]]]}}, {"type": "Feature", "properties": {"nr": 164, "suprafata_mp": 559, "front_m": 17.5, "adancime_m": 32}, "geometry": {"type": "Polygon", "coordinates": [[[26.06127357130564, 44.604410751218005], [26.061456142658354, 44.60449843356323], [26.061681903352827, 44.604260117684014], [26.061499332000114, 44.604172435338796], [26.06127357130564, 44.604410751218005]]]}}, {"type": "Feature", "properties": {"nr": 165, "suprafata_mp": 558, "front_m": 17.4, "adancime_m": 32}, "geometry": {"type": "Polygon", "coordinates": [[[26.061456142658354, 44.60449843356323], [26.061638404034444, 44.60458596703801], [26.061864164728917, 44.604347651158804], [26.061681903352827, 44.604260117684014], [26.061456142658354, 44.60449843356323]]]}}, {"type": "Feature", "properties": {"nr": 166, "suprafata_mp": 536, "front_m": 16.7, "adancime_m": 32}, "geometry": {"type": "Polygon", "coordinates": [[[26.061638404034444, 44.60458596703801], [26.061813438793507, 44.60467002983287], [26.06203919948798, 44.60443171395366], [26.061864164728917, 44.604347651158804], [26.061638404034444, 44.60458596703801]]]}}, {"type": "Feature", "properties": {"nr": 167, "suprafata_mp": 531, "front_m": 16.6, "adancime_m": 32}, "geometry": {"type": "Polygon", "coordinates": [[[26.061813438793507, 44.60467002983287], [26.06198692962026, 44.60475335113349], [26.062212690314734, 44.60451503525428], [26.06203919948798, 44.60443171395366], [26.061813438793507, 44.60467002983287]]]}}, {"type": "Feature", "properties": {"nr": 168, "suprafata_mp": 541, "front_m": 16.9, "adancime_m": 32}, "geometry": {"type": "Polygon", "coordinates": [[[26.06198692962026, 44.60475335113349], [26.062163631953588, 44.604838214803294], [26.06238939264806, 44.604599898924086], [26.062212690314734, 44.60451503525428], [26.06198692962026, 44.60475335113349]]]}}, {"type": "Feature", "properties": {"nr": 169, "suprafata_mp": 552, "front_m": 17.2, "adancime_m": 32}, "geometry": {"type": "Polygon", "coordinates": [[[26.053143390646746, 44.600159382230984], [26.05332368836172, 44.60024597263113], [26.05354944905619, 44.60000765675192], [26.05336915134122, 44.59992106635177], [26.053143390646746, 44.600159382230984]]]}}, {"type": "Feature", "properties": {"nr": 170, "suprafata_mp": 524, "front_m": 16.4, "adancime_m": 32}, "geometry": {"type": "Polygon", "coordinates": [[[26.05332368836172, 44.60024597263113], [26.053495022443542, 44.60032825812602], [26.053720783138015, 44.60008994224681], [26.05354944905619, 44.60000765675192], [26.05332368836172, 44.60024597263113]]]}}, {"type": "Feature", "properties": {"nr": 171, "suprafata_mp": 524, "front_m": 16.4, "adancime_m": 32}, "geometry": {"type": "Polygon", "coordinates": [[[26.053495022443542, 44.60032825812602], [26.053666397837784, 44.60041056346176], [26.053892158532257, 44.60017224758254], [26.053720783138015, 44.60008994224681], [26.053495022443542, 44.60032825812602]]]}}, {"type": "Feature", "properties": {"nr": 172, "suprafata_mp": 526, "front_m": 16.4, "adancime_m": 32}, "geometry": {"type": "Polygon", "coordinates": [[[26.053666397837784, 44.60041056346176], [26.05383840772612, 44.600493173521805], [26.05406416842059, 44.60025485764259], [26.053892158532257, 44.60017224758254], [26.053666397837784, 44.60041056346176]]]}}, {"type": "Feature", "properties": {"nr": 173, "suprafata_mp": 532, "front_m": 16.6, "adancime_m": 32}, "geometry": {"type": "Polygon", "coordinates": [[[26.05383840772612, 44.600493173521805], [26.05401236660614, 44.6005767196113], [26.054238127300614, 44.60033840373208], [26.05406416842059, 44.60025485764259], [26.05383840772612, 44.600493173521805]]]}}, {"type": "Feature", "properties": {"nr": 174, "suprafata_mp": 569, "front_m": 17.8, "adancime_m": 32}, "geometry": {"type": "Polygon", "coordinates": [[[26.05401236660614, 44.6005767196113], [26.054198387824595, 44.6006660588009], [26.054424148519068, 44.60042774292168], [26.054238127300614, 44.60033840373208], [26.05401236660614, 44.6005767196113]]]}}, {"type": "Feature", "properties": {"nr": 175, "suprafata_mp": 518, "front_m": 16.2, "adancime_m": 32}, "geometry": {"type": "Polygon", "coordinates": [[[26.054198387824595, 44.6006660588009], [26.054367767345326, 44.600747405591555], [26.0545935280398, 44.60050908971235], [26.054424148519068, 44.60042774292168], [26.054198387824595, 44.6006660588009]]]}}, {"type": "Feature", "properties": {"nr": 176, "suprafata_mp": 527, "front_m": 16.5, "adancime_m": 32}, "geometry": {"type": "Polygon", "coordinates": [[[26.054367767345326, 44.600747405591555], [26.054539955359985, 44.600830101199165], [26.054765716054458, 44.600591785319956], [26.0545935280398, 44.60050908971235], [26.054367767345326, 44.600747405591555]]]}}, {"type": "Feature", "properties": {"nr": 177, "suprafata_mp": 526, "front_m": 16.4, "adancime_m": 32}, "geometry": {"type": "Polygon", "coordinates": [[[26.054539955359985, 44.600830101199165], [26.054711811022216, 44.600912637190056], [26.054937571716692, 44.60067432131084], [26.054765716054458, 44.600591785319956], [26.054539955359985, 44.600830101199165]]]}}, {"type": "Feature", "properties": {"nr": 178, "suprafata_mp": 543, "front_m": 17.0, "adancime_m": 32}, "geometry": {"type": "Polygon", "coordinates": [[[26.054711811022216, 44.600912637190056], [26.054889166397345, 44.60099781449196], [26.055114927091818, 44.600759498612746], [26.054937571716692, 44.60067432131084], [26.054711811022216, 44.600912637190056]]]}}, {"type": "Feature", "properties": {"nr": 179, "suprafata_mp": 518, "front_m": 16.2, "adancime_m": 32}, "geometry": {"type": "Polygon", "coordinates": [[[26.054889166397345, 44.60099781449196], [26.055058355330573, 44.60107906975041], [26.055284116025046, 44.6008407538712], [26.055114927091818, 44.600759498612746], [26.054889166397345, 44.60099781449196]]]}}, {"type": "Feature", "properties": {"nr": 180, "suprafata_mp": 542, "front_m": 16.9, "adancime_m": 32}, "geometry": {"type": "Polygon", "coordinates": [[[26.055058355330573, 44.60107906975041], [26.05523542309908, 44.601164108925374], [26.055461183793554, 44.60092579304616], [26.055284116025046, 44.6008407538712], [26.055058355330573, 44.60107906975041]]]}}, {"type": "Feature", "properties": {"nr": 181, "suprafata_mp": 526, "front_m": 16.4, "adancime_m": 32}, "geometry": {"type": "Polygon", "coordinates": [[[26.05523542309908, 44.601164108925374], [26.055407240969444, 44.60124662676621], [26.055633001663917, 44.601008310886996], [26.055461183793554, 44.60092579304616], [26.05523542309908, 44.601164108925374]]]}}, {"type": "Feature", "properties": {"nr": 182, "suprafata_mp": 531, "front_m": 16.6, "adancime_m": 32}, "geometry": {"type": "Polygon", "coordinates": [[[26.055407240969444, 44.60124662676621], [26.055580956404498, 44.601330055937986], [26.05580671709897, 44.60109174005878], [26.055633001663917, 44.601008310886996], [26.055407240969444, 44.60124662676621]]]}}, {"type": "Feature", "properties": {"nr": 183, "suprafata_mp": 533, "front_m": 16.7, "adancime_m": 32}, "geometry": {"type": "Polygon", "coordinates": [[[26.053413530402363, 44.59985569487065], [26.05358785533622, 44.59993941676241], [26.053813616030695, 44.5997011008832], [26.053639291096836, 44.59961737899143], [26.053413530402363, 44.59985569487065]]]}}, {"type": "Feature", "properties": {"nr": 184, "suprafata_mp": 541, "front_m": 16.9, "adancime_m": 32}, "geometry": {"type": "Polygon", "coordinates": [[[26.05358785533622, 44.59993941676241], [26.053764733602193, 44.600024364926234], [26.053990494296666, 44.59978604904702], [26.053813616030695, 44.5997011008832], [26.05358785533622, 44.59993941676241]]]}}, {"type": "Feature", "properties": {"nr": 185, "suprafata_mp": 567, "front_m": 17.7, "adancime_m": 32}, "geometry": {"type": "Polygon", "coordinates": [[[26.053764733602193, 44.600024364926234], [26.053950155370142, 44.600113416221674], [26.054175916064615, 44.59987510034246], [26.053990494296666, 44.59978604904702], [26.053764733602193, 44.600024364926234]]]}}, {"type": "Feature", "properties": {"nr": 186, "suprafata_mp": 532, "front_m": 16.6, "adancime_m": 32}, "geometry": {"type": "Polygon", "coordinates": [[[26.053950155370142, 44.600113416221674], [26.054124026882352, 44.6001969203516], [26.054349787576825, 44.599958604472384], [26.054175916064615, 44.59987510034246], [26.053950155370142, 44.600113416221674]]]}}, {"type": "Feature", "properties": {"nr": 187, "suprafata_mp": 566, "front_m": 17.7, "adancime_m": 32}, "geometry": {"type": "Polygon", "coordinates": [[[26.054124026882352, 44.6001969203516], [26.054308925690417, 44.60028572048853], [26.05453468638489, 44.60004740460931], [26.054349787576825, 44.599958604472384], [26.054124026882352, 44.6001969203516]]]}}, {"type": "Feature", "properties": {"nr": 188, "suprafata_mp": 554, "front_m": 17.3, "adancime_m": 32}, "geometry": {"type": "Polygon", "coordinates": [[[26.054308925690417, 44.60028572048853], [26.054489946012186, 44.60037265793029], [26.05471570670666, 44.600134342051085], [26.05453468638489, 44.60004740460931], [26.054308925690417, 44.60028572048853]]]}}, {"type": "Feature", "properties": {"nr": 189, "suprafata_mp": 563, "front_m": 17.6, "adancime_m": 32}, "geometry": {"type": "Polygon", "coordinates": [[[26.054489946012186, 44.60037265793029], [26.05467404301935, 44.60046107299157], [26.054899803713823, 44.600222757112356], [26.05471570670666, 44.600134342051085], [26.054489946012186, 44.60037265793029]]]}}, {"type": "Feature", "properties": {"nr": 190, "suprafata_mp": 539, "front_m": 16.8, "adancime_m": 32}, "geometry": {"type": "Polygon", "coordinates": [[[26.05467404301935, 44.60046107299157], [26.054850134250213, 44.6005456431712], [26.055075894944686, 44.60030732729199], [26.054899803713823, 44.600222757112356], [26.05467404301935, 44.60046107299157]]]}}, {"type": "Feature", "properties": {"nr": 191, "suprafata_mp": 517, "front_m": 16.2, "adancime_m": 32}, "geometry": {"type": "Polygon", "coordinates": [[[26.054850134250213, 44.6005456431712], [26.055019113436348, 44.600626797695796], [26.05524487413082, 44.60038848181659], [26.055075894944686, 44.60030732729199], [26.054850134250213, 44.6005456431712]]]}}, {"type": "Feature", "properties": {"nr": 192, "suprafata_mp": 560, "front_m": 17.5, "adancime_m": 32}, "geometry": {"type": "Polygon", "coordinates": [[[26.055019113436348, 44.600626797695796], [26.0552020275427, 44.60071464465306], [26.05542778823717, 44.60047632877385], [26.05524487413082, 44.60038848181659], [26.055019113436348, 44.600626797695796]]]}}, {"type": "Feature", "properties": {"nr": 193, "suprafata_mp": 530, "front_m": 16.6, "adancime_m": 32}, "geometry": {"type": "Polygon", "coordinates": [[[26.0552020275427, 44.60071464465306], [26.055375313307447, 44.6007978674699], [26.05560107400192, 44.600559551590685], [26.05542778823717, 44.60047632877385], [26.0552020275427, 44.60071464465306]]]}}, {"type": "Feature", "properties": {"nr": 194, "suprafata_mp": 525, "front_m": 16.4, "adancime_m": 32}, "geometry": {"type": "Polygon", "coordinates": [[[26.055375313307447, 44.6007978674699], [26.055546767691208, 44.60088021074141], [26.05577252838568, 44.6006418948622], [26.05560107400192, 44.600559551590685], [26.055375313307447, 44.6007978674699]]]}}, {"type": "Feature", "properties": {"nr": 195, "suprafata_mp": 560, "front_m": 17.5, "adancime_m": 32}, "geometry": {"type": "Polygon", "coordinates": [[[26.055546767691208, 44.60088021074141], [26.055729904492875, 44.60096816465109], [26.055955665187348, 44.60072984877188], [26.05577252838568, 44.6006418948622], [26.055546767691208, 44.60088021074141]]]}}, {"type": "Feature", "properties": {"nr": 196, "suprafata_mp": 529, "front_m": 16.5, "adancime_m": 32}, "geometry": {"type": "Polygon", "coordinates": [[[26.05347016596118, 44.59953615437262], [26.053642989944642, 44.59961915541279], [26.053868750639115, 44.59938083953358], [26.053695926655653, 44.59929783849341], [26.05347016596118, 44.59953615437262]]]}}, {"type": "Feature", "properties": {"nr": 197, "suprafata_mp": 532, "front_m": 16.6, "adancime_m": 32}, "geometry": {"type": "Polygon", "coordinates": [[[26.053642989944642, 44.59961915541279], [26.05381673144698, 44.59970259710373], [26.054042492141452, 44.59946428122452], [26.053868750639115, 44.59938083953358], [26.053642989944642, 44.59961915541279]]]}}, {"type": "Feature", "properties": {"nr": 198, "suprafata_mp": 526, "front_m": 16.4, "adancime_m": 32}, "geometry": {"type": "Polygon", "coordinates": [[[26.05381673144698, 44.59970259710373], [26.053988727958558, 44.59978520073941], [26.05421448865303, 44.5995468848602], [26.054042492141452, 44.59946428122452], [26.05381673144698, 44.59970259710373]]]}}, {"type": "Feature", "properties": {"nr": 199, "suprafata_mp": 520, "front_m": 16.3, "adancime_m": 32}, "geometry": {"type": "Polygon", "coordinates": [[[26.053988727958558, 44.59978520073941], [26.054158770261363, 44.59986686584007], [26.054384530955836, 44.59962854996086], [26.05421448865303, 44.5995468848602], [26.053988727958558, 44.59978520073941]]]}}, {"type": "Feature", "properties": {"nr": 200, "suprafata_mp": 542, "front_m": 16.9, "adancime_m": 32}, "geometry": {"type": "Polygon", "coordinates": [[[26.054158770261363, 44.59986686584007], [26.054335973450083, 44.59995197005241], [26.054561734144556, 44.5997136541732], [26.054384530955836, 44.59962854996086], [26.054158770261363, 44.59986686584007]]]}}, {"type": "Feature", "properties": {"nr": 201, "suprafata_mp": 528, "front_m": 16.5, "adancime_m": 32}, "geometry": {"type": "Polygon", "coordinates": [[[26.054335973450083, 44.59995197005241], [26.05450870658168, 44.600034927459745], [26.054734467276152, 44.59979661158054], [26.054561734144556, 44.5997136541732], [26.054335973450083, 44.59995197005241]]]}}, {"type": "Feature", "properties": {"nr": 202, "suprafata_mp": 557, "front_m": 17.4, "adancime_m": 32}, "geometry": {"type": "Polygon", "coordinates": [[[26.05450870658168, 44.600034927459745], [26.054690763692605, 44.600122362833446], [26.054916524387078, 44.59988404695423], [26.054734467276152, 44.59979661158054], [26.05450870658168, 44.600034927459745]]]}}, {"type": "Feature", "properties": {"nr": 203, "suprafata_mp": 567, "front_m": 17.7, "adancime_m": 32}, "geometry": {"type": "Polygon", "coordinates": [[[26.054690763692605, 44.600122362833446], [26.05487608821873, 44.60021136742719], [26.055101848913203, 44.59997305154798], [26.054916524387078, 44.59988404695423], [26.054690763692605, 44.600122362833446]]]}}, {"type": "Feature", "properties": {"nr": 204, "suprafata_mp": 532, "front_m": 16.6, "adancime_m": 32}, "geometry": {"type": "Polygon", "coordinates": [[[26.05487608821873, 44.60021136742719], [26.05504986312243, 44.60029482515958], [26.055275623816904, 44.60005650928037], [26.055101848913203, 44.59997305154798], [26.05487608821873, 44.60021136742719]]]}}, {"type": "Feature", "properties": {"nr": 205, "suprafata_mp": 548, "front_m": 17.1, "adancime_m": 32}, "geometry": {"type": "Polygon", "coordinates": [[[26.05504986312243, 44.60029482515958], [26.055228959276835, 44.600380838494125], [26.05545471997131, 44.60014252261491], [26.055275623816904, 44.60005650928037], [26.05504986312243, 44.60029482515958]]]}}, {"type": "Feature", "properties": {"nr": 206, "suprafata_mp": 544, "front_m": 17.0, "adancime_m": 32}, "geometry": {"type": "Polygon", "coordinates": [[[26.055228959276835, 44.600380838494125], [26.05540689036362, 44.60046629228928], [26.055632651058094, 44.600227976410075], [26.05545471997131, 44.60014252261491], [26.055228959276835, 44.600380838494125]]]}}, {"type": "Feature", "properties": {"nr": 207, "suprafata_mp": 521, "front_m": 16.3, "adancime_m": 32}, "geometry": {"type": "Polygon", "coordinates": [[[26.05540689036362, 44.60046629228928], [26.05557714680169, 44.60054806023128], [26.05580290749616, 44.60030974435207], [26.055632651058094, 44.600227976410075], [26.05540689036362, 44.60046629228928]]]}}, {"type": "Feature", "properties": {"nr": 208, "suprafata_mp": 524, "front_m": 16.4, "adancime_m": 32}, "geometry": {"type": "Polygon", "coordinates": [[[26.05557714680169, 44.60054806023128], [26.055748288133668, 44.60063025315547], [26.05597404882814, 44.60039193727626], [26.05580290749616, 44.60030974435207], [26.05557714680169, 44.60054806023128]]]}}, {"type": "Feature", "properties": {"nr": 209, "suprafata_mp": 565, "front_m": 17.7, "adancime_m": 32}, "geometry": {"type": "Polygon", "coordinates": [[[26.055748288133668, 44.60063025315547], [26.055932941451534, 44.60071893539243], [26.056158702146007, 44.60048061951322], [26.05597404882814, 44.60039193727626], [26.055748288133668, 44.60063025315547]]]}}, {"type": "Feature", "properties": {"nr": 210, "suprafata_mp": 531, "front_m": 16.6, "adancime_m": 32}, "geometry": {"type": "Polygon", "coordinates": [[[26.05376577730747, 44.59924470008595], [26.053939499962, 44.59932813272497], [26.05416526065647, 44.59908981684576], [26.05399153800194, 44.59900638420674], [26.05376577730747, 44.59924470008595]]]}}, {"type": "Feature", "properties": {"nr": 211, "suprafata_mp": 537, "front_m": 16.8, "adancime_m": 32}, "geometry": {"type": "Polygon", "coordinates": [[[26.053939499962, 44.59932813272497], [26.054115040457596, 44.599412438406596], [26.05434080115207, 44.59917412252739], [26.05416526065647, 44.59908981684576], [26.053939499962, 44.59932813272497]]]}}, {"type": "Feature", "properties": {"nr": 212, "suprafata_mp": 546, "front_m": 17.1, "adancime_m": 32}, "geometry": {"type": "Polygon", "coordinates": [[[26.054115040457596, 44.599412438406596], [26.054293593401933, 44.599498190857204], [26.054519354096406, 44.599259874977996], [26.05434080115207, 44.59917412252739], [26.054115040457596, 44.599412438406596]]]}}, {"type": "Feature", "properties": {"nr": 213, "suprafata_mp": 554, "front_m": 17.3, "adancime_m": 32}, "geometry": {"type": "Polygon", "coordinates": [[[26.054293593401933, 44.599498190857204], [26.0544747239347, 44.59958518122929], [26.054700484629176, 44.59934686535008], [26.054519354096406, 44.599259874977996], [26.054293593401933, 44.599498190857204]]]}}, {"type": "Feature", "properties": {"nr": 214, "suprafata_mp": 547, "front_m": 17.1, "adancime_m": 32}, "geometry": {"type": "Polygon", "coordinates": [[[26.0544747239347, 44.59958518122929], [26.05465358763491, 44.59967108292458], [26.054879348329383, 44.599432767045364], [26.054700484629176, 44.59934686535008], [26.0544747239347, 44.59958518122929]]]}}, {"type": "Feature", "properties": {"nr": 215, "suprafata_mp": 523, "front_m": 16.3, "adancime_m": 32}, "geometry": {"type": "Polygon", "coordinates": [[[26.05465358763491, 44.59967108292458], [26.05482441158497, 44.599753123421834], [26.055050172279444, 44.599514807542626], [26.054879348329383, 44.599432767045364], [26.05465358763491, 44.59967108292458]]]}}, {"type": "Feature", "properties": {"nr": 216, "suprafata_mp": 561, "front_m": 17.5, "adancime_m": 32}, "geometry": {"type": "Polygon", "coordinates": [[[26.05482441158497, 44.599753123421834], [26.055007875467243, 44.599841234416374], [26.055233636161717, 44.59960291853716], [26.055050172279444, 44.599514807542626], [26.05482441158497, 44.599753123421834]]]}}, {"type": "Feature", "properties": {"nr": 217, "suprafata_mp": 567, "front_m": 17.7, "adancime_m": 32}, "geometry": {"type": "Polygon", "coordinates": [[[26.055007875467243, 44.599841234416374], [26.055193223676994, 44.599930250384496], [26.055418984371467, 44.59969193450529], [26.055233636161717, 44.59960291853716], [26.055007875467243, 44.599841234416374]]]}}, {"type": "Feature", "properties": {"nr": 218, "suprafata_mp": 522, "front_m": 16.3, "adancime_m": 32}, "geometry": {"type": "Polygon", "coordinates": [[[26.055193223676994, 44.599930250384496], [26.055363945702084, 44.60001224193092], [26.055589706396557, 44.599773926051704], [26.055418984371467, 44.59969193450529], [26.055193223676994, 44.599930250384496]]]}}, {"type": "Feature", "properties": {"nr": 219, "suprafata_mp": 530, "front_m": 16.6, "adancime_m": 32}, "geometry": {"type": "Polygon", "coordinates": [[[26.055363945702084, 44.60001224193092], [26.055537303366883, 44.60009549927872], [26.055763064061356, 44.59985718339951], [26.055589706396557, 44.599773926051704], [26.055363945702084, 44.60001224193092]]]}}, {"type": "Feature", "properties": {"nr": 220, "suprafata_mp": 526, "front_m": 16.4, "adancime_m": 32}, "geometry": {"type": "Polygon", "coordinates": [[[26.055537303366883, 44.60009549927872], [26.05570931253998, 44.600178108995266], [26.055935073234455, 44.59993979311606], [26.055763064061356, 44.59985718339951], [26.055537303366883, 44.60009549927872]]]}}, {"type": "Feature", "properties": {"nr": 221, "suprafata_mp": 563, "front_m": 17.6, "adancime_m": 32}, "geometry": {"type": "Polygon", "coordinates": [[[26.05570931253998, 44.600178108995266], [26.05589333241696, 44.600266487013734], [26.056119093111437, 44.60002817113452], [26.055935073234455, 44.59993979311606], [26.05570931253998, 44.600178108995266]]]}}, {"type": "Feature", "properties": {"nr": 222, "suprafata_mp": 566, "front_m": 17.7, "adancime_m": 32}, "geometry": {"type": "Polygon", "coordinates": [[[26.05589333241696, 44.600266487013734], [26.05607843914109, 44.60035538700514], [26.056304199835562, 44.60011707112593], [26.056119093111437, 44.60002817113452], [26.05589333241696, 44.600266487013734]]]}}, {"type": "Feature", "properties": {"nr": 223, "suprafata_mp": 519, "front_m": 16.2, "adancime_m": 32}, "geometry": {"type": "Polygon", "coordinates": [[[26.05607843914109, 44.60035538700514], [26.056248147301236, 44.6004368916293], [26.05647390799571, 44.60019857575009], [26.056304199835562, 44.60011707112593], [26.05607843914109, 44.60035538700514]]]}}, {"type": "Feature", "properties": {"nr": 224, "suprafata_mp": 534, "front_m": 16.7, "adancime_m": 32}, "geometry": {"type": "Polygon", "coordinates": [[[26.054361921902537, 44.59918426605158], [26.05453636439841, 44.599268044404084], [26.054762125092882, 44.599029728524876], [26.05458768259701, 44.59894595017237], [26.054361921902537, 44.59918426605158]]]}}, {"type": "Feature", "properties": {"nr": 225, "suprafata_mp": 557, "front_m": 17.4, "adancime_m": 32}, "geometry": {"type": "Polygon", "coordinates": [[[26.05453636439841, 44.599268044404084], [26.054718371600174, 44.59935545580824], [26.054944132294647, 44.59911713992902], [26.054762125092882, 44.599029728524876], [26.05453636439841, 44.599268044404084]]]}}, {"type": "Feature", "properties": {"nr": 226, "suprafata_mp": 531, "front_m": 16.6, "adancime_m": 32}, "geometry": {"type": "Polygon", "coordinates": [[[26.054718371600174, 44.59935545580824], [26.054891793233026, 44.599438743877556], [26.0551175539275, 44.59920042799835], [26.054944132294647, 44.59911713992902], [26.054718371600174, 44.59935545580824]]]}}, {"type": "Feature", "properties": {"nr": 227, "suprafata_mp": 524, "front_m": 16.4, "adancime_m": 32}, "geometry": {"type": "Polygon", "coordinates": [[[26.054891793233026, 44.599438743877556], [26.05506319504086, 44.59952106189877], [26.05528895573533, 44.59928274601956], [26.0551175539275, 44.59920042799835], [26.054891793233026, 44.599438743877556]]]}}, {"type": "Feature", "properties": {"nr": 228, "suprafata_mp": 541, "front_m": 16.9, "adancime_m": 32}, "geometry": {"type": "Polygon", "coordinates": [[[26.05506319504086, 44.59952106189877], [26.05523990199109, 44.59960592778591], [26.055465662685563, 44.59936761190669], [26.05528895573533, 44.59928274601956], [26.05506319504086, 44.59952106189877]]]}}, {"type": "Feature", "properties": {"nr": 229, "suprafata_mp": 550, "front_m": 17.2, "adancime_m": 32}, "geometry": {"type": "Polygon", "coordinates": [[[26.05523990199109, 44.59960592778591], [26.05541953556542, 44.59969219922359], [26.055645296259893, 44.599453883344374], [26.055465662685563, 44.59936761190669], [26.05523990199109, 44.59960592778591]]]}}, {"type": "Feature", "properties": {"nr": 230, "suprafata_mp": 568, "front_m": 17.7, "adancime_m": 32}, "geometry": {"type": "Polygon", "coordinates": [[[26.05541953556542, 44.59969219922359], [26.055605092369, 44.5997813153717], [26.055830853063473, 44.59954299949249], [26.055645296259893, 44.599453883344374], [26.05541953556542, 44.59969219922359]]]}}, {"type": "Feature", "properties": {"nr": 231, "suprafata_mp": 525, "front_m": 16.4, "adancime_m": 32}, "geometry": {"type": "Polygon", "coordinates": [[[26.055605092369, 44.5997813153717], [26.055776607587646, 44.59986368785999], [26.05600236828212, 44.59962537198077], [26.055830853063473, 44.59954299949249], [26.055605092369, 44.5997813153717]]]}}, {"type": "Feature", "properties": {"nr": 232, "suprafata_mp": 529, "front_m": 16.5, "adancime_m": 32}, "geometry": {"type": "Polygon", "coordinates": [[[26.05445869876804, 44.59879731883392], [26.054631711242052, 44.598880410399204], [26.054857471936526, 44.598642094519995], [26.054684459462514, 44.5985590029547], [26.05445869876804, 44.59879731883392]]]}}, {"type": "Feature", "properties": {"nr": 233, "suprafata_mp": 530, "front_m": 16.5, "adancime_m": 32}, "geometry": {"type": "Polygon", "coordinates": [[[26.054631711242052, 44.598880410399204], [26.054804788915376, 44.59896353327734], [26.05503054960985, 44.59872521739813], [26.054857471936526, 44.598642094519995], [26.054631711242052, 44.598880410399204]]]}}, {"type": "Feature", "properties": {"nr": 234, "suprafata_mp": 532, "front_m": 16.6, "adancime_m": 32}, "geometry": {"type": "Polygon", "coordinates": [[[26.054804788915376, 44.59896353327734], [26.05497865137227, 44.59904703305833], [26.055204412066743, 44.59880871717912], [26.05503054960985, 44.59872521739813], [26.054804788915376, 44.59896353327734]]]}}, {"type": "Feature", "properties": {"nr": 235, "suprafata_mp": 533, "front_m": 16.7, "adancime_m": 32}, "geometry": {"type": "Polygon", "coordinates": [[[26.05497865137227, 44.59904703305833], [26.055152976429923, 44.599130755009554], [26.055378737124396, 44.59889243913034], [26.055204412066743, 44.59880871717912], [26.05497865137227, 44.59904703305833]]]}}, {"type": "Feature", "properties": {"nr": 236, "suprafata_mp": 558, "front_m": 17.4, "adancime_m": 32}, "geometry": {"type": "Polygon", "coordinates": [[[26.055152976429923, 44.599130755009554], [26.055335423310886, 44.59921837757554], [26.05556118400536, 44.59898006169633], [26.055378737124396, 44.59889243913034], [26.055152976429923, 44.599130755009554]]]}}, {"type": "Feature", "properties": {"nr": 237, "suprafata_mp": 537, "front_m": 16.8, "adancime_m": 32}, "geometry": {"type": "Polygon", "coordinates": [[[26.055335423310886, 44.59921837757554], [26.05551099761157, 44.59930269949251], [26.055736758306043, 44.5990643836133], [26.05556118400536, 44.59898006169633], [26.055335423310886, 44.59921837757554]]]}}, {"type": "Feature", "properties": {"nr": 238, "suprafata_mp": 534, "front_m": 16.7, "adancime_m": 32}, "geometry": {"type": "Polygon", "coordinates": [[[26.05551099761157, 44.59930269949251], [26.05568566520301, 44.599386585950185], [26.055911425897484, 44.59914827007098], [26.055736758306043, 44.5990643836133], [26.05551099761157, 44.59930269949251]]]}}, {"type": "Feature", "properties": {"nr": 239, "suprafata_mp": 551, "front_m": 17.2, "adancime_m": 32}, "geometry": {"type": "Polygon", "coordinates": [[[26.05568566520301, 44.599386585950185], [26.05586590029836, 44.599473146276424], [26.056091660992834, 44.59923483039721], [26.055911425897484, 44.59914827007098], [26.05568566520301, 44.599386585950185]]]}}, {"type": "Feature", "properties": {"nr": 240, "suprafata_mp": 527, "front_m": 16.5, "adancime_m": 32}, "geometry": {"type": "Polygon", "coordinates": [[[26.05586590029836, 44.599473146276424], [26.056038138658266, 44.59955586606301], [26.05626389935274, 44.5993175501838], [26.056091660992834, 44.59923483039721], [26.05586590029836, 44.599473146276424]]]}}, {"type": "Feature", "properties": {"nr": 241, "suprafata_mp": 551, "front_m": 17.2, "adancime_m": 32}, "geometry": {"type": "Polygon", "coordinates": [[[26.05468561045429, 44.59855955573397], [26.054865838858245, 44.59864611284657], [26.055091599552718, 44.59840779696736], [26.054911371148762, 44.598321239854755], [26.05468561045429, 44.59855955573397]]]}}, {"type": "Feature", "properties": {"nr": 242, "suprafata_mp": 522, "front_m": 16.3, "adancime_m": 32}, "geometry": {"type": "Polygon", "coordinates": [[[26.054865838858245, 44.59864611284657], [26.055036417032568, 44.59872803530673], [26.05526217772704, 44.59848971942752], [26.055091599552718, 44.59840779696736], [26.054865838858245, 44.59864611284657]]]}}, {"type": "Feature", "properties": {"nr": 243, "suprafata_mp": 534, "front_m": 16.7, "adancime_m": 32}, "geometry": {"type": "Polygon", "coordinates": [[[26.055036417032568, 44.59872803530673], [26.05521099326415, 44.5988118778876], [26.055436753958624, 44.59857356200839], [26.05526217772704, 44.59848971942752], [26.055036417032568, 44.59872803530673]]]}}, {"type": "Feature", "properties": {"nr": 244, "suprafata_mp": 518, "front_m": 16.2, "adancime_m": 32}, "geometry": {"type": "Polygon", "coordinates": [[[26.05521099326415, 44.5988118778876], [26.055380410858902, 44.598893242963825], [26.055606171553375, 44.59865492708461], [26.055436753958624, 44.59857356200839], [26.05521099326415, 44.5988118778876]]]}}, {"type": "Feature", "properties": {"nr": 245, "suprafata_mp": 529, "front_m": 16.5, "adancime_m": 32}, "geometry": {"type": "Polygon", "coordinates": [[[26.055380410858902, 44.598893242963825], [26.055553229248854, 44.59897624131764], [26.055778989943327, 44.59873792543843], [26.055606171553375, 44.59865492708461], [26.055380410858902, 44.598893242963825]]]}}, {"type": "Feature", "properties": {"nr": 246, "suprafata_mp": 518, "front_m": 16.2, "adancime_m": 32}, "geometry": {"type": "Polygon", "coordinates": [[[26.055553229248854, 44.59897624131764], [26.055722602418708, 44.599057585058205], [26.05594836311318, 44.598819269178996], [26.055778989943327, 44.59873792543843], [26.055553229248854, 44.59897624131764]]]}}, {"type": "Feature", "properties": {"nr": 247, "suprafata_mp": 524, "front_m": 16.4, "adancime_m": 32}, "geometry": {"type": "Polygon", "coordinates": [[[26.055722602418708, 44.599057585058205], [26.055893766675865, 44.59913978899252], [26.05611952737034, 44.59890147311331], [26.05594836311318, 44.598819269178996], [26.055722602418708, 44.599057585058205]]]}}, {"type": "Feature", "properties": {"nr": 248, "suprafata_mp": 551, "front_m": 17.2, "adancime_m": 32}, "geometry": {"type": "Polygon", "coordinates": [[[26.055893766675865, 44.59913978899252], [26.056073946880293, 44.599226322956646], [26.056299707574766, 44.59898800707744], [26.05611952737034, 44.59890147311331], [26.055893766675865, 44.59913978899252]]]}}, {"type": "Feature", "properties": {"nr": 249, "suprafata_mp": 522, "front_m": 16.3, "adancime_m": 32}, "geometry": {"type": "Polygon", "coordinates": [[[26.056073946880293, 44.599226322956646], [26.05624465379144, 44.59930830724439], [26.05647041448591, 44.599069991365184], [26.056299707574766, 44.59898800707744], [26.056073946880293, 44.599226322956646]]]}}, {"type": "Feature", "properties": {"nr": 250, "suprafata_mp": 571, "front_m": 17.8, "adancime_m": 32}, "geometry": {"type": "Polygon", "coordinates": [[[26.054941903141014, 44.59824921813274], [26.055128434967394, 44.59833880254866], [26.055354195661867, 44.598100486669445], [26.055167663835487, 44.598010902253534], [26.054941903141014, 44.59824921813274]]]}}, {"type": "Feature", "properties": {"nr": 251, "suprafata_mp": 548, "front_m": 17.1, "adancime_m": 32}, "geometry": {"type": "Polygon", "coordinates": [[[26.055128434967394, 44.59833880254866], [26.055307654084462, 44.59842487493767], [26.05553341477894, 44.59818655905846], [26.055354195661867, 44.598100486669445], [26.055128434967394, 44.59833880254866]]]}}, {"type": "Feature", "properties": {"nr": 252, "suprafata_mp": 520, "front_m": 16.2, "adancime_m": 32}, "geometry": {"type": "Polygon", "coordinates": [[[26.055307654084462, 44.59842487493767], [26.055477543954073, 44.598506466830244], [26.055703304648546, 44.59826815095103], [26.05553341477894, 44.59818655905846], [26.055307654084462, 44.59842487493767]]]}}, {"type": "Feature", "properties": {"nr": 253, "suprafata_mp": 545, "front_m": 17.0, "adancime_m": 32}, "geometry": {"type": "Polygon", "coordinates": [[[26.055477543954073, 44.598506466830244], [26.055655555585616, 44.59859195930811], [26.05588131628009, 44.598353643428894], [26.055703304648546, 44.59826815095103], [26.055477543954073, 44.598506466830244]]]}}, {"type": "Feature", "properties": {"nr": 254, "suprafata_mp": 544, "front_m": 17.0, "adancime_m": 32}, "geometry": {"type": "Polygon", "coordinates": [[[26.055655555585616, 44.59859195930811], [26.055833440065133, 44.5986773907195], [26.056059200759606, 44.59843907484029], [26.05588131628009, 44.598353643428894], [26.055655555585616, 44.59859195930811]]]}}, {"type": "Feature", "properties": {"nr": 255, "suprafata_mp": 540, "front_m": 16.9, "adancime_m": 32}, "geometry": {"type": "Polygon", "coordinates": [[[26.055833440065133, 44.5986773907195], [26.05601010268341, 44.59876223531562], [26.056235863377886, 44.59852391943641], [26.056059200759606, 44.59843907484029], [26.055833440065133, 44.5986773907195]]]}}, {"type": "Feature", "properties": {"nr": 256, "suprafata_mp": 569, "front_m": 17.8, "adancime_m": 32}, "geometry": {"type": "Polygon", "coordinates": [[[26.05601010268341, 44.59876223531562], [26.056195938464455, 44.59885148544641], [26.05642169915893, 44.598613169567194], [26.056235863377886, 44.59852391943641], [26.05601010268341, 44.59876223531562]]]}}, {"type": "Feature", "properties": {"nr": 257, "suprafata_mp": 568, "front_m": 17.8, "adancime_m": 32}, "geometry": {"type": "Polygon", "coordinates": [[[26.056195938464455, 44.59885148544641], [26.056381729643835, 44.59894071415665], [26.05660749033831, 44.59870239827744], [26.05642169915893, 44.598613169567194], [26.056195938464455, 44.59885148544641]]]}}, {"type": "Feature", "properties": {"nr": 258, "suprafata_mp": 524, "front_m": 16.4, "adancime_m": 32}, "geometry": {"type": "Polygon", "coordinates": [[[26.056381729643835, 44.59894071415665], [26.05655287263472, 44.599022907877554], [26.056778633329195, 44.59878459199834], [26.05660749033831, 44.59870239827744], [26.056381729643835, 44.59894071415665]]]}}, {"type": "Feature", "properties": {"nr": 259, "suprafata_mp": 531, "front_m": 16.6, "adancime_m": 32}, "geometry": {"type": "Polygon", "coordinates": [[[26.054819562513828, 44.59784372191662], [26.054993077706015, 44.59792705491906], [26.05521883840049, 44.59768873903985], [26.0550453232083, 44.5976054060374], [26.054819562513828, 44.59784372191662]]]}}, {"type": "Feature", "properties": {"nr": 260, "suprafata_mp": 551, "front_m": 17.2, "adancime_m": 32}, "geometry": {"type": "Polygon", "coordinates": [[[26.054993077706015, 44.59792705491906], [26.055173078720617, 44.59801350282487], [26.05539883941509, 44.59777518694566], [26.05521883840049, 44.59768873903985], [26.054993077706015, 44.59792705491906]]]}}, {"type": "Feature", "properties": {"nr": 261, "suprafata_mp": 522, "front_m": 16.3, "adancime_m": 32}, "geometry": {"type": "Polygon", "coordinates": [[[26.055173078720617, 44.59801350282487], [26.055343734904188, 44.59809546275002], [26.05556949559866, 44.59785714687081], [26.05539883941509, 44.59777518694566], [26.055173078720617, 44.59801350282487]]]}}, {"type": "Feature", "properties": {"nr": 262, "suprafata_mp": 553, "front_m": 17.3, "adancime_m": 32}, "geometry": {"type": "Polygon", "coordinates": [[[26.055343734904188, 44.59809546275002], [26.055524558658195, 44.59818230578748], [26.055750319352672, 44.597943989908266], [26.05556949559866, 44.59785714687081], [26.055343734904188, 44.59809546275002]]]}}, {"type": "Feature", "properties": {"nr": 263, "suprafata_mp": 569, "front_m": 17.8, "adancime_m": 32}, "geometry": {"type": "Polygon", "coordinates": [[[26.055524558658195, 44.59818230578748], [26.055710589550742, 44.59827164962319], [26.055936350245215, 44.59803333374398], [26.055750319352672, 44.597943989908266], [26.055524558658195, 44.59818230578748]]]}}, {"type": "Feature", "properties": {"nr": 264, "suprafata_mp": 570, "front_m": 17.8, "adancime_m": 32}, "geometry": {"type": "Polygon", "coordinates": [[[26.055710589550742, 44.59827164962319], [26.05589694979933, 44.59836115163657], [26.056122710493803, 44.59812283575735], [26.055936350245215, 44.59803333374398], [26.055710589550742, 44.59827164962319]]]}}, {"type": "Feature", "properties": {"nr": 265, "suprafata_mp": 565, "front_m": 17.7, "adancime_m": 32}, "geometry": {"type": "Polygon", "coordinates": [[[26.05589694979933, 44.59836115163657], [26.056081682452408, 44.598449871975326], [26.05630744314688, 44.59821155609612], [26.056122710493803, 44.59812283575735], [26.05589694979933, 44.59836115163657]]]}}, {"type": "Feature", "properties": {"nr": 266, "suprafata_mp": 561, "front_m": 17.5, "adancime_m": 32}, "geometry": {"type": "Polygon", "coordinates": [[[26.056081682452408, 44.598449871975326], [26.056264945842635, 44.598537886680866], [26.056490706537108, 44.59829957080165], [26.05630744314688, 44.59821155609612], [26.056081682452408, 44.598449871975326]]]}}, {"type": "Feature", "properties": {"nr": 267, "suprafata_mp": 549, "front_m": 17.2, "adancime_m": 32}, "geometry": {"type": "Polygon", "coordinates": [[[26.055108921171968, 44.59754926469245], [26.055288376321315, 44.59763545043913], [26.055514137015788, 44.59739713455992], [26.05533468186644, 44.59731094881323], [26.055108921171968, 44.59754926469245]]]}}, {"type": "Feature", "properties": {"nr": 268, "suprafata_mp": 534, "front_m": 16.7, "adancime_m": 32}, "geometry": {"type": "Polygon", "coordinates": [[[26.055288376321315, 44.59763545043913], [26.055462957366306, 44.59771929533171], [26.05568871806078, 44.5974809794525], [26.055514137015788, 44.59739713455992], [26.055288376321315, 44.59763545043913]]]}}, {"type": "Feature", "properties": {"nr": 269, "suprafata_mp": 523, "front_m": 16.3, "adancime_m": 32}, "geometry": {"type": "Polygon", "coordinates": [[[26.055462957366306, 44.59771929533171], [26.055633810204082, 44.59780134970268], [26.055859570898555, 44.59756303382347], [26.05568871806078, 44.5974809794525], [26.055462957366306, 44.59771929533171]]]}}, {"type": "Feature", "properties": {"nr": 270, "suprafata_mp": 561, "front_m": 17.5, "adancime_m": 32}, "geometry": {"type": "Polygon", "coordinates": [[[26.055633810204082, 44.59780134970268], [26.055817150857372, 44.59788940151484], [26.056042911551845, 44.597651085635626], [26.055859570898555, 44.59756303382347], [26.055633810204082, 44.59780134970268]]]}}, {"type": "Feature", "properties": {"nr": 271, "suprafata_mp": 561, "front_m": 17.5, "adancime_m": 32}, "geometry": {"type": "Polygon", "coordinates": [[[26.055817150857372, 44.59788940151484], [26.05600037620531, 44.59797739795006], [26.056226136899785, 44.597739082070845], [26.056042911551845, 44.597651085635626], [26.055817150857372, 44.59788940151484]]]}}, {"type": "Feature", "properties": {"nr": 272, "suprafata_mp": 547, "front_m": 17.1, "adancime_m": 32}, "geometry": {"type": "Polygon", "coordinates": [[[26.05600037620531, 44.59797739795006], [26.05617929190969, 44.59806332462105], [26.056405052604163, 44.597825008741836], [26.056226136899785, 44.597739082070845], [26.05600037620531, 44.59797739795006]]]}}, {"type": "Feature", "properties": {"nr": 273, "suprafata_mp": 524, "front_m": 16.4, "adancime_m": 32}, "geometry": {"type": "Polygon", "coordinates": [[[26.05617929190969, 44.59806332462105], [26.056350662044622, 44.59814562743093], [26.056576422739095, 44.597907311551715], [26.056405052604163, 44.597825008741836], [26.05617929190969, 44.59806332462105]]]}}, {"type": "Feature", "properties": {"nr": 274, "suprafata_mp": 546, "front_m": 17.1, "adancime_m": 32}, "geometry": {"type": "Polygon", "coordinates": [[[26.056350662044622, 44.59814562743093], [26.05652921877264, 44.598231381698696], [26.05675497946711, 44.59799306581949], [26.056576422739095, 44.597907311551715], [26.056350662044622, 44.59814562743093]]]}}]}