{"type":"FeatureCollection","features":[{"type":"Feature","properties":{"tip":"drum","clasa":"residential","nume":null},"geometry":{"type":"LineString","coordinates":[[26.043264,44.606013],[26.04256,44.607732],[26.042559,44.607786],[26.042585,44.607833],[26.042797,44.608017],[26.042912,44.608058],[26.043056,44.608093],[26.043144,44.608117],[26.043426,44.608204],[26.046194,44.609166],[26.049372,44.610242],[26.050127,44.610512],[26.056176,44.612651],[26.057154,44.613054],[26.057623,44.61326],[26.058066,44.613461],[26.058512,44.613654],[26.058717,44.613734],[26.060476,44.61437],[26.061638,44.614775],[26.061867,44.614828],[26.063106,44.615056],[26.063259,44.615071],[26.065885,44.61507]]}},{"type":"Feature","properties":{"tip":"drum","clasa":"residential","nume":"Strada Malul cu Flori"},"geometry":{"type":"LineString","coordinates":[[26.043264,44.606013],[26.042278,44.605638],[26.042046,44.605551],[26.041796,44.605454],[26.041706,44.605415],[26.041618,44.605372],[26.04156,44.605331],[26.041516,44.60529],[26.041474,44.605236],[26.041439,44.605177],[26.041424,44.605134],[26.041419,44.605083],[26.041436,44.604623],[26.041431,44.604453],[26.041426,44.604335],[26.041413,44.604186],[26.041391,44.603976],[26.041365,44.603789],[26.041316,44.603517],[26.041302,44.603463],[26.041262,44.603338],[26.041159,44.603061],[26.041135,44.60298],[26.041123,44.602907],[26.041125,44.602788],[26.04115,44.602649],[26.041183,44.602519],[26.041237,44.602352],[26.041318,44.602175],[26.041526,44.601824]]}},{"type":"Feature","properties":{"tip":"drum","clasa":"residential","nume":null},"geometry":{"type":"LineString","coordinates":[[26.044659,44.603638],[26.044023,44.604335],[26.043989,44.604385],[26.043967,44.604421],[26.043948,44.604458],[26.043922,44.60451],[26.043811,44.604734],[26.043617,44.605177],[26.043563,44.605301],[26.043264,44.606013]]}},{"type":"Feature","properties":{"tip":"drum","clasa":"unclassified","nume":"Strada Măceșului"},"geometry":{"type":"LineString","coordinates":[[26.036476,44.602906],[26.035881,44.603688],[26.035121,44.604662],[26.035121,44.604754],[26.035157,44.604801],[26.035248,44.604846],[26.037751,44.605534]]}},{"type":"Feature","properties":{"tip":"drum","clasa":"residential","nume":null},"geometry":{"type":"LineString","coordinates":[[26.041419,44.605083],[26.041343,44.605119],[26.041314,44.605147],[26.041287,44.605184],[26.041235,44.605389],[26.041214,44.605464],[26.041191,44.60553],[26.041129,44.605664],[26.041018,44.605842],[26.040791,44.606392],[26.04046,44.607196],[26.040331,44.607532],[26.040336,44.607582]]}},{"type":"Feature","properties":{"tip":"drum","clasa":"track","nume":null},"geometry":{"type":"LineString","coordinates":[[26.04569,44.605283],[26.046902,44.604068]]}},{"type":"Feature","properties":{"tip":"apa","clasa":"apa"},"geometry":{"type":"Polygon","coordinates":[[[26.062309,44.609031],[26.062266,44.609124],[26.061958,44.609419],[26.061332,44.609694],[26.060353,44.60923],[26.058946,44.6089],[26.058053,44.608888],[26.057547,44.608772],[26.056851,44.608491],[26.054053,44.606346],[26.052852,44.604948],[26.052626,44.60474],[26.052337,44.604519],[26.051444,44.604207],[26.050464,44.604027],[26.050401,44.603989],[26.050397,44.603934],[26.0508,44.603162],[26.051755,44.60329],[26.052202,44.603397],[26.052622,44.603534],[26.0532,44.603791],[26.053392,44.603883],[26.053882,44.604555],[26.054391,44.605173],[26.055667,44.606309],[26.056182,44.606853],[26.057375,44.607446],[26.058611,44.60791],[26.059572,44.60813],[26.062003,44.608824],[26.062183,44.608927],[26.062309,44.609031]]]}},{"type":"Feature","properties":{"tip":"drum","clasa":"track","nume":null},"geometry":{"type":"LineString","coordinates":[[26.049372,44.610242],[26.049537,44.610016],[26.049833,44.609596],[26.050015,44.609324],[26.050215,44.609031],[26.050346,44.60884],[26.05039,44.608752],[26.050451,44.608682],[26.05048,44.608665],[26.05053,44.608661],[26.050555,44.608665],[26.050606,44.608678],[26.050631,44.608679],[26.05066,44.608674],[26.050677,44.608669],[26.050702,44.608654],[26.05073,44.608621],[26.052571,44.605939]]}},{"type":"Feature","properties":{"tip":"drum","clasa":"path","nume":null},"geometry":{"type":"LineString","coordinates":[[26.050127,44.610512],[26.050041,44.610641],[26.049026,44.612205],[26.048611,44.612456],[26.048758,44.612669],[26.048721,44.612907],[26.048985,44.6136],[26.049,44.613848],[26.048767,44.614103],[26.048453,44.614242],[26.047991,44.61436]]}},{"type":"Feature","properties":{"tip":"apa","clasa":"path"},"geometry":{"type":"LineString","coordinates":[[26.047674,44.614455],[26.047973,44.614395],[26.048168,44.614356],[26.048479,44.614279],[26.048725,44.61418],[26.048972,44.61405],[26.049101,44.613875],[26.049122,44.613676],[26.049004,44.613325],[26.048865,44.612981],[26.048833,44.612851],[26.048865,44.612714],[26.048962,44.612637],[26.049197,44.612622],[26.050818,44.612867],[26.051697,44.612889]]}},{"type":"Feature","properties":{"tip":"drum","clasa":"track","nume":null},"geometry":{"type":"LineString","coordinates":[[26.050077,44.614959],[26.055302,44.616448],[26.057351,44.617029],[26.058258,44.617292],[26.058591,44.617411],[26.058427,44.617804],[26.058317,44.618003],[26.058237,44.618188],[26.058221,44.61844],[26.058283,44.61861],[26.058522,44.618824],[26.058645,44.618902],[26.05883,44.618999],[26.059334,44.619083],[26.059892,44.619148],[26.06023,44.619158]]}},{"type":"Feature","properties":{"tip":"drum","clasa":"path","nume":null},"geometry":{"type":"LineString","coordinates":[[26.050077,44.614959],[26.04805,44.614478],[26.048003,44.614455],[26.047982,44.614421],[26.047974,44.614405],[26.047973,44.614395],[26.047973,44.614387],[26.047991,44.61436]]}},{"type":"Feature","properties":{"tip":"drum","clasa":"track","nume":null},"geometry":{"type":"LineString","coordinates":[[26.050077,44.614959],[26.049043,44.616506],[26.047975,44.617994],[26.047223,44.619045],[26.045094,44.621904],[26.044023,44.623286],[26.04178,44.626287],[26.040957,44.627368],[26.040904,44.627437],[26.040261,44.628289],[26.039939,44.628682],[26.039688,44.629048],[26.039376,44.629419],[26.037298,44.632103],[26.036252,44.633621]]}},{"type":"Feature","properties":{"tip":"drum","clasa":"residential","nume":null},"geometry":{"type":"LineString","coordinates":[[26.045012,44.604933],[26.043967,44.604421]]}},{"type":"Feature","properties":{"tip":"drum","clasa":"residential","nume":null},"geometry":{"type":"LineString","coordinates":[[26.041685,44.60653],[26.042046,44.605551]]}},{"type":"Feature","properties":{"tip":"drum","clasa":"unclassified","nume":"Strada Trei Lacuri"},"geometry":{"type":"LineString","coordinates":[[26.050209,44.604014],[26.050289,44.604073],[26.050512,44.604131],[26.051804,44.604452],[26.052026,44.604558],[26.052183,44.604641],[26.052557,44.604969],[26.052834,44.605319],[26.053131,44.605665],[26.053704,44.606331],[26.055627,44.607838],[26.056031,44.608183],[26.056362,44.608419],[26.056791,44.608656],[26.057426,44.608916],[26.05778,44.609031],[26.058111,44.609168],[26.0583,44.609245],[26.058744,44.609351],[26.058846,44.609351],[26.058943,44.609336],[26.059184,44.609283],[26.059366,44.609252],[26.0595,44.609241],[26.059614,44.609252],[26.059715,44.609275],[26.059919,44.609359],[26.060156,44.609478],[26.060376,44.609608],[26.060466,44.609691],[26.060542,44.609787],[26.060623,44.609886],[26.060682,44.60994],[26.060751,44.609993],[26.060864,44.610039]]}},{"type":"Feature","properties":{"tip":"drum","clasa":"residential","nume":null},"geometry":{"type":"LineString","coordinates":[[26.044407,44.605682],[26.043563,44.605301]]}},{"type":"Feature","properties":{"tip":"drum","clasa":"residential","nume":null},"geometry":{"type":"LineString","coordinates":[[26.041235,44.605389],[26.037876,44.604982]]}},{"type":"Feature","properties":{"tip":"drum","clasa":"track","nume":null},"geometry":{"type":"LineString","coordinates":[[26.052571,44.605939],[26.052594,44.605917],[26.05262,44.605899],[26.052638,44.605896],[26.052656,44.605893],[26.052698,44.60589],[26.052727,44.605896],[26.052774,44.605906],[26.052809,44.605909],[26.052846,44.60591],[26.052883,44.605903],[26.052913,44.605894],[26.052939,44.605881],[26.053003,44.605793],[26.053069,44.605713],[26.053131,44.605665]]}},{"type":"Feature","properties":{"tip":"cladire","clasa":"cladire"},"geometry":{"type":"Polygon","coordinates":[[[26.050946,44.607797],[26.051135,44.607865],[26.051228,44.607734],[26.051039,44.607666],[26.050946,44.607797]]]}},{"type":"Feature","properties":{"tip":"cladire","clasa":"cladire"},"geometry":{"type":"Polygon","coordinates":[[[26.052082,44.606799],[26.052255,44.606861],[26.052339,44.606741],[26.052195,44.60669],[26.052149,44.606756],[26.052129,44.606749],[26.052112,44.606774],[26.052103,44.60677],[26.052082,44.606799]]]}},{"type":"Feature","properties":{"tip":"cladire","clasa":"cladire"},"geometry":{"type":"Polygon","coordinates":[[[26.051609,44.606426],[26.051725,44.606467],[26.051776,44.606392],[26.05166,44.606352],[26.051609,44.606426]]]}},{"type":"Feature","properties":{"tip":"cladire","clasa":"cladire"},"geometry":{"type":"Polygon","coordinates":[[[26.051308,44.606784],[26.051451,44.606837],[26.051485,44.606791],[26.051409,44.606763],[26.051449,44.606709],[26.051382,44.606684],[26.051308,44.606784]]]}},{"type":"Feature","properties":{"tip":"cladire","clasa":"cladire"},"geometry":{"type":"Polygon","coordinates":[[[26.050269,44.60841],[26.050428,44.608468],[26.050466,44.608414],[26.050442,44.608405],[26.050498,44.608327],[26.050447,44.608309],[26.050388,44.608391],[26.050304,44.608361],[26.050269,44.60841]]]}},{"type":"Feature","properties":{"tip":"drum","clasa":"track","nume":null},"geometry":{"type":"LineString","coordinates":[[26.052638,44.605896],[26.052587,44.605817],[26.05249,44.605725],[26.052469,44.605694],[26.052463,44.605667],[26.052467,44.605621],[26.052553,44.605096],[26.052556,44.605052],[26.052557,44.604969]]}},{"type":"Feature","properties":{"tip":"drum","clasa":"unclassified","nume":null},"geometry":{"type":"LineString","coordinates":[[26.02552,44.609173],[26.028746,44.609523],[26.032952,44.609932],[26.03756,44.610272],[26.041487,44.6106],[26.041528,44.610594],[26.041562,44.610562],[26.042452,44.608183],[26.042533,44.608061],[26.042656,44.608019],[26.042797,44.608017]]}},{"type":"Feature","properties":{"tip":"cladire","clasa":"cladire"},"geometry":{"type":"Polygon","coordinates":[[[26.044547,44.604492],[26.044681,44.604549],[26.044789,44.604423],[26.044655,44.604365],[26.044547,44.604492]]]}},{"type":"Feature","properties":{"tip":"cladire","clasa":"cladire"},"geometry":{"type":"Polygon","coordinates":[[[26.044284,44.604442],[26.044409,44.604502],[26.044532,44.604372],[26.044408,44.604312],[26.044284,44.604442]]]}},{"type":"Feature","properties":{"tip":"cladire","clasa":"cladire"},"geometry":{"type":"Polygon","coordinates":[[[26.040763,44.605068],[26.040934,44.605087],[26.040946,44.605035],[26.040774,44.605016],[26.040763,44.605068]]]}},{"type":"Feature","properties":{"tip":"cladire","clasa":"cladire"},"geometry":{"type":"Polygon","coordinates":[[[26.040993,44.604875],[26.041186,44.6049],[26.041201,44.604844],[26.041008,44.604819],[26.040993,44.604875]]]}},{"type":"Feature","properties":{"tip":"cladire","clasa":"cladire"},"geometry":{"type":"Polygon","coordinates":[[[26.041283,44.606078],[26.041364,44.606087],[26.041376,44.606029],[26.041295,44.60602],[26.041283,44.606078]]]}},{"type":"Feature","properties":{"tip":"cladire","clasa":"cladire"},"geometry":{"type":"Polygon","coordinates":[[[26.041114,44.606061],[26.041283,44.606078],[26.041295,44.60602],[26.041302,44.605982],[26.041133,44.605965],[26.041114,44.606061]]]}},{"type":"Feature","properties":{"tip":"cladire","clasa":"cladire"},"geometry":{"type":"Polygon","coordinates":[[[26.04161,44.605691],[26.041736,44.605706],[26.041766,44.605586],[26.04164,44.60557],[26.04161,44.605691]]]}},{"type":"Feature","properties":{"tip":"cladire","clasa":"cladire"},"geometry":{"type":"Polygon","coordinates":[[[26.041162,44.605861],[26.041318,44.605882],[26.041334,44.605821],[26.041179,44.6058],[26.041162,44.605861]]]}},{"type":"Feature","properties":{"tip":"cladire","clasa":"cladire"},"geometry":{"type":"Polygon","coordinates":[[[26.040658,44.605786],[26.04083,44.605807],[26.04085,44.605722],[26.040679,44.605701],[26.040658,44.605786]]]}},{"type":"Feature","properties":{"tip":"drum","clasa":"residential","nume":null},"geometry":{"type":"LineString","coordinates":[[26.039368,44.606197],[26.040791,44.606392]]}},{"type":"Feature","properties":{"tip":"cladire","clasa":"cladire"},"geometry":{"type":"Polygon","coordinates":[[[26.045785,44.604459],[26.045855,44.604495],[26.045949,44.604402],[26.045879,44.604366],[26.045785,44.604459]]]}},{"type":"Feature","properties":{"tip":"cladire","clasa":"cladire"},"geometry":{"type":"Polygon","coordinates":[[[26.045592,44.604249],[26.045708,44.604307],[26.045852,44.604161],[26.045737,44.604103],[26.045592,44.604249]]]}},{"type":"Feature","properties":{"tip":"drum","clasa":"residential","nume":null},"geometry":{"type":"LineString","coordinates":[[26.041594,44.606153],[26.041119,44.607295],[26.041007,44.607583],[26.040966,44.607715],[26.040965,44.607775]]}},{"type":"Feature","properties":{"tip":"cladire","clasa":"cladire"},"geometry":{"type":"Polygon","coordinates":[[[26.043051,44.606762],[26.043195,44.606833],[26.043257,44.606769],[26.043112,44.606698],[26.043051,44.606762]]]}},{"type":"Feature","properties":{"tip":"cladire","clasa":"cladire"},"geometry":{"type":"Polygon","coordinates":[[[26.043128,44.606649],[26.043241,44.606705],[26.043308,44.606635],[26.043196,44.60658],[26.043128,44.606649]]]}},{"type":"Feature","properties":{"tip":"cladire","clasa":"cladire"},"geometry":{"type":"Polygon","coordinates":[[[26.042595,44.606997],[26.04272,44.607018],[26.042771,44.606867],[26.042646,44.606846],[26.042595,44.606997]]]}},{"type":"Feature","properties":{"tip":"cladire","clasa":"cladire"},"geometry":{"type":"Polygon","coordinates":[[[26.04268,44.606781],[26.042792,44.606803],[26.042838,44.606682],[26.042726,44.606661],[26.04268,44.606781]]]}},{"type":"Feature","properties":{"tip":"cladire","clasa":"cladire"},"geometry":{"type":"Polygon","coordinates":[[[26.042887,44.606181],[26.043048,44.606218],[26.04308,44.606146],[26.042919,44.60611],[26.042887,44.606181]]]}},{"type":"Feature","properties":{"tip":"cladire","clasa":"cladire"},"geometry":{"type":"Polygon","coordinates":[[[26.041573,44.606418],[26.041654,44.606432],[26.041686,44.606339],[26.041605,44.606325],[26.041573,44.606418]]]}},{"type":"Feature","properties":{"tip":"cladire","clasa":"cladire"},"geometry":{"type":"Polygon","coordinates":[[[26.04146,44.606714],[26.041558,44.606732],[26.041599,44.606619],[26.0415,44.606602],[26.04146,44.606714]]]}},{"type":"Feature","properties":{"tip":"cladire","clasa":"cladire"},"geometry":{"type":"Polygon","coordinates":[[[26.04175,44.6065],[26.0419,44.606528],[26.041954,44.606381],[26.041803,44.606353],[26.04175,44.6065]]]}},{"type":"Feature","properties":{"tip":"cladire","clasa":"cladire"},"geometry":{"type":"Polygon","coordinates":[[[26.04098,44.606265],[26.041118,44.606285],[26.041158,44.606144],[26.04102,44.606124],[26.04098,44.606265]]]}},{"type":"Feature","properties":{"tip":"cladire","clasa":"cladire"},"geometry":{"type":"Polygon","coordinates":[[[26.040545,44.605899],[26.040854,44.605933],[26.04087,44.605861],[26.040561,44.605827],[26.040545,44.605899]]]}},{"type":"Feature","properties":{"tip":"cladire","clasa":"cladire"},"geometry":{"type":"Polygon","coordinates":[[[26.040698,44.60698],[26.040921,44.607005],[26.04094,44.606919],[26.040717,44.606894],[26.040698,44.60698]]]}},{"type":"Feature","properties":{"tip":"cladire","clasa":"cladire"},"geometry":{"type":"Polygon","coordinates":[[[26.040781,44.606819],[26.040942,44.60684],[26.040971,44.606726],[26.040811,44.606705],[26.040781,44.606819]]]}},{"type":"Feature","properties":{"tip":"cladire","clasa":"cladire"},"geometry":{"type":"Polygon","coordinates":[[[26.040519,44.606573],[26.040637,44.606598],[26.040665,44.606528],[26.040547,44.606503],[26.040519,44.606573]]]}},{"type":"Feature","properties":{"tip":"cladire","clasa":"cladire"},"geometry":{"type":"Polygon","coordinates":[[[26.040414,44.606737],[26.040561,44.606762],[26.040584,44.606694],[26.040436,44.606669],[26.040414,44.606737]]]}},{"type":"Feature","properties":{"tip":"cladire","clasa":"cladire"},"geometry":{"type":"Polygon","coordinates":[[[26.040189,44.607054],[26.040309,44.607077],[26.040338,44.607002],[26.040217,44.606979],[26.040189,44.607054]]]}},{"type":"Feature","properties":{"tip":"cladire","clasa":"cladire"},"geometry":{"type":"Polygon","coordinates":[[[26.039349,44.606907],[26.039494,44.606934],[26.039524,44.606852],[26.039379,44.606825],[26.039349,44.606907]]]}},{"type":"Feature","properties":{"tip":"cladire","clasa":"cladire"},"geometry":{"type":"Polygon","coordinates":[[[26.0413,44.605416],[26.041441,44.605436],[26.041472,44.605325],[26.041331,44.605305],[26.0413,44.605416]]]}},{"type":"Feature","properties":{"tip":"cladire","clasa":"cladire"},"geometry":{"type":"Polygon","coordinates":[[[26.042132,44.604918],[26.042278,44.605008],[26.042361,44.604939],[26.042215,44.60485],[26.042132,44.604918]]]}},{"type":"Feature","properties":{"tip":"cladire","clasa":"cladire"},"geometry":{"type":"Polygon","coordinates":[[[26.04242,44.606012],[26.042579,44.606036],[26.042623,44.605888],[26.042465,44.605863],[26.04242,44.606012]]]}},{"type":"Feature","properties":{"tip":"cladire","clasa":"cladire"},"geometry":{"type":"Polygon","coordinates":[[[26.041943,44.605993],[26.042093,44.60602],[26.042168,44.605802],[26.042018,44.605776],[26.041943,44.605993]]]}},{"type":"Feature","properties":{"tip":"drum","clasa":"residential","nume":null},"geometry":{"type":"LineString","coordinates":[[26.039922,44.604147],[26.041321,44.604323],[26.041426,44.604335]]}},{"type":"Feature","properties":{"tip":"cladire","clasa":"cladire"},"geometry":{"type":"Polygon","coordinates":[[[26.041586,44.604486],[26.041682,44.60454],[26.041763,44.604469],[26.041667,44.604414],[26.041586,44.604486]]]}},{"type":"Feature","properties":{"tip":"cladire","clasa":"cladire"},"geometry":{"type":"Polygon","coordinates":[[[26.040911,44.604405],[26.041075,44.604425],[26.04109,44.604358],[26.040927,44.604339],[26.040911,44.604405]]]}},{"type":"Feature","properties":{"tip":"cladire","clasa":"cladire"},"geometry":{"type":"Polygon","coordinates":[[[26.041625,44.60435],[26.041755,44.604418],[26.04182,44.604354],[26.04169,44.604287],[26.041625,44.60435]]]}},{"type":"Feature","properties":{"tip":"cladire","clasa":"cladire"},"geometry":{"type":"Polygon","coordinates":[[[26.041748,44.604272],[26.041838,44.604319],[26.041889,44.604269],[26.0418,44.604222],[26.041748,44.604272]]]}},{"type":"Feature","properties":{"tip":"cladire","clasa":"cladire"},"geometry":{"type":"Polygon","coordinates":[[[26.041587,44.60419],[26.041709,44.604255],[26.04177,44.604197],[26.041648,44.604132],[26.041587,44.60419]]]}},{"type":"Feature","properties":{"tip":"cladire","clasa":"cladire"},"geometry":{"type":"Polygon","coordinates":[[[26.044424,44.604873],[26.04454,44.604923],[26.04464,44.604805],[26.044523,44.604755],[26.044424,44.604873]]]}},{"type":"Feature","properties":{"tip":"cladire","clasa":"cladire"},"geometry":{"type":"Polygon","coordinates":[[[26.043812,44.60563],[26.043973,44.605698],[26.044053,44.605603],[26.043892,44.605535],[26.043812,44.60563]]]}},{"type":"Feature","properties":{"tip":"cladire","clasa":"cladire"},"geometry":{"type":"Polygon","coordinates":[[[26.042691,44.605607],[26.042879,44.605689],[26.042947,44.60561],[26.042759,44.605528],[26.042691,44.605607]]]}},{"type":"Feature","properties":{"tip":"cladire","clasa":"cladire"},"geometry":{"type":"Polygon","coordinates":[[[26.04241,44.605513],[26.042534,44.605566],[26.042617,44.605467],[26.042493,44.605414],[26.04241,44.605513]]]}},{"type":"Feature","properties":{"tip":"cladire","clasa":"cladire"},"geometry":{"type":"Polygon","coordinates":[[[26.04183,44.605229],[26.041964,44.605303],[26.042039,44.605235],[26.041905,44.60516],[26.04183,44.605229]]]}},{"type":"Feature","properties":{"tip":"drum","clasa":"unclassified","nume":null},"geometry":{"type":"LineString","coordinates":[[26.042585,44.607833],[26.042477,44.607889],[26.042299,44.607925],[26.042157,44.607942],[26.041995,44.607934],[26.04132,44.607838],[26.041006,44.607783],[26.040965,44.607775],[26.040794,44.607739],[26.040611,44.6077],[26.040419,44.607633],[26.040336,44.607582],[26.037077,44.606901],[26.037027,44.606856],[26.037101,44.606707],[26.037198,44.606617],[26.037344,44.606553]]}},{"type":"Feature","properties":{"tip":"drum","clasa":"unclassified","nume":"Strada Măceșului"},"geometry":{"type":"LineString","coordinates":[[26.037751,44.605534],[26.037792,44.605582],[26.037771,44.605673],[26.037388,44.606328],[26.037372,44.606485],[26.037344,44.606553],[26.04046,44.607196]]}},{"type":"Feature","properties":{"tip":"cladire","clasa":"cladire"},"geometry":{"type":"Polygon","coordinates":[[[26.042069,44.605331],[26.042145,44.605236],[26.042296,44.605297],[26.042174,44.605449],[26.0421,44.60542],[26.042145,44.605362],[26.042069,44.605331]]]}},{"type":"Feature","properties":{"tip":"cladire","clasa":"cladire"},"geometry":{"type":"Polygon","coordinates":[[[26.041166,44.605296],[26.04084,44.605258],[26.040856,44.605192],[26.041062,44.605216],[26.041059,44.605229],[26.041091,44.605232],[26.041087,44.605249],[26.041175,44.605259],[26.041166,44.605296]]]}},{"type":"Feature","properties":{"tip":"cladire","clasa":"cladire"},"geometry":{"type":"Polygon","coordinates":[[[26.040707,44.605247],[26.040725,44.605157],[26.040813,44.605167],[26.04081,44.605177],[26.040854,44.605182],[26.040837,44.60526],[26.040707,44.605247]]]}},{"type":"Feature","properties":{"tip":"cladire","clasa":"cladire"},"geometry":{"type":"Polygon","coordinates":[[[26.040811,44.605527],[26.040957,44.60554],[26.040973,44.605446],[26.040827,44.605433],[26.040811,44.605527]]]}},{"type":"Feature","properties":{"tip":"cladire","clasa":"cladire"},"geometry":{"type":"Polygon","coordinates":[[[26.041182,44.605022],[26.041056,44.605008],[26.041073,44.604932],[26.041139,44.604939],[26.041133,44.604967],[26.041193,44.604973],[26.041182,44.605022]]]}},{"type":"Feature","properties":{"tip":"cladire","clasa":"cladire"},"geometry":{"type":"Polygon","coordinates":[[[26.041105,44.604779],[26.040812,44.60475],[26.040835,44.604631],[26.041039,44.604651],[26.041035,44.604674],[26.041124,44.604683],[26.041105,44.604779]]]}},{"type":"Feature","properties":{"tip":"cladire","clasa":"cladire"},"geometry":{"type":"Polygon","coordinates":[[[26.041085,44.604513],[26.041198,44.604527],[26.041212,44.604468],[26.0411,44.604454],[26.041085,44.604513]]]}},{"type":"Feature","properties":{"tip":"cladire","clasa":"cladire"},"geometry":{"type":"Polygon","coordinates":[[[26.04153,44.604737],[26.041608,44.604781],[26.04166,44.604733],[26.041582,44.60469],[26.04153,44.604737]]]}},{"type":"Feature","properties":{"tip":"cladire","clasa":"cladire"},"geometry":{"type":"Polygon","coordinates":[[[26.041694,44.604855],[26.041766,44.604793],[26.041856,44.604846],[26.041784,44.604908],[26.041694,44.604855]]]}},{"type":"Feature","properties":{"tip":"cladire","clasa":"cladire"},"geometry":{"type":"Polygon","coordinates":[[[26.041688,44.605018],[26.041814,44.605091],[26.041889,44.605026],[26.041814,44.604982],[26.041789,44.605004],[26.041738,44.604974],[26.041688,44.605018]]]}},{"type":"Feature","properties":{"tip":"cladire","clasa":"cladire"},"geometry":{"type":"Polygon","coordinates":[[[26.042571,44.604619],[26.042767,44.604715],[26.042864,44.604614],[26.042668,44.604518],[26.042571,44.604619]]]}},{"type":"Feature","properties":{"tip":"drum","clasa":"residential","nume":null},"geometry":{"type":"LineString","coordinates":[[26.042476,44.604584],[26.042511,44.604622],[26.042581,44.604668],[26.042949,44.604853],[26.043371,44.605068],[26.043547,44.605147],[26.043617,44.605177]]}},{"type":"Feature","properties":{"tip":"cladire","clasa":"cladire"},"geometry":{"type":"Polygon","coordinates":[[[26.04355,44.60549],[26.04357,44.605431],[26.043632,44.605441],[26.043644,44.605404],[26.043741,44.605421],[26.043708,44.605517],[26.04355,44.60549]]]}},{"type":"Feature","properties":{"tip":"cladire","clasa":"cladire"},"geometry":{"type":"Polygon","coordinates":[[[26.043497,44.605696],[26.043577,44.605568],[26.043699,44.605607],[26.04362,44.605734],[26.043497,44.605696]]]}},{"type":"Feature","properties":{"tip":"drum","clasa":"residential","nume":null},"geometry":{"type":"LineString","coordinates":[[26.042615,44.603944],[26.042983,44.604094],[26.043325,44.604227],[26.04366,44.604352],[26.04389,44.604437],[26.043948,44.604458]]}},{"type":"Feature","properties":{"tip":"cladire","clasa":"cladire"},"geometry":{"type":"Polygon","coordinates":[[[26.04385,44.604318],[26.0437,44.604248],[26.043837,44.604101],[26.043977,44.604167],[26.043931,44.604217],[26.043898,44.604201],[26.043854,44.604249],[26.043895,44.604268],[26.04385,44.604318]]]}},{"type":"Feature","properties":{"tip":"cladire","clasa":"cladire"},"geometry":{"type":"Polygon","coordinates":[[[26.042245,44.605882],[26.042268,44.605815],[26.042233,44.605809],[26.042257,44.605741],[26.042393,44.605764],[26.042347,44.6059],[26.042245,44.605882]]]}},{"type":"Feature","properties":{"tip":"cladire","clasa":"cladire"},"geometry":{"type":"Polygon","coordinates":[[[26.043393,44.606282],[26.043526,44.606323],[26.043461,44.606431],[26.043259,44.606369],[26.04329,44.606317],[26.043358,44.606338],[26.043393,44.606282]]]}}]}