{"type":"FeatureCollection","features":[{"type":"Feature","properties":{"tip":"apa","clasa":"apa"},"geometry":{"type":"Polygon","coordinates":[[[26.084989,44.618523],[26.084749,44.619501],[26.084446,44.620135],[26.08434,44.620423],[26.08443,44.620943],[26.084518,44.621296],[26.084775,44.621621],[26.085719,44.62272],[26.08626,44.622922],[26.086835,44.623374],[26.087264,44.624034],[26.08789,44.624309],[26.088577,44.624431],[26.08904,44.6244],[26.089489,44.624286],[26.089669,44.624062],[26.089779,44.623557],[26.089869,44.62323],[26.090036,44.622873],[26.090553,44.622075],[26.090772,44.621819],[26.090821,44.621622],[26.090809,44.621407],[26.09077,44.621038],[26.090637,44.620674],[26.089943,44.619918],[26.089635,44.619644],[26.089701,44.619561],[26.089788,44.619557],[26.089914,44.619618],[26.091083,44.620686],[26.09177,44.620949],[26.092671,44.620992],[26.092744,44.621071],[26.092717,44.621285],[26.092757,44.621517],[26.092977,44.621987],[26.093069,44.622214],[26.092168,44.622626],[26.091757,44.62299],[26.090895,44.624309],[26.090483,44.624767],[26.090038,44.625011],[26.089583,44.625161],[26.089039,44.625254],[26.088562,44.625312],[26.08798,44.625278],[26.086312,44.625319],[26.086089,44.625272],[26.085933,44.625182],[26.085715,44.624807],[26.085561,44.624686],[26.085333,44.624645],[26.084775,44.624675],[26.084028,44.624449],[26.084088,44.62437],[26.084801,44.624553],[26.085247,44.624553],[26.085478,44.624496],[26.085584,44.624356],[26.085562,44.624149],[26.084864,44.622852],[26.084538,44.622493],[26.084013,44.622077],[26.08377,44.621926],[26.083376,44.621908],[26.083487,44.621743],[26.083376,44.621071],[26.083101,44.620601],[26.082686,44.620485],[26.082324,44.620421],[26.081907,44.620256],[26.081838,44.620196],[26.081829,44.620124],[26.081833,44.620068],[26.081882,44.620032],[26.082081,44.62004],[26.082747,44.619996],[26.083176,44.619875],[26.083387,44.619677],[26.083488,44.61944],[26.083487,44.619299],[26.083478,44.618839],[26.083777,44.618835],[26.084244,44.618741],[26.084989,44.618523]]]}},{"type":"Feature","properties":{"tip":"drum","clasa":"residential","nume":"Strada Voicu Nicolae"},"geometry":{"type":"LineString","coordinates":[[26.09953,44.628607],[26.098752,44.628401],[26.098711,44.628403],[26.098669,44.628426],[26.098546,44.628691],[26.098062,44.629413],[26.097992,44.629502],[26.097865,44.629619],[26.097808,44.629649],[26.097038,44.629939],[26.095637,44.630476],[26.095265,44.630615],[26.094308,44.63097]]}},{"type":"Feature","properties":{"tip":"drum","clasa":"residential","nume":"Strada Școlii"},"geometry":{"type":"LineString","coordinates":[[26.095637,44.630476],[26.096826,44.632159]]}},{"type":"Feature","properties":{"tip":"drum","clasa":"residential","nume":"Strada Ion Lahovari"},"geometry":{"type":"LineString","coordinates":[[26.094308,44.63097],[26.094298,44.631005],[26.094301,44.631032],[26.094314,44.631062],[26.09454,44.631322],[26.094635,44.63145],[26.094741,44.631622],[26.094886,44.631869],[26.095445,44.632677]]}},{"type":"Feature","properties":{"tip":"drum","clasa":"secondary","nume":"Strada Ion Lahovari"},"geometry":{"type":"LineString","coordinates":[[26.075485,44.639719],[26.07556,44.63972],[26.075681,44.639721],[26.0758,44.639719],[26.075917,44.63971],[26.076048,44.639694],[26.076164,44.639671],[26.076291,44.63964],[26.076413,44.639603],[26.07686,44.639447],[26.077227,44.639306],[26.077522,44.639198],[26.078413,44.63887],[26.078478,44.638846],[26.078863,44.638707],[26.079236,44.638578],[26.079941,44.638308],[26.081205,44.63784],[26.081308,44.637799],[26.082166,44.637489],[26.082415,44.637399],[26.083447,44.63703],[26.084478,44.636655],[26.084849,44.636518],[26.085628,44.636236],[26.086017,44.636103],[26.086625,44.635887],[26.087224,44.635672],[26.08786,44.635436],[26.088258,44.635289],[26.088508,44.635197],[26.088898,44.635055],[26.090311,44.63454],[26.091087,44.634257],[26.092209,44.633852],[26.092898,44.633602],[26.094052,44.633181],[26.094097,44.633163],[26.095445,44.632677],[26.096826,44.632159],[26.096974,44.632105],[26.097898,44.631767],[26.098043,44.63171],[26.099815,44.630969],[26.100778,44.630567],[26.101715,44.630158],[26.101815,44.630116],[26.102137,44.629979],[26.102439,44.629858],[26.102728,44.629789],[26.102906,44.629766],[26.10307,44.629758],[26.103352,44.629756],[26.103742,44.62977],[26.103893,44.62978],[26.104064,44.62981],[26.104298,44.629875],[26.104597,44.629989],[26.105838,44.630513],[26.106061,44.630591],[26.106178,44.630615],[26.106288,44.630634],[26.106455,44.630644],[26.106633,44.630634],[26.106897,44.630603],[26.108719,44.630294],[26.110334,44.63006],[26.111243,44.629919],[26.111432,44.629883],[26.111576,44.629835],[26.111696,44.629781],[26.111789,44.629725],[26.111924,44.629621],[26.112041,44.629537]]}},{"type":"Feature","properties":{"tip":"drum","clasa":"unclassified","nume":"Strada Lacului"},"geometry":{"type":"LineString","coordinates":[[26.102009,44.628626],[26.100912,44.62834],[26.100634,44.628258],[26.100513,44.628201],[26.100388,44.628121],[26.100268,44.628019],[26.100191,44.627942],[26.100062,44.627783],[26.099929,44.627627],[26.099871,44.627571],[26.099762,44.627474],[26.099487,44.627317],[26.098655,44.62683],[26.097821,44.626376],[26.096504,44.625566],[26.095955,44.625209],[26.095517,44.624923],[26.094992,44.624613],[26.094926,44.624576],[26.094862,44.62452],[26.0948,44.624424],[26.094613,44.62415],[26.093397,44.622436],[26.093225,44.622203],[26.093153,44.62207],[26.092894,44.621587],[26.09284,44.621441],[26.092809,44.62129],[26.092814,44.621172],[26.092852,44.62105],[26.092959,44.620891],[26.093035,44.620767],[26.093099,44.620663],[26.093505,44.619698]]}},{"type":"Feature","properties":{"tip":"drum","clasa":"residential","nume":"Strada Tineretului"},"geometry":{"type":"LineString","coordinates":[[26.092314,44.628459],[26.092356,44.628518],[26.094545,44.630111],[26.095265,44.630615]]}},{"type":"Feature","properties":{"tip":"drum","clasa":"residential","nume":"Strada Viitorului"},"geometry":{"type":"LineString","coordinates":[[26.078224,44.622026],[26.078343,44.622073],[26.078522,44.622095],[26.080325,44.622263],[26.080705,44.622308],[26.082415,44.622479],[26.083188,44.622553]]}},{"type":"Feature","properties":{"tip":"drum","clasa":"residential","nume":"Strada Iris"},"geometry":{"type":"LineString","coordinates":[[26.087581,44.622882],[26.08677,44.622714],[26.086746,44.622692],[26.08675,44.622665],[26.086822,44.622455],[26.087308,44.621045],[26.087486,44.620545],[26.087669,44.619989],[26.087753,44.619736],[26.087803,44.619709],[26.087892,44.619713],[26.088533,44.619891],[26.088665,44.619896]]}},{"type":"Feature","properties":{"tip":"drum","clasa":"residential","nume":"Strada Mălinului"},"geometry":{"type":"LineString","coordinates":[[26.088133,44.623713],[26.088431,44.623766],[26.088469,44.623758],[26.08849,44.623728],[26.0887,44.62318],[26.0887,44.623149],[26.088683,44.62312],[26.088634,44.623101],[26.087581,44.622882]]}},{"type":"Feature","properties":{"tip":"drum","clasa":"residential","nume":"Strada Ion Lahovari 87C"},"geometry":{"type":"LineString","coordinates":[[26.094638,44.640899],[26.09412,44.639315],[26.093608,44.637845],[26.09328,44.63691],[26.092996,44.636055],[26.092209,44.633852]]}},{"type":"Feature","properties":{"tip":"drum","clasa":"residential","nume":null},"geometry":{"type":"LineString","coordinates":[[26.082547,44.634217],[26.084466,44.635283],[26.085598,44.635925],[26.085636,44.635996],[26.085633,44.636078],[26.085631,44.636141],[26.085628,44.636236]]}},{"type":"Feature","properties":{"tip":"drum","clasa":"residential","nume":null},"geometry":{"type":"LineString","coordinates":[[26.087932,44.637663],[26.087224,44.635672]]}},{"type":"Feature","properties":{"tip":"drum","clasa":"residential","nume":"Strada Ion Lahovari"},"geometry":{"type":"LineString","coordinates":[[26.093001,44.640617],[26.091707,44.636927],[26.091712,44.63687],[26.091766,44.636828],[26.091937,44.636751],[26.091959,44.636708],[26.091943,44.636643],[26.091535,44.635475],[26.091171,44.63445],[26.091087,44.634257]]}},{"type":"Feature","properties":{"tip":"drum","clasa":"service","nume":null},"geometry":{"type":"LineString","coordinates":[[26.088231,44.634003],[26.088573,44.634574],[26.088765,44.634864],[26.088898,44.635055]]}},{"type":"Feature","properties":{"tip":"drum","clasa":"residential","nume":null},"geometry":{"type":"LineString","coordinates":[[26.08958,44.638329],[26.08913,44.636997],[26.088508,44.635197]]}},{"type":"Feature","properties":{"tip":"drum","clasa":"residential","nume":null},"geometry":{"type":"LineString","coordinates":[[26.094776,44.636127],[26.095619,44.633324]]}},{"type":"Feature","properties":{"tip":"drum","clasa":"residential","nume":"Strada Cameliei"},"geometry":{"type":"LineString","coordinates":[[26.094097,44.633163],[26.094165,44.633196],[26.094235,44.633211],[26.095329,44.633293],[26.095619,44.633324],[26.096586,44.633448],[26.096917,44.63349],[26.09741,44.633547],[26.097941,44.633608],[26.098509,44.633653],[26.098806,44.633666],[26.099102,44.633672],[26.099394,44.633664],[26.099652,44.633652],[26.100034,44.633623],[26.100431,44.633596],[26.10064,44.633579],[26.100792,44.633565],[26.100998,44.633536],[26.101177,44.633499],[26.101391,44.633438],[26.101507,44.633403],[26.101699,44.633333],[26.10189,44.633252],[26.10204,44.633172]]}},{"type":"Feature","properties":{"tip":"drum","clasa":"residential","nume":"Strada Nucilor"},"geometry":{"type":"LineString","coordinates":[[26.081997,44.625603],[26.082097,44.62565],[26.082226,44.625692],[26.082413,44.625743],[26.082745,44.625796],[26.083241,44.625948],[26.083492,44.625993],[26.083674,44.625994],[26.083795,44.626009],[26.084101,44.626126],[26.084446,44.626197],[26.084716,44.626226],[26.08491,44.626276],[26.08519,44.62636]]}},{"type":"Feature","properties":{"tip":"drum","clasa":"track","nume":null},"geometry":{"type":"LineString","coordinates":[[26.085459,44.625772],[26.085872,44.625633],[26.086628,44.6255],[26.08812,44.625599],[26.089262,44.625557],[26.090397,44.625278],[26.090891,44.624963],[26.091886,44.623801],[26.092454,44.623213],[26.093141,44.622663],[26.093397,44.622436]]}},{"type":"Feature","properties":{"tip":"drum","clasa":"residential","nume":null},"geometry":{"type":"LineString","coordinates":[[26.096143,44.636089],[26.096113,44.636157],[26.096077,44.636174],[26.09602,44.636181],[26.095832,44.636192],[26.094935,44.636242],[26.094874,44.636237],[26.094822,44.636221],[26.094796,44.6362],[26.094783,44.636175],[26.094776,44.636127]]}},{"type":"Feature","properties":{"tip":"drum","clasa":"track","nume":null},"geometry":{"type":"LineString","coordinates":[[26.084097,44.622657],[26.083304,44.624389],[26.082745,44.625796]]}},{"type":"Feature","properties":{"tip":"drum","clasa":"unclassified","nume":null},"geometry":{"type":"LineString","coordinates":[[26.086625,44.635887],[26.086713,44.636081],[26.087653,44.638875],[26.088692,44.641844],[26.088715,44.641935],[26.088727,44.642045],[26.088722,44.642088],[26.08868,44.642112],[26.088632,44.642122],[26.088553,44.642114],[26.088476,44.642094],[26.088415,44.642061]]}},{"type":"Feature","properties":{"tip":"drum","clasa":"residential","nume":"Strada Ion Lahovari"},"geometry":{"type":"LineString","coordinates":[[26.086017,44.636103],[26.087807,44.641406],[26.087823,44.6415],[26.087827,44.641619]]}},{"type":"Feature","properties":{"tip":"drum","clasa":"residential","nume":null},"geometry":{"type":"LineString","coordinates":[[26.096917,44.63349],[26.096362,44.635315],[26.096143,44.636089]]}},{"type":"Feature","properties":{"tip":"drum","clasa":"residential","nume":"Strada Apusului"},"geometry":{"type":"LineString","coordinates":[[26.094449,44.637012],[26.094407,44.636615],[26.094375,44.636273],[26.09437,44.636015],[26.094347,44.635531],[26.094305,44.63514],[26.094264,44.634862],[26.094205,44.634282],[26.094116,44.633619],[26.094082,44.633308],[26.094052,44.633181]]}},{"type":"Feature","properties":{"tip":"drum","clasa":"track","nume":null},"geometry":{"type":"LineString","coordinates":[[26.094992,44.624613],[26.094889,44.624716],[26.094782,44.624845],[26.094471,44.625136],[26.094353,44.62522],[26.094162,44.625355],[26.093776,44.625684],[26.093387,44.625983],[26.093226,44.626054],[26.093176,44.626337],[26.093008,44.626547],[26.092992,44.626805],[26.092491,44.627977],[26.092334,44.628373],[26.092314,44.628459]]}},{"type":"Feature","properties":{"tip":"drum","clasa":"residential","nume":"Strada Nucilor"},"geometry":{"type":"LineString","coordinates":[[26.077202,44.625175],[26.077277,44.625189],[26.07839,44.625283],[26.080068,44.625388],[26.080554,44.62543],[26.081372,44.625531],[26.081715,44.625552],[26.081997,44.625603]]}},{"type":"Feature","properties":{"tip":"drum","clasa":"path","nume":null},"geometry":{"type":"LineString","coordinates":[[26.082547,44.634217],[26.082589,44.63408],[26.082723,44.633604],[26.082922,44.633158],[26.082983,44.633045],[26.08304,44.632933],[26.083304,44.632178]]}},{"type":"Feature","properties":{"tip":"drum","clasa":"track","nume":null},"geometry":{"type":"LineString","coordinates":[[26.093226,44.626054],[26.092797,44.626362],[26.092583,44.626569],[26.092401,44.626725],[26.091778,44.627],[26.090223,44.627691],[26.089327,44.628046],[26.088731,44.628266],[26.088576,44.6283],[26.088482,44.62831],[26.088391,44.628304],[26.088307,44.628283],[26.088232,44.628243],[26.086862,44.627351],[26.085845,44.62663],[26.08569,44.626542],[26.085578,44.626474],[26.085536,44.626461],[26.08519,44.62636]]}},{"type":"Feature","properties":{"tip":"drum","clasa":"path","nume":"Strada Magnoliei"},"geometry":{"type":"LineString","coordinates":[[26.081477,44.637073],[26.081741,44.636511],[26.081822,44.636271],[26.081897,44.636105],[26.081919,44.636023],[26.081929,44.635941],[26.081937,44.63584],[26.081983,44.635702],[26.082103,44.635378],[26.082165,44.635194],[26.082203,44.635086],[26.082267,44.635005],[26.082302,44.634904],[26.082517,44.634313],[26.082533,44.634269],[26.082547,44.634217]]}},{"type":"Feature","properties":{"tip":"drum","clasa":"service","nume":null},"geometry":{"type":"LineString","coordinates":[[26.086182,44.635216],[26.086625,44.635887]]}},{"type":"Feature","properties":{"tip":"drum","clasa":"track","nume":null},"geometry":{"type":"LineString","coordinates":[[26.093153,44.62207],[26.093353,44.622066],[26.093427,44.62206],[26.093759,44.622034],[26.094018,44.622014],[26.09419,44.622015],[26.094432,44.62202],[26.094625,44.62205],[26.094915,44.622058],[26.09521,44.622087],[26.09542,44.622129],[26.095648,44.622196],[26.095938,44.622303],[26.096419,44.622498],[26.097042,44.622746],[26.097531,44.622987],[26.098025,44.623258],[26.098632,44.623603],[26.099317,44.624027],[26.099591,44.624234],[26.099889,44.624471],[26.100389,44.624916],[26.100456,44.624994],[26.100448,44.625145],[26.100257,44.625497],[26.099946,44.625983]]}},{"type":"Feature","properties":{"tip":"drum","clasa":"service","nume":"Strada Apusului"},"geometry":{"type":"LineString","coordinates":[[26.094484,44.634243],[26.094421,44.633648]]}},{"type":"Feature","properties":{"tip":"drum","clasa":"residential","nume":"Strada Apusului"},"geometry":{"type":"LineString","coordinates":[[26.094116,44.633619],[26.094421,44.633648],[26.094929,44.633699]]}},{"type":"Feature","properties":{"tip":"drum","clasa":"residential","nume":"Strada Apusului"},"geometry":{"type":"LineString","coordinates":[[26.094205,44.634282],[26.094337,44.634271],[26.094484,44.634243],[26.094739,44.634256],[26.094766,44.63424],[26.094929,44.633699],[26.094984,44.633517]]}},{"type":"Feature","properties":{"tip":"drum","clasa":"residential","nume":null},"geometry":{"type":"LineString","coordinates":[[26.087635,44.634316],[26.088093,44.635035],[26.0882,44.635204],[26.088258,44.635289]]}},{"type":"Feature","properties":{"tip":"drum","clasa":"residential","nume":null},"geometry":{"type":"LineString","coordinates":[[26.086614,44.63349],[26.08786,44.635436]]}},{"type":"Feature","properties":{"tip":"drum","clasa":"residential","nume":null},"geometry":{"type":"LineString","coordinates":[[26.083188,44.622553],[26.083244,44.622595],[26.083268,44.622646],[26.083258,44.622701],[26.082844,44.62365],[26.081997,44.625603]]}},{"type":"Feature","properties":{"tip":"drum","clasa":"residential","nume":"Strada Florilor"},"geometry":{"type":"LineString","coordinates":[[26.087581,44.622882],[26.088541,44.620237],[26.088665,44.619896]]}},{"type":"Feature","properties":{"tip":"drum","clasa":"service","nume":null},"geometry":{"type":"LineString","coordinates":[[26.086213,44.634689],[26.086154,44.635144],[26.086156,44.635159],[26.086161,44.635175],[26.086182,44.635216]]}},{"type":"Feature","properties":{"tip":"cladire","clasa":"cladire"},"geometry":{"type":"Polygon","coordinates":[[[26.081731,44.625456],[26.081874,44.625464],[26.081887,44.625353],[26.081743,44.625345],[26.081731,44.625456]]]}},{"type":"Feature","properties":{"tip":"cladire","clasa":"cladire"},"geometry":{"type":"Polygon","coordinates":[[[26.081422,44.625432],[26.081547,44.625445],[26.081573,44.625325],[26.081448,44.625312],[26.081422,44.625432]]]}},{"type":"Feature","properties":{"tip":"cladire","clasa":"cladire"},"geometry":{"type":"Polygon","coordinates":[[[26.080876,44.62536],[26.081067,44.625372],[26.08108,44.625272],[26.08089,44.625259],[26.080876,44.62536]]]}},{"type":"Feature","properties":{"tip":"cladire","clasa":"cladire"},"geometry":{"type":"Polygon","coordinates":[[[26.081107,44.625341],[26.081117,44.62528],[26.081239,44.625291],[26.081229,44.625352],[26.081107,44.625341]]]}},{"type":"Feature","properties":{"tip":"drum","clasa":"service","nume":"Intrarea Morarilor"},"geometry":{"type":"LineString","coordinates":[[26.08243,44.622434],[26.082415,44.622479]]}},{"type":"Feature","properties":{"tip":"drum","clasa":"service","nume":null},"geometry":{"type":"LineString","coordinates":[[26.08519,44.62636],[26.085459,44.625772]]}},{"type":"Feature","properties":{"tip":"drum","clasa":"residential","nume":null},"geometry":{"type":"LineString","coordinates":[[26.077742,44.623576],[26.080556,44.62385]]}},{"type":"Feature","properties":{"tip":"cladire","clasa":"cladire"},"geometry":{"type":"Polygon","coordinates":[[[26.082912,44.622468],[26.082917,44.622402],[26.083016,44.622406],[26.083011,44.622472],[26.082912,44.622468]]]}},{"type":"Feature","properties":{"tip":"drum","clasa":"track","nume":null},"geometry":{"type":"LineString","coordinates":[[26.085536,44.626461],[26.085525,44.626525],[26.085273,44.627192],[26.085009,44.627884],[26.084736,44.628552],[26.084434,44.629315],[26.084174,44.629992],[26.084006,44.630384],[26.083789,44.630926],[26.083596,44.63144],[26.083565,44.63151],[26.083529,44.631574],[26.0835,44.631634],[26.083356,44.632028],[26.083304,44.632178]]}},{"type":"Feature","properties":{"tip":"cladire","clasa":"cladire"},"geometry":{"type":"Polygon","coordinates":[[[26.093228,44.636422],[26.093195,44.63633],[26.093333,44.636305],[26.093381,44.636437],[26.093295,44.636452],[26.093281,44.636412],[26.093228,44.636422]]]}},{"type":"Feature","properties":{"tip":"cladire","clasa":"cladire"},"geometry":{"type":"Polygon","coordinates":[[[26.09331,44.636264],[26.093269,44.636139],[26.093409,44.636116],[26.09344,44.63621],[26.093378,44.636221],[26.093388,44.636251],[26.09331,44.636264]]]}},{"type":"Feature","properties":{"tip":"cladire","clasa":"cladire"},"geometry":{"type":"Polygon","coordinates":[[[26.093107,44.636081],[26.093077,44.635985],[26.093218,44.635962],[26.093238,44.636024],[26.093263,44.63602],[26.093284,44.636087],[26.093181,44.636103],[26.093171,44.636071],[26.093107,44.636081]]]}},{"type":"Feature","properties":{"tip":"cladire","clasa":"cladire"},"geometry":{"type":"Polygon","coordinates":[[[26.093118,44.635911],[26.093084,44.635818],[26.093225,44.635791],[26.093238,44.635825],[26.093263,44.635821],[26.093285,44.63588],[26.093118,44.635911]]]}},{"type":"Feature","properties":{"tip":"cladire","clasa":"cladire"},"geometry":{"type":"Polygon","coordinates":[[[26.087688,44.63499],[26.087655,44.634942],[26.087667,44.634938],[26.087644,44.634902],[26.087693,44.634885],[26.087681,44.634867],[26.087777,44.634834],[26.087846,44.634937],[26.087688,44.63499]]]}},{"type":"Feature","properties":{"tip":"cladire","clasa":"cladire"},"geometry":{"type":"Polygon","coordinates":[[[26.087599,44.634842],[26.087566,44.634794],[26.087579,44.634789],[26.087555,44.634754],[26.087605,44.634737],[26.087592,44.634718],[26.087688,44.634686],[26.087757,44.634788],[26.087599,44.634842]]]}},{"type":"Feature","properties":{"tip":"cladire","clasa":"cladire"},"geometry":{"type":"Polygon","coordinates":[[[26.087505,44.634689],[26.087473,44.634641],[26.087485,44.634637],[26.087461,44.634601],[26.087511,44.634584],[26.087498,44.634566],[26.087594,44.634533],[26.087663,44.634636],[26.087505,44.634689]]]}},{"type":"Feature","properties":{"tip":"cladire","clasa":"cladire"},"geometry":{"type":"Polygon","coordinates":[[[26.087408,44.634543],[26.087376,44.634495],[26.087388,44.63449],[26.087365,44.634455],[26.087414,44.634438],[26.087402,44.63442],[26.087498,44.634387],[26.087566,44.634489],[26.087408,44.634543]]]}},{"type":"Feature","properties":{"tip":"cladire","clasa":"cladire"},"geometry":{"type":"Polygon","coordinates":[[[26.087312,44.634383],[26.08728,44.634335],[26.087292,44.634331],[26.087268,44.634295],[26.087318,44.634279],[26.087305,44.63426],[26.087401,44.634228],[26.08747,44.63433],[26.087312,44.634383]]]}},{"type":"Feature","properties":{"tip":"cladire","clasa":"cladire"},"geometry":{"type":"Polygon","coordinates":[[[26.087215,44.634239],[26.087183,44.634191],[26.087195,44.634187],[26.087172,44.634151],[26.087221,44.634135],[26.087209,44.634116],[26.087305,44.634084],[26.087373,44.634186],[26.087215,44.634239]]]}},{"type":"Feature","properties":{"tip":"cladire","clasa":"cladire"},"geometry":{"type":"Polygon","coordinates":[[[26.087124,44.634087],[26.087092,44.634039],[26.087104,44.634035],[26.08708,44.634],[26.08713,44.633983],[26.087118,44.633964],[26.087214,44.633932],[26.087282,44.634034],[26.087124,44.634087]]]}},{"type":"Feature","properties":{"tip":"cladire","clasa":"cladire"},"geometry":{"type":"Polygon","coordinates":[[[26.087017,44.633936],[26.086985,44.633887],[26.086997,44.633883],[26.086973,44.633848],[26.087023,44.633831],[26.087011,44.633812],[26.087107,44.63378],[26.087175,44.633882],[26.087017,44.633936]]]}},{"type":"Feature","properties":{"tip":"cladire","clasa":"cladire"},"geometry":{"type":"Polygon","coordinates":[[[26.086921,44.633789],[26.086888,44.63374],[26.0869,44.633736],[26.086877,44.633701],[26.086927,44.633684],[26.086914,44.633665],[26.08701,44.633633],[26.087079,44.633735],[26.086921,44.633789]]]}},{"type":"Feature","properties":{"tip":"cladire","clasa":"cladire"},"geometry":{"type":"Polygon","coordinates":[[[26.086831,44.633642],[26.086799,44.633594],[26.086811,44.633589],[26.086787,44.633554],[26.086837,44.633537],[26.086824,44.633518],[26.08692,44.633486],[26.086989,44.633588],[26.086831,44.633642]]]}},{"type":"Feature","properties":{"tip":"cladire","clasa":"cladire"},"geometry":{"type":"Polygon","coordinates":[[[26.08665,44.633381],[26.086682,44.633429],[26.086694,44.633425],[26.086718,44.63346],[26.086768,44.633444],[26.08678,44.633462],[26.086876,44.633429],[26.086808,44.633327],[26.08665,44.633381]]]}},{"type":"Feature","properties":{"tip":"cladire","clasa":"cladire"},"geometry":{"type":"Polygon","coordinates":[[[26.08755,44.635406],[26.087479,44.635297],[26.087593,44.63526],[26.087605,44.635278],[26.087646,44.635264],[26.087678,44.635313],[26.087697,44.635306],[26.087725,44.635349],[26.08755,44.635406]]]}},{"type":"Feature","properties":{"tip":"cladire","clasa":"cladire"},"geometry":{"type":"Polygon","coordinates":[[[26.087468,44.635269],[26.087397,44.63516],[26.087511,44.635122],[26.087523,44.63514],[26.087565,44.635127],[26.087596,44.635176],[26.087616,44.635169],[26.087643,44.635211],[26.087468,44.635269]]]}},{"type":"Feature","properties":{"tip":"cladire","clasa":"cladire"},"geometry":{"type":"Polygon","coordinates":[[[26.087366,44.635129],[26.087295,44.635019],[26.087409,44.634982],[26.087421,44.635],[26.087463,44.634986],[26.087494,44.635035],[26.087514,44.635029],[26.087542,44.635071],[26.087366,44.635129]]]}},{"type":"Feature","properties":{"tip":"cladire","clasa":"cladire"},"geometry":{"type":"Polygon","coordinates":[[[26.087276,44.634986],[26.087205,44.634877],[26.087319,44.63484],[26.087331,44.634858],[26.087373,44.634844],[26.087405,44.634893],[26.087424,44.634887],[26.087452,44.634929],[26.087276,44.634986]]]}},{"type":"Feature","properties":{"tip":"cladire","clasa":"cladire"},"geometry":{"type":"Polygon","coordinates":[[[26.087195,44.634847],[26.087124,44.634738],[26.087238,44.634701],[26.087249,44.634719],[26.087291,44.634705],[26.087323,44.634754],[26.087342,44.634747],[26.08737,44.634789],[26.087195,44.634847]]]}},{"type":"Feature","properties":{"tip":"cladire","clasa":"cladire"},"geometry":{"type":"Polygon","coordinates":[[[26.087094,44.634708],[26.087023,44.634599],[26.087137,44.634561],[26.087149,44.634579],[26.08719,44.634566],[26.087222,44.634614],[26.087242,44.634608],[26.087269,44.63465],[26.087094,44.634708]]]}},{"type":"Feature","properties":{"tip":"cladire","clasa":"cladire"},"geometry":{"type":"Polygon","coordinates":[[[26.087007,44.634572],[26.086936,44.634463],[26.08705,44.634426],[26.087062,44.634444],[26.087103,44.63443],[26.087135,44.634479],[26.087155,44.634472],[26.087182,44.634515],[26.087007,44.634572]]]}},{"type":"Feature","properties":{"tip":"cladire","clasa":"cladire"},"geometry":{"type":"Polygon","coordinates":[[[26.086921,44.634429],[26.08685,44.63432],[26.086964,44.634282],[26.086976,44.634301],[26.087017,44.634287],[26.087049,44.634336],[26.087069,44.634329],[26.087096,44.634372],[26.086921,44.634429]]]}},{"type":"Feature","properties":{"tip":"cladire","clasa":"cladire"},"geometry":{"type":"Polygon","coordinates":[[[26.08682,44.634287],[26.086749,44.634178],[26.086863,44.63414],[26.086875,44.634158],[26.086917,44.634145],[26.086948,44.634194],[26.086968,44.634187],[26.086996,44.634229],[26.08682,44.634287]]]}},{"type":"Feature","properties":{"tip":"cladire","clasa":"cladire"},"geometry":{"type":"Polygon","coordinates":[[[26.086731,44.634152],[26.08666,44.634043],[26.086774,44.634006],[26.086785,44.634024],[26.086827,44.63401],[26.086859,44.634059],[26.086878,44.634052],[26.086906,44.634095],[26.086731,44.634152]]]}},{"type":"Feature","properties":{"tip":"cladire","clasa":"cladire"},"geometry":{"type":"Polygon","coordinates":[[[26.086646,44.634023],[26.086575,44.633913],[26.086689,44.633876],[26.086701,44.633894],[26.086742,44.63388],[26.086774,44.633929],[26.086794,44.633923],[26.086821,44.633965],[26.086646,44.634023]]]}},{"type":"Feature","properties":{"tip":"cladire","clasa":"cladire"},"geometry":{"type":"Polygon","coordinates":[[[26.086551,44.633877],[26.08648,44.633768],[26.086594,44.633731],[26.086606,44.633749],[26.086647,44.633735],[26.086679,44.633784],[26.086699,44.633778],[26.086726,44.63382],[26.086551,44.633877]]]}},{"type":"Feature","properties":{"tip":"cladire","clasa":"cladire"},"geometry":{"type":"Polygon","coordinates":[[[26.080256,44.636389],[26.080556,44.636459],[26.080614,44.636333],[26.080314,44.636263],[26.080256,44.636389]]]}},{"type":"Feature","properties":{"tip":"drum","clasa":"residential","nume":null},"geometry":{"type":"LineString","coordinates":[[26.093392,44.6351],[26.092926,44.633695],[26.092898,44.633602]]}},{"type":"Feature","properties":{"tip":"cladire","clasa":"cladire"},"geometry":{"type":"Polygon","coordinates":[[[26.093882,44.634296],[26.094003,44.634286],[26.093988,44.634198],[26.093868,44.634209],[26.093882,44.634296]]]}},{"type":"Feature","properties":{"tip":"cladire","clasa":"cladire"},"geometry":{"type":"Polygon","coordinates":[[[26.093396,44.634001],[26.093489,44.633985],[26.09346,44.633903],[26.093367,44.633919],[26.093396,44.634001]]]}},{"type":"Feature","properties":{"tip":"cladire","clasa":"cladire"},"geometry":{"type":"Polygon","coordinates":[[[26.093296,44.633736],[26.09339,44.633719],[26.09336,44.633637],[26.093267,44.633654],[26.093296,44.633736]]]}},{"type":"Feature","properties":{"tip":"cladire","clasa":"cladire"},"geometry":{"type":"Polygon","coordinates":[[[26.09655,44.634122],[26.096586,44.634127],[26.096606,44.63406],[26.09657,44.634054],[26.09655,44.634122]]]}},{"type":"Feature","properties":{"tip":"cladire","clasa":"cladire"},"geometry":{"type":"Polygon","coordinates":[[[26.096605,44.633979],[26.096638,44.633984],[26.096659,44.633913],[26.096626,44.633908],[26.096605,44.633979]]]}},{"type":"Feature","properties":{"tip":"cladire","clasa":"cladire"},"geometry":{"type":"Polygon","coordinates":[[[26.096649,44.633819],[26.096687,44.633824],[26.096705,44.633754],[26.096668,44.633749],[26.096649,44.633819]]]}},{"type":"Feature","properties":{"tip":"cladire","clasa":"cladire"},"geometry":{"type":"Polygon","coordinates":[[[26.096506,44.6338],[26.096649,44.633819],[26.096668,44.633749],[26.096674,44.633723],[26.096531,44.633704],[26.096506,44.6338]]]}},{"type":"Feature","properties":{"tip":"cladire","clasa":"cladire"},"geometry":{"type":"Polygon","coordinates":[[[26.096459,44.633957],[26.096605,44.633979],[26.096626,44.633908],[26.096635,44.633878],[26.096489,44.633856],[26.096459,44.633957]]]}},{"type":"Feature","properties":{"tip":"cladire","clasa":"cladire"},"geometry":{"type":"Polygon","coordinates":[[[26.096409,44.634101],[26.09655,44.634122],[26.09657,44.634054],[26.096576,44.634035],[26.096435,44.634014],[26.096409,44.634101]]]}},{"type":"Feature","properties":{"tip":"cladire","clasa":"cladire"},"geometry":{"type":"Polygon","coordinates":[[[26.095806,44.631172],[26.095906,44.631136],[26.095863,44.631074],[26.095762,44.631109],[26.095806,44.631172]]]}},{"type":"Feature","properties":{"tip":"cladire","clasa":"cladire"},"geometry":{"type":"Polygon","coordinates":[[[26.096105,44.630882],[26.096199,44.630846],[26.096156,44.630789],[26.096062,44.630825],[26.096105,44.630882]]]}},{"type":"Feature","properties":{"tip":"cladire","clasa":"cladire"},"geometry":{"type":"Polygon","coordinates":[[[26.096593,44.630355],[26.09655,44.63037],[26.09656,44.630384],[26.096602,44.630369],[26.096593,44.630355]]]}},{"type":"Feature","properties":{"tip":"cladire","clasa":"cladire"},"geometry":{"type":"Polygon","coordinates":[[[26.096407,44.630338],[26.096501,44.630305],[26.096479,44.630274],[26.096385,44.630307],[26.096407,44.630338]]]}},{"type":"Feature","properties":{"tip":"cladire","clasa":"cladire"},"geometry":{"type":"Polygon","coordinates":[[[26.096453,44.630404],[26.09655,44.63037],[26.096593,44.630355],[26.096546,44.630288],[26.096501,44.630305],[26.096407,44.630338],[26.096453,44.630404]]]}},{"type":"Feature","properties":{"tip":"cladire","clasa":"cladire"},"geometry":{"type":"Polygon","coordinates":[[[26.095336,44.629461],[26.095446,44.629535],[26.0956,44.629421],[26.095491,44.629346],[26.095336,44.629461]]]}},{"type":"Feature","properties":{"tip":"cladire","clasa":"cladire"},"geometry":{"type":"Polygon","coordinates":[[[26.094054,44.629672],[26.094172,44.62976],[26.094249,44.629708],[26.094131,44.62962],[26.094054,44.629672]]]}},{"type":"Feature","properties":{"tip":"cladire","clasa":"cladire"},"geometry":{"type":"Polygon","coordinates":[[[26.0934,44.629483],[26.093455,44.62953],[26.093476,44.629518],[26.093421,44.62947],[26.0934,44.629483]]]}},{"type":"Feature","properties":{"tip":"cladire","clasa":"cladire"},"geometry":{"type":"Polygon","coordinates":[[[26.093473,44.629641],[26.09354,44.629602],[26.093455,44.62953],[26.0934,44.629483],[26.093334,44.629522],[26.093473,44.629641]]]}},{"type":"Feature","properties":{"tip":"cladire","clasa":"cladire"},"geometry":{"type":"Polygon","coordinates":[[[26.093216,44.629481],[26.093255,44.629512],[26.093395,44.629423],[26.093357,44.629392],[26.093216,44.629481]]]}},{"type":"Feature","properties":{"tip":"cladire","clasa":"cladire"},"geometry":{"type":"Polygon","coordinates":[[[26.093154,44.629352],[26.093215,44.629316],[26.093173,44.62928],[26.093112,44.629316],[26.093154,44.629352]]]}},{"type":"Feature","properties":{"tip":"cladire","clasa":"cladire"},"geometry":{"type":"Polygon","coordinates":[[[26.092989,44.629304],[26.09309,44.62939],[26.093154,44.629352],[26.093112,44.629316],[26.093053,44.629266],[26.092989,44.629304]]]}},{"type":"Feature","properties":{"tip":"cladire","clasa":"cladire"},"geometry":{"type":"Polygon","coordinates":[[[26.092949,44.629235],[26.092991,44.629276],[26.093109,44.629215],[26.093067,44.629174],[26.092949,44.629235]]]}},{"type":"Feature","properties":{"tip":"cladire","clasa":"cladire"},"geometry":{"type":"Polygon","coordinates":[[[26.092804,44.629123],[26.092823,44.629143],[26.092868,44.629121],[26.092848,44.629101],[26.092804,44.629123]]]}},{"type":"Feature","properties":{"tip":"cladire","clasa":"cladire"},"geometry":{"type":"Polygon","coordinates":[[[26.092753,44.629069],[26.092804,44.629123],[26.092848,44.629101],[26.092917,44.629068],[26.092866,44.629015],[26.092753,44.629069]]]}},{"type":"Feature","properties":{"tip":"cladire","clasa":"cladire"},"geometry":{"type":"Polygon","coordinates":[[[26.092662,44.628969],[26.092711,44.629016],[26.092854,44.628941],[26.092806,44.628894],[26.092662,44.628969]]]}},{"type":"Feature","properties":{"tip":"cladire","clasa":"cladire"},"geometry":{"type":"Polygon","coordinates":[[[26.092549,44.628895],[26.092606,44.628948],[26.092696,44.628899],[26.092639,44.628846],[26.092549,44.628895]]]}},{"type":"Feature","properties":{"tip":"cladire","clasa":"cladire"},"geometry":{"type":"Polygon","coordinates":[[[26.092828,44.628744],[26.092911,44.628809],[26.09299,44.628757],[26.092907,44.628693],[26.092828,44.628744]]]}},{"type":"Feature","properties":{"tip":"cladire","clasa":"cladire"},"geometry":{"type":"Polygon","coordinates":[[[26.092643,44.628576],[26.092722,44.628635],[26.092774,44.6286],[26.092695,44.628541],[26.092643,44.628576]]]}},{"type":"Feature","properties":{"tip":"cladire","clasa":"cladire"},"geometry":{"type":"Polygon","coordinates":[[[26.092549,44.628521],[26.092622,44.628573],[26.092687,44.628527],[26.092615,44.628475],[26.092549,44.628521]]]}},{"type":"Feature","properties":{"tip":"cladire","clasa":"cladire"},"geometry":{"type":"Polygon","coordinates":[[[26.092372,44.628844],[26.092459,44.628918],[26.09255,44.628865],[26.092464,44.628791],[26.092372,44.628844]]]}},{"type":"Feature","properties":{"tip":"cladire","clasa":"cladire"},"geometry":{"type":"Polygon","coordinates":[[[26.092287,44.628769],[26.092354,44.628827],[26.09246,44.628765],[26.092392,44.628707],[26.092287,44.628769]]]}},{"type":"Feature","properties":{"tip":"cladire","clasa":"cladire"},"geometry":{"type":"Polygon","coordinates":[[[26.092126,44.628684],[26.092232,44.628781],[26.092323,44.628731],[26.092217,44.628633],[26.092126,44.628684]]]}},{"type":"Feature","properties":{"tip":"cladire","clasa":"cladire"},"geometry":{"type":"Polygon","coordinates":[[[26.091982,44.62862],[26.092061,44.628688],[26.092149,44.628637],[26.09207,44.628569],[26.091982,44.62862]]]}},{"type":"Feature","properties":{"tip":"drum","clasa":"residential","nume":null},"geometry":{"type":"LineString","coordinates":[[26.095312,44.62593],[26.095536,44.625693],[26.095641,44.625564],[26.095765,44.625444],[26.09589,44.625312],[26.095925,44.625265],[26.095955,44.625209]]}},{"type":"Feature","properties":{"tip":"cladire","clasa":"cladire"},"geometry":{"type":"Polygon","coordinates":[[[26.09449,44.625492],[26.094529,44.625457],[26.09445,44.625412],[26.09441,44.625447],[26.09449,44.625492]]]}},{"type":"Feature","properties":{"tip":"cladire","clasa":"cladire"},"geometry":{"type":"Polygon","coordinates":[[[26.094526,44.625513],[26.094594,44.625453],[26.094558,44.625432],[26.094529,44.625457],[26.09449,44.625492],[26.094526,44.625513]]]}},{"type":"Feature","properties":{"tip":"cladire","clasa":"cladire"},"geometry":{"type":"Polygon","coordinates":[[[26.094526,44.625513],[26.094655,44.625586],[26.09474,44.625511],[26.094611,44.625437],[26.094594,44.625453],[26.094526,44.625513]]]}},{"type":"Feature","properties":{"tip":"cladire","clasa":"cladire"},"geometry":{"type":"Polygon","coordinates":[[[26.09465,44.625419],[26.094765,44.62549],[26.094841,44.625427],[26.094726,44.625356],[26.09465,44.625419]]]}},{"type":"Feature","properties":{"tip":"cladire","clasa":"cladire"},"geometry":{"type":"Polygon","coordinates":[[[26.094945,44.624994],[26.095035,44.625046],[26.095122,44.624971],[26.095032,44.624918],[26.094945,44.624994]]]}},{"type":"Feature","properties":{"tip":"cladire","clasa":"cladire"},"geometry":{"type":"Polygon","coordinates":[[[26.095095,44.624905],[26.095206,44.624974],[26.095282,44.624912],[26.09517,44.624843],[26.095095,44.624905]]]}},{"type":"Feature","properties":{"tip":"cladire","clasa":"cladire"},"geometry":{"type":"Polygon","coordinates":[[[26.096091,44.62552],[26.09622,44.625598],[26.09631,44.625523],[26.096181,44.625445],[26.096091,44.62552]]]}},{"type":"Feature","properties":{"tip":"drum","clasa":"residential","nume":null},"geometry":{"type":"LineString","coordinates":[[26.094466,44.625881],[26.095517,44.624923]]}},{"type":"Feature","properties":{"tip":"cladire","clasa":"cladire"},"geometry":{"type":"Polygon","coordinates":[[[26.094023,44.63001],[26.094077,44.630053],[26.094241,44.62995],[26.094187,44.629907],[26.094023,44.63001]]]}},{"type":"Feature","properties":{"tip":"cladire","clasa":"cladire"},"geometry":{"type":"Polygon","coordinates":[[[26.093742,44.62986],[26.093803,44.629914],[26.093994,44.629804],[26.093932,44.62975],[26.093742,44.62986]]]}},{"type":"Feature","properties":{"tip":"cladire","clasa":"cladire"},"geometry":{"type":"Polygon","coordinates":[[[26.093616,44.629735],[26.093693,44.629802],[26.093799,44.62974],[26.093721,44.629673],[26.093616,44.629735]]]}},{"type":"Feature","properties":{"tip":"cladire","clasa":"cladire"},"geometry":{"type":"Polygon","coordinates":[[[26.093526,44.62963],[26.093617,44.629712],[26.093717,44.629654],[26.093626,44.629573],[26.093526,44.62963]]]}},{"type":"Feature","properties":{"tip":"cladire","clasa":"cladire"},"geometry":{"type":"Polygon","coordinates":[[[26.093204,44.629377],[26.093252,44.629422],[26.093392,44.629346],[26.093343,44.629301],[26.093204,44.629377]]]}},{"type":"Feature","properties":{"tip":"cladire","clasa":"cladire"},"geometry":{"type":"Polygon","coordinates":[[[26.093629,44.6294],[26.093759,44.629496],[26.093871,44.629419],[26.093741,44.629323],[26.093629,44.6294]]]}},{"type":"Feature","properties":{"tip":"cladire","clasa":"cladire"},"geometry":{"type":"Polygon","coordinates":[[[26.09383,44.629534],[26.093941,44.629612],[26.094051,44.629533],[26.09394,44.629455],[26.09383,44.629534]]]}},{"type":"Feature","properties":{"tip":"cladire","clasa":"cladire"},"geometry":{"type":"Polygon","coordinates":[[[26.094409,44.62981],[26.094368,44.629782],[26.094314,44.629821],[26.094355,44.629849],[26.094409,44.62981]]]}},{"type":"Feature","properties":{"tip":"cladire","clasa":"cladire"},"geometry":{"type":"Polygon","coordinates":[[[26.094322,44.629873],[26.094439,44.629955],[26.094526,44.629893],[26.094409,44.62981],[26.094355,44.629849],[26.094322,44.629873]]]}},{"type":"Feature","properties":{"tip":"cladire","clasa":"cladire"},"geometry":{"type":"Polygon","coordinates":[[[26.094513,44.630019],[26.094628,44.630099],[26.094706,44.630043],[26.09459,44.629962],[26.094513,44.630019]]]}},{"type":"Feature","properties":{"tip":"cladire","clasa":"cladire"},"geometry":{"type":"Polygon","coordinates":[[[26.094282,44.630151],[26.094345,44.630214],[26.094456,44.630157],[26.094393,44.630094],[26.094282,44.630151]]]}},{"type":"Feature","properties":{"tip":"cladire","clasa":"cladire"},"geometry":{"type":"Polygon","coordinates":[[[26.094473,44.630319],[26.094556,44.630396],[26.094658,44.630339],[26.094575,44.630263],[26.094473,44.630319]]]}},{"type":"Feature","properties":{"tip":"cladire","clasa":"cladire"},"geometry":{"type":"Polygon","coordinates":[[[26.094419,44.630225],[26.094481,44.630285],[26.09458,44.630234],[26.094518,44.630173],[26.094419,44.630225]]]}},{"type":"Feature","properties":{"tip":"cladire","clasa":"cladire"},"geometry":{"type":"Polygon","coordinates":[[[26.094648,44.630485],[26.094762,44.630582],[26.094841,44.630535],[26.094727,44.630438],[26.094648,44.630485]]]}},{"type":"Feature","properties":{"tip":"cladire","clasa":"cladire"},"geometry":{"type":"Polygon","coordinates":[[[26.095855,44.630034],[26.095957,44.630106],[26.096024,44.630057],[26.095923,44.629986],[26.095855,44.630034]]]}},{"type":"Feature","properties":{"tip":"cladire","clasa":"cladire"},"geometry":{"type":"Polygon","coordinates":[[[26.094365,44.634761],[26.094518,44.63477],[26.094524,44.634715],[26.094371,44.634706],[26.094365,44.634761]]]}},{"type":"Feature","properties":{"tip":"cladire","clasa":"cladire"},"geometry":{"type":"Polygon","coordinates":[[[26.094263,44.634196],[26.094385,44.634189],[26.094364,44.634023],[26.094243,44.63403],[26.094263,44.634196]]]}},{"type":"Feature","properties":{"tip":"cladire","clasa":"cladire"},"geometry":{"type":"Polygon","coordinates":[[[26.094572,44.634147],[26.094701,44.634164],[26.094744,44.63399],[26.094615,44.633974],[26.094572,44.634147]]]}},{"type":"Feature","properties":{"tip":"cladire","clasa":"cladire"},"geometry":{"type":"Polygon","coordinates":[[[26.094403,44.634391],[26.094676,44.634409],[26.094688,44.63432],[26.094414,44.634302],[26.094403,44.634391]]]}},{"type":"Feature","properties":{"tip":"cladire","clasa":"cladire"},"geometry":{"type":"Polygon","coordinates":[[[26.094844,44.634295],[26.094964,44.634313],[26.095015,44.63413],[26.094895,44.634113],[26.094844,44.634295]]]}},{"type":"Feature","properties":{"tip":"cladire","clasa":"cladire"},"geometry":{"type":"Polygon","coordinates":[[[26.094933,44.634007],[26.095051,44.634026],[26.095099,44.633869],[26.094981,44.633851],[26.094933,44.634007]]]}},{"type":"Feature","properties":{"tip":"cladire","clasa":"cladire"},"geometry":{"type":"Polygon","coordinates":[[[26.095839,44.633794],[26.095994,44.633815],[26.096034,44.633666],[26.095879,44.633645],[26.095839,44.633794]]]}},{"type":"Feature","properties":{"tip":"cladire","clasa":"cladire"},"geometry":{"type":"Polygon","coordinates":[[[26.095662,44.632514],[26.095781,44.632471],[26.095713,44.632374],[26.095594,44.632416],[26.095662,44.632514]]]}},{"type":"Feature","properties":{"tip":"cladire","clasa":"cladire"},"geometry":{"type":"Polygon","coordinates":[[[26.09619,44.631925],[26.096336,44.631874],[26.096257,44.631759],[26.096111,44.631809],[26.09619,44.631925]]]}},{"type":"Feature","properties":{"tip":"cladire","clasa":"cladire"},"geometry":{"type":"Polygon","coordinates":[[[26.096007,44.631691],[26.096133,44.631647],[26.096066,44.631549],[26.09594,44.631593],[26.096007,44.631691]]]}},{"type":"Feature","properties":{"tip":"cladire","clasa":"cladire"},"geometry":{"type":"Polygon","coordinates":[[[26.09601,44.631213],[26.096038,44.631203],[26.096014,44.631168],[26.095986,44.631178],[26.09601,44.631213]]]}},{"type":"Feature","properties":{"tip":"cladire","clasa":"cladire"},"geometry":{"type":"Polygon","coordinates":[[[26.095867,44.631262],[26.09601,44.631213],[26.095986,44.631178],[26.095963,44.631144],[26.09582,44.631192],[26.095867,44.631262]]]}},{"type":"Feature","properties":{"tip":"cladire","clasa":"cladire"},"geometry":{"type":"Polygon","coordinates":[[[26.095945,44.63149],[26.096099,44.631435],[26.096044,44.631355],[26.095889,44.63141],[26.095945,44.63149]]]}},{"type":"Feature","properties":{"tip":"cladire","clasa":"cladire"},"geometry":{"type":"Polygon","coordinates":[[[26.095403,44.631334],[26.095547,44.631285],[26.095492,44.631203],[26.095348,44.631252],[26.095403,44.631334]]]}},{"type":"Feature","properties":{"tip":"cladire","clasa":"cladire"},"geometry":{"type":"Polygon","coordinates":[[[26.095761,44.631225],[26.095792,44.631214],[26.09575,44.631152],[26.095719,44.631162],[26.095761,44.631225]]]}},{"type":"Feature","properties":{"tip":"cladire","clasa":"cladire"},"geometry":{"type":"Polygon","coordinates":[[[26.09563,44.631269],[26.095761,44.631225],[26.095719,44.631162],[26.095696,44.631129],[26.095566,44.631173],[26.09563,44.631269]]]}},{"type":"Feature","properties":{"tip":"cladire","clasa":"cladire"},"geometry":{"type":"Polygon","coordinates":[[[26.09638,44.631197],[26.096502,44.631156],[26.096462,44.631096],[26.09634,44.631138],[26.09638,44.631197]]]}},{"type":"Feature","properties":{"tip":"cladire","clasa":"cladire"},"geometry":{"type":"Polygon","coordinates":[[[26.096261,44.633104],[26.09633,44.633114],[26.096336,44.633095],[26.096266,44.633085],[26.096261,44.633104]]]}},{"type":"Feature","properties":{"tip":"cladire","clasa":"cladire"},"geometry":{"type":"Polygon","coordinates":[[[26.096425,44.633247],[26.096478,44.633254],[26.096498,44.633187],[26.096445,44.633179],[26.096425,44.633247]]]}},{"type":"Feature","properties":{"tip":"cladire","clasa":"cladire"},"geometry":{"type":"Polygon","coordinates":[[[26.096228,44.633218],[26.096425,44.633247],[26.096445,44.633179],[26.096458,44.633132],[26.09633,44.633114],[26.096261,44.633104],[26.096228,44.633218]]]}},{"type":"Feature","properties":{"tip":"cladire","clasa":"cladire"},"geometry":{"type":"Polygon","coordinates":[[[26.096027,44.632914],[26.096042,44.632832],[26.096021,44.632829],[26.096005,44.632913],[26.096027,44.632914]]]}},{"type":"Feature","properties":{"tip":"cladire","clasa":"cladire"},"geometry":{"type":"Polygon","coordinates":[[[26.096027,44.632914],[26.096156,44.632927],[26.096191,44.632739],[26.096062,44.632726],[26.096042,44.632832],[26.096027,44.632914]]]}},{"type":"Feature","properties":{"tip":"cladire","clasa":"cladire"},"geometry":{"type":"Polygon","coordinates":[[[26.096502,44.632628],[26.09665,44.632649],[26.096678,44.632548],[26.09653,44.632527],[26.096502,44.632628]]]}},{"type":"Feature","properties":{"tip":"cladire","clasa":"cladire"},"geometry":{"type":"Polygon","coordinates":[[[26.095988,44.632249],[26.096096,44.63221],[26.095986,44.632059],[26.095878,44.632098],[26.095988,44.632249]]]}},{"type":"Feature","properties":{"tip":"cladire","clasa":"cladire"},"geometry":{"type":"Polygon","coordinates":[[[26.096411,44.632213],[26.096632,44.632138],[26.096562,44.632034],[26.096341,44.632109],[26.096411,44.632213]]]}},{"type":"Feature","properties":{"tip":"cladire","clasa":"cladire"},"geometry":{"type":"Polygon","coordinates":[[[26.095351,44.632452],[26.095485,44.632403],[26.095384,44.632263],[26.09525,44.632312],[26.095351,44.632452]]]}},{"type":"Feature","properties":{"tip":"cladire","clasa":"cladire"},"geometry":{"type":"Polygon","coordinates":[[[26.095496,44.633176],[26.095725,44.633188],[26.095737,44.633074],[26.095508,44.633061],[26.095496,44.633176]]]}},{"type":"Feature","properties":{"tip":"cladire","clasa":"cladire"},"geometry":{"type":"Polygon","coordinates":[[[26.095016,44.633719],[26.095136,44.633736],[26.095182,44.633573],[26.095061,44.633556],[26.095016,44.633719]]]}},{"type":"Feature","properties":{"tip":"cladire","clasa":"cladire"},"geometry":{"type":"Polygon","coordinates":[[[26.095079,44.633434],[26.09519,44.63344],[26.095198,44.633363],[26.095087,44.633357],[26.095079,44.633434]]]}},{"type":"Feature","properties":{"tip":"cladire","clasa":"cladire"},"geometry":{"type":"Polygon","coordinates":[[[26.094843,44.633413],[26.09497,44.633421],[26.094982,44.63333],[26.094855,44.633322],[26.094843,44.633413]]]}},{"type":"Feature","properties":{"tip":"cladire","clasa":"cladire"},"geometry":{"type":"Polygon","coordinates":[[[26.094607,44.633393],[26.094745,44.633402],[26.094756,44.633319],[26.094618,44.633309],[26.094607,44.633393]]]}},{"type":"Feature","properties":{"tip":"cladire","clasa":"cladire"},"geometry":{"type":"Polygon","coordinates":[[[26.094377,44.633376],[26.094506,44.633383],[26.094515,44.6333],[26.094386,44.633293],[26.094377,44.633376]]]}},{"type":"Feature","properties":{"tip":"cladire","clasa":"cladire"},"geometry":{"type":"Polygon","coordinates":[[[26.094164,44.633358],[26.094298,44.633365],[26.094307,44.633279],[26.094173,44.633272],[26.094164,44.633358]]]}},{"type":"Feature","properties":{"tip":"cladire","clasa":"cladire"},"geometry":{"type":"Polygon","coordinates":[[[26.094234,44.633899],[26.094351,44.633891],[26.094328,44.633728],[26.094211,44.633736],[26.094234,44.633899]]]}},{"type":"Feature","properties":{"tip":"cladire","clasa":"cladire"},"geometry":{"type":"Polygon","coordinates":[[[26.094524,44.633834],[26.094789,44.633851],[26.094801,44.633761],[26.094535,44.633744],[26.094524,44.633834]]]}},{"type":"Feature","properties":{"tip":"cladire","clasa":"cladire"},"geometry":{"type":"Polygon","coordinates":[[[26.09456,44.633608],[26.094831,44.633625],[26.09484,44.633544],[26.094569,44.633528],[26.09456,44.633608]]]}},{"type":"Feature","properties":{"tip":"cladire","clasa":"cladire"},"geometry":{"type":"Polygon","coordinates":[[[26.094191,44.633583],[26.094422,44.633594],[26.09443,44.633512],[26.094199,44.6335],[26.094191,44.633583]]]}},{"type":"Feature","properties":{"tip":"cladire","clasa":"cladire"},"geometry":{"type":"Polygon","coordinates":[[[26.093621,44.633688],[26.093753,44.633663],[26.093712,44.633548],[26.093579,44.633572],[26.093621,44.633688]]]}},{"type":"Feature","properties":{"tip":"cladire","clasa":"cladire"},"geometry":{"type":"Polygon","coordinates":[[[26.093852,44.633621],[26.093997,44.633596],[26.093953,44.633465],[26.093807,44.63349],[26.093852,44.633621]]]}},{"type":"Feature","properties":{"tip":"cladire","clasa":"cladire"},"geometry":{"type":"Polygon","coordinates":[[[26.088154,44.633858],[26.088077,44.633724],[26.087947,44.633762],[26.088024,44.633896],[26.088154,44.633858]]]}},{"type":"Feature","properties":{"tip":"cladire","clasa":"cladire"},"geometry":{"type":"Polygon","coordinates":[[[26.088019,44.634016],[26.088212,44.63396],[26.088154,44.633858],[26.088024,44.633896],[26.087961,44.633914],[26.088019,44.634016]]]}},{"type":"Feature","properties":{"tip":"cladire","clasa":"cladire"},"geometry":{"type":"Polygon","coordinates":[[[26.088403,44.6342],[26.08854,44.634162],[26.08849,44.634068],[26.088352,44.634105],[26.088403,44.6342]]]}},{"type":"Feature","properties":{"tip":"cladire","clasa":"cladire"},"geometry":{"type":"Polygon","coordinates":[[[26.089728,44.635011],[26.089852,44.634989],[26.089812,44.634876],[26.089688,44.634899],[26.089728,44.635011]]]}},{"type":"Feature","properties":{"tip":"cladire","clasa":"cladire"},"geometry":{"type":"Polygon","coordinates":[[[26.089897,44.635553],[26.090025,44.635533],[26.089914,44.635178],[26.089785,44.635198],[26.089897,44.635553]]]}},{"type":"Feature","properties":{"tip":"cladire","clasa":"cladire"},"geometry":{"type":"Polygon","coordinates":[[[26.088727,44.635521],[26.088909,44.635489],[26.088856,44.635334],[26.088674,44.635366],[26.088727,44.635521]]]}},{"type":"Feature","properties":{"tip":"cladire","clasa":"cladire"},"geometry":{"type":"Polygon","coordinates":[[[26.088317,44.635731],[26.088569,44.635692],[26.088535,44.635581],[26.088283,44.63562],[26.088317,44.635731]]]}},{"type":"Feature","properties":{"tip":"cladire","clasa":"cladire"},"geometry":{"type":"Polygon","coordinates":[[[26.087453,44.635813],[26.087571,44.635794],[26.087539,44.635693],[26.087421,44.635712],[26.087453,44.635813]]]}},{"type":"Feature","properties":{"tip":"cladire","clasa":"cladire"},"geometry":{"type":"Polygon","coordinates":[[[26.087645,44.636399],[26.087781,44.636373],[26.087722,44.636214],[26.087586,44.636239],[26.087645,44.636399]]]}},{"type":"Feature","properties":{"tip":"cladire","clasa":"cladire"},"geometry":{"type":"Polygon","coordinates":[[[26.08729,44.636523],[26.087404,44.636504],[26.087334,44.636294],[26.08722,44.636313],[26.08729,44.636523]]]}},{"type":"Feature","properties":{"tip":"cladire","clasa":"cladire"},"geometry":{"type":"Polygon","coordinates":[[[26.087181,44.636153],[26.08729,44.636134],[26.087216,44.635926],[26.087107,44.635945],[26.087181,44.636153]]]}},{"type":"Feature","properties":{"tip":"cladire","clasa":"cladire"},"geometry":{"type":"Polygon","coordinates":[[[26.086465,44.636372],[26.086554,44.636357],[26.086516,44.636241],[26.086426,44.636257],[26.086465,44.636372]]]}},{"type":"Feature","properties":{"tip":"cladire","clasa":"cladire"},"geometry":{"type":"Polygon","coordinates":[[[26.086297,44.636507],[26.086453,44.63648],[26.086357,44.636195],[26.086202,44.636221],[26.086297,44.636507]]]}},{"type":"Feature","properties":{"tip":"cladire","clasa":"cladire"},"geometry":{"type":"Polygon","coordinates":[[[26.085821,44.636618],[26.085954,44.636595],[26.085856,44.636309],[26.085723,44.636332],[26.085821,44.636618]]]}},{"type":"Feature","properties":{"tip":"cladire","clasa":"cladire"},"geometry":{"type":"Polygon","coordinates":[[[26.086442,44.635143],[26.086295,44.635192],[26.086347,44.635272],[26.086495,44.635222],[26.086442,44.635143]]]}},{"type":"Feature","properties":{"tip":"cladire","clasa":"cladire"},"geometry":{"type":"Polygon","coordinates":[[[26.086671,44.635317],[26.086536,44.635111],[26.086442,44.635143],[26.086495,44.635222],[26.086578,44.635348],[26.086671,44.635317]]]}},{"type":"Feature","properties":{"tip":"cladire","clasa":"cladire"},"geometry":{"type":"Polygon","coordinates":[[[26.086669,44.635697],[26.086876,44.635628],[26.086671,44.635317],[26.086578,44.635348],[26.086464,44.635386],[26.086669,44.635697]]]}},{"type":"Feature","properties":{"tip":"cladire","clasa":"cladire"},"geometry":{"type":"Polygon","coordinates":[[[26.086374,44.635866],[26.0865,44.635823],[26.086412,44.635692],[26.086285,44.635736],[26.086374,44.635866]]]}},{"type":"Feature","properties":{"tip":"cladire","clasa":"cladire"},"geometry":{"type":"Polygon","coordinates":[[[26.086151,44.635824],[26.086213,44.635801],[26.086186,44.635764],[26.086124,44.635787],[26.086151,44.635824]]]}},{"type":"Feature","properties":{"tip":"cladire","clasa":"cladire"},"geometry":{"type":"Polygon","coordinates":[[[26.086124,44.635954],[26.086317,44.635883],[26.086248,44.635788],[26.086213,44.635801],[26.086151,44.635824],[26.086055,44.635859],[26.086124,44.635954]]]}},{"type":"Feature","properties":{"tip":"cladire","clasa":"cladire"},"geometry":{"type":"Polygon","coordinates":[[[26.084822,44.635899],[26.084923,44.63596],[26.084982,44.635911],[26.084882,44.635849],[26.084822,44.635899]]]}},{"type":"Feature","properties":{"tip":"cladire","clasa":"cladire"},"geometry":{"type":"Polygon","coordinates":[[[26.084669,44.635805],[26.084822,44.635899],[26.084882,44.635849],[26.084951,44.635792],[26.084798,44.635698],[26.084669,44.635805]]]}},{"type":"Feature","properties":{"tip":"cladire","clasa":"cladire"},"geometry":{"type":"Polygon","coordinates":[[[26.079456,44.636311],[26.079608,44.636346],[26.079652,44.636251],[26.0795,44.636216],[26.079456,44.636311]]]}},{"type":"Feature","properties":{"tip":"cladire","clasa":"cladire"},"geometry":{"type":"Polygon","coordinates":[[[26.079339,44.636527],[26.079462,44.636557],[26.079552,44.636372],[26.079429,44.636342],[26.079339,44.636527]]]}},{"type":"Feature","properties":{"tip":"drum","clasa":"residential","nume":null},"geometry":{"type":"LineString","coordinates":[[26.089246,44.633017],[26.090272,44.634478],[26.090311,44.63454]]}}]}