{"type":"FeatureCollection","features":[{"type":"Feature","properties":{"tip":"drum","clasa":"trunk","nume":"Calea București"},"geometry":{"type":"LineString","coordinates":[[26.07126,44.613303],[26.070983,44.613618],[26.070512,44.614155],[26.07009,44.614647]]}},{"type":"Feature","properties":{"tip":"drum","clasa":"unclassified","nume":"Strada Electricienilor"},"geometry":{"type":"LineString","coordinates":[[26.058066,44.613461],[26.058525,44.612962],[26.058894,44.612496],[26.059213,44.612055],[26.059657,44.611447],[26.060108,44.610799],[26.060215,44.610692],[26.060392,44.610528],[26.060526,44.610394],[26.060735,44.610165],[26.060864,44.610039],[26.060982,44.609963],[26.061138,44.609879],[26.061384,44.609783],[26.06191,44.60955],[26.062017,44.609497],[26.062109,44.609436],[26.062237,44.609317],[26.062425,44.609134],[26.062511,44.609023],[26.062565,44.608993],[26.06264,44.608993],[26.06272,44.60902],[26.062903,44.609107],[26.063005,44.609126],[26.06308,44.609123],[26.06316,44.6091],[26.063224,44.609058],[26.063262,44.609016],[26.063305,44.608947],[26.063412,44.608767],[26.063509,44.608618],[26.06368,44.608393],[26.063922,44.608069],[26.063977,44.607994]]}},{"type":"Feature","properties":{"tip":"drum","clasa":"residential","nume":null},"geometry":{"type":"LineString","coordinates":[[26.043264,44.606013],[26.04256,44.607732],[26.042559,44.607786],[26.042585,44.607833],[26.042797,44.608017],[26.042912,44.608058],[26.043056,44.608093],[26.043144,44.608117],[26.043426,44.608204],[26.046194,44.609166],[26.049372,44.610242],[26.050127,44.610512],[26.056176,44.612651],[26.057154,44.613054],[26.057623,44.61326],[26.058066,44.613461],[26.058512,44.613654],[26.058717,44.613734],[26.060476,44.61437],[26.061638,44.614775],[26.061867,44.614828],[26.063106,44.615056],[26.063259,44.615071],[26.065885,44.61507]]}},{"type":"Feature","properties":{"tip":"drum","clasa":"residential","nume":"Strada Sfânta Troiță"},"geometry":{"type":"LineString","coordinates":[[26.065885,44.61507],[26.066337,44.615154],[26.06671,44.615159],[26.067724,44.615157],[26.069514,44.615174],[26.069665,44.615179]]}},{"type":"Feature","properties":{"tip":"drum","clasa":"service","nume":null},"geometry":{"type":"LineString","coordinates":[[26.064466,44.61941],[26.064731,44.618524],[26.065885,44.61507]]}},{"type":"Feature","properties":{"tip":"drum","clasa":"residential","nume":"Strada Merilor"},"geometry":{"type":"LineString","coordinates":[[26.06802,44.61873],[26.067904,44.620606],[26.067867,44.621425],[26.067833,44.622167]]}},{"type":"Feature","properties":{"tip":"drum","clasa":"residential","nume":"Strada Prunilor"},"geometry":{"type":"LineString","coordinates":[[26.06945,44.620629],[26.067904,44.620606],[26.067069,44.620593]]}},{"type":"Feature","properties":{"tip":"drum","clasa":"residential","nume":"Strada Câmpului"},"geometry":{"type":"LineString","coordinates":[[26.069521,44.619096],[26.06802,44.61873],[26.067163,44.618533]]}},{"type":"Feature","properties":{"tip":"drum","clasa":"residential","nume":null},"geometry":{"type":"LineString","coordinates":[[26.06671,44.615159],[26.066812,44.615621],[26.066887,44.615806],[26.066991,44.616271],[26.067202,44.617041],[26.067214,44.617132],[26.067219,44.617273],[26.067163,44.618533],[26.067069,44.620593],[26.067005,44.621378],[26.06701,44.622145],[26.067004,44.623082]]}},{"type":"Feature","properties":{"tip":"drum","clasa":"residential","nume":"Strada Salcâmilor"},"geometry":{"type":"LineString","coordinates":[[26.064681,44.621849],[26.064694,44.621795],[26.064762,44.621773],[26.064933,44.621763],[26.065245,44.621793],[26.065829,44.621819],[26.066287,44.621908],[26.066412,44.621938],[26.066545,44.621979],[26.06701,44.622145],[26.067833,44.622167],[26.069371,44.622201]]}},{"type":"Feature","properties":{"tip":"drum","clasa":"residential","nume":"Strada Fermei"},"geometry":{"type":"LineString","coordinates":[[26.065066,44.62248],[26.066812,44.623053],[26.066907,44.623073],[26.067004,44.623082],[26.067834,44.623098],[26.068107,44.623103],[26.069259,44.623125],[26.069314,44.623126]]}},{"type":"Feature","properties":{"tip":"apa","clasa":"apa"},"geometry":{"type":"Polygon","coordinates":[[[26.070052,44.612281],[26.070439,44.612474],[26.070731,44.61275],[26.071023,44.613042],[26.071091,44.613049],[26.071158,44.613008],[26.071852,44.61212],[26.07185,44.612016],[26.07182,44.611954],[26.071522,44.611666],[26.071179,44.6115],[26.070728,44.611328],[26.070009,44.611161],[26.06855,44.611008],[26.067292,44.610982],[26.066632,44.610927],[26.065634,44.610754],[26.06546,44.61069],[26.065166,44.610523],[26.063722,44.609743],[26.062859,44.609313],[26.062636,44.609153],[26.06256,44.609162],[26.062078,44.60956],[26.061546,44.609774],[26.063558,44.610659],[26.063863,44.610895],[26.064718,44.611429],[26.065418,44.611637],[26.066667,44.611755],[26.068563,44.611899],[26.069304,44.612043],[26.070052,44.612281]]]}},{"type":"Feature","properties":{"tip":"drum","clasa":"track","nume":null},"geometry":{"type":"LineString","coordinates":[[26.050077,44.614959],[26.055302,44.616448],[26.057351,44.617029],[26.058258,44.617292],[26.058591,44.617411],[26.058427,44.617804],[26.058317,44.618003],[26.058237,44.618188],[26.058221,44.61844],[26.058283,44.61861],[26.058522,44.618824],[26.058645,44.618902],[26.05883,44.618999],[26.059334,44.619083],[26.059892,44.619148],[26.06023,44.619158]]}},{"type":"Feature","properties":{"tip":"drum","clasa":"track","nume":null},"geometry":{"type":"LineString","coordinates":[[26.059647,44.615479],[26.058591,44.617411]]}},{"type":"Feature","properties":{"tip":"drum","clasa":"service","nume":null},"geometry":{"type":"LineString","coordinates":[[26.060476,44.61437],[26.060118,44.614894],[26.059917,44.615029],[26.059647,44.615479]]}},{"type":"Feature","properties":{"tip":"drum","clasa":"residential","nume":null},"geometry":{"type":"LineString","coordinates":[[26.07058,44.616416],[26.070086,44.616355],[26.069675,44.616321],[26.069516,44.616313]]}},{"type":"Feature","properties":{"tip":"drum","clasa":"residential","nume":null},"geometry":{"type":"LineString","coordinates":[[26.067854,44.617382],[26.06823,44.617214],[26.068638,44.617019],[26.068804,44.616954],[26.069029,44.616874],[26.069174,44.616817],[26.069292,44.616782],[26.069433,44.616742]]}},{"type":"Feature","properties":{"tip":"cladire","clasa":"cladire"},"geometry":{"type":"Polygon","coordinates":[[[26.067859,44.617918],[26.067983,44.617949],[26.068032,44.61785],[26.067908,44.617819],[26.067859,44.617918]]]}},{"type":"Feature","properties":{"tip":"cladire","clasa":"cladire"},"geometry":{"type":"Polygon","coordinates":[[[26.069129,44.62197],[26.069229,44.621972],[26.069232,44.621875],[26.069132,44.621873],[26.069129,44.62197]]]}},{"type":"Feature","properties":{"tip":"cladire","clasa":"cladire"},"geometry":{"type":"Polygon","coordinates":[[[26.069068,44.618099],[26.069225,44.618133],[26.06926,44.618051],[26.069103,44.618017],[26.069068,44.618099]]]}},{"type":"Feature","properties":{"tip":"cladire","clasa":"cladire"},"geometry":{"type":"Polygon","coordinates":[[[26.069041,44.619417],[26.069374,44.61943],[26.069379,44.619356],[26.069047,44.619343],[26.069041,44.619417]]]}},{"type":"Feature","properties":{"tip":"cladire","clasa":"cladire"},"geometry":{"type":"Polygon","coordinates":[[[26.068943,44.61699],[26.069025,44.617078],[26.069175,44.617008],[26.069094,44.61692],[26.068943,44.61699]]]}},{"type":"Feature","properties":{"tip":"cladire","clasa":"cladire"},"geometry":{"type":"Polygon","coordinates":[[[26.068754,44.621682],[26.068943,44.621685],[26.068946,44.621601],[26.068757,44.621598],[26.068754,44.621682]]]}},{"type":"Feature","properties":{"tip":"cladire","clasa":"cladire"},"geometry":{"type":"Polygon","coordinates":[[[26.07,44.617762],[26.070187,44.617777],[26.070204,44.617673],[26.070018,44.617657],[26.07,44.617762]]]}},{"type":"Feature","properties":{"tip":"cladire","clasa":"cladire"},"geometry":{"type":"Polygon","coordinates":[[[26.068655,44.619109],[26.06879,44.61911],[26.068793,44.618976],[26.068658,44.618975],[26.068655,44.619109]]]}},{"type":"Feature","properties":{"tip":"cladire","clasa":"cladire"},"geometry":{"type":"Polygon","coordinates":[[[26.068068,44.619824],[26.068187,44.619827],[26.068195,44.619684],[26.068076,44.619681],[26.068068,44.619824]]]}},{"type":"Feature","properties":{"tip":"cladire","clasa":"cladire"},"geometry":{"type":"Polygon","coordinates":[[[26.067772,44.617787],[26.067951,44.617694],[26.067874,44.617618],[26.067695,44.617711],[26.067772,44.617787]]]}},{"type":"Feature","properties":{"tip":"cladire","clasa":"cladire"},"geometry":{"type":"Polygon","coordinates":[[[26.069876,44.621976],[26.070044,44.622068],[26.070113,44.622005],[26.069945,44.621912],[26.069876,44.621976]]]}},{"type":"Feature","properties":{"tip":"cladire","clasa":"cladire"},"geometry":{"type":"Polygon","coordinates":[[[26.068605,44.618472],[26.068715,44.618499],[26.068772,44.618381],[26.068661,44.618354],[26.068605,44.618472]]]}},{"type":"Feature","properties":{"tip":"cladire","clasa":"cladire"},"geometry":{"type":"Polygon","coordinates":[[[26.067687,44.622878],[26.067903,44.622881],[26.067906,44.62278],[26.06769,44.622776],[26.067687,44.622878]]]}},{"type":"Feature","properties":{"tip":"cladire","clasa":"cladire"},"geometry":{"type":"Polygon","coordinates":[[[26.067161,44.620944],[26.067345,44.620946],[26.067347,44.620843],[26.067164,44.620841],[26.067161,44.620944]]]}},{"type":"Feature","properties":{"tip":"cladire","clasa":"cladire"},"geometry":{"type":"Polygon","coordinates":[[[26.068402,44.617429],[26.068551,44.61734],[26.068397,44.61721],[26.068248,44.617298],[26.068402,44.617429]]]}},{"type":"Feature","properties":{"tip":"cladire","clasa":"cladire"},"geometry":{"type":"Polygon","coordinates":[[[26.069899,44.61893],[26.07001,44.618957],[26.070068,44.618833],[26.069957,44.618806],[26.069899,44.61893]]]}},{"type":"Feature","properties":{"tip":"cladire","clasa":"cladire"},"geometry":{"type":"Polygon","coordinates":[[[26.069035,44.61998],[26.069242,44.619983],[26.069244,44.619906],[26.069037,44.619903],[26.069035,44.61998]]]}},{"type":"Feature","properties":{"tip":"cladire","clasa":"cladire"},"geometry":{"type":"Polygon","coordinates":[[[26.068827,44.621585],[26.069005,44.621587],[26.069007,44.621496],[26.06883,44.621494],[26.068827,44.621585]]]}},{"type":"Feature","properties":{"tip":"cladire","clasa":"cladire"},"geometry":{"type":"Polygon","coordinates":[[[26.06925,44.618932],[26.069374,44.618942],[26.069389,44.618846],[26.069265,44.618836],[26.06925,44.618932]]]}},{"type":"Feature","properties":{"tip":"cladire","clasa":"cladire"},"geometry":{"type":"Polygon","coordinates":[[[26.069741,44.61655],[26.069852,44.616543],[26.069838,44.616425],[26.069727,44.616432],[26.069741,44.61655]]]}},{"type":"Feature","properties":{"tip":"cladire","clasa":"cladire"},"geometry":{"type":"Polygon","coordinates":[[[26.068852,44.622693],[26.069187,44.622698],[26.069189,44.622619],[26.068855,44.622613],[26.068852,44.622693]]]}},{"type":"Feature","properties":{"tip":"cladire","clasa":"cladire"},"geometry":{"type":"Polygon","coordinates":[[[26.068109,44.619006],[26.068219,44.619008],[26.068222,44.618913],[26.068112,44.618911],[26.068109,44.619006]]]}},{"type":"Feature","properties":{"tip":"cladire","clasa":"cladire"},"geometry":{"type":"Polygon","coordinates":[[[26.0687,44.621462],[26.068986,44.621469],[26.06899,44.621381],[26.068704,44.621375],[26.0687,44.621462]]]}},{"type":"Feature","properties":{"tip":"cladire","clasa":"cladire"},"geometry":{"type":"Polygon","coordinates":[[[26.069074,44.621805],[26.069218,44.621809],[26.069224,44.621705],[26.06908,44.621701],[26.069074,44.621805]]]}},{"type":"Feature","properties":{"tip":"cladire","clasa":"cladire"},"geometry":{"type":"Polygon","coordinates":[[[26.067358,44.617806],[26.067476,44.617801],[26.067469,44.617727],[26.067352,44.617732],[26.067358,44.617806]]]}},{"type":"Feature","properties":{"tip":"cladire","clasa":"cladire"},"geometry":{"type":"Polygon","coordinates":[[[26.067426,44.619509],[26.067618,44.619512],[26.067622,44.619383],[26.067431,44.61938],[26.067426,44.619509]]]}},{"type":"Feature","properties":{"tip":"cladire","clasa":"cladire"},"geometry":{"type":"Polygon","coordinates":[[[26.068466,44.620859],[26.068616,44.620864],[26.068623,44.620768],[26.068473,44.620763],[26.068466,44.620859]]]}},{"type":"Feature","properties":{"tip":"cladire","clasa":"cladire"},"geometry":{"type":"Polygon","coordinates":[[[26.069814,44.61995],[26.069963,44.619952],[26.069963,44.619971],[26.07012,44.619973],[26.070138,44.619221],[26.069832,44.619217],[26.069814,44.61995]]]}},{"type":"Feature","properties":{"tip":"cladire","clasa":"cladire"},"geometry":{"type":"Polygon","coordinates":[[[26.068129,44.617561],[26.068225,44.617505],[26.068176,44.617463],[26.06808,44.617518],[26.068129,44.617561]]]}},{"type":"Feature","properties":{"tip":"cladire","clasa":"cladire"},"geometry":{"type":"Polygon","coordinates":[[[26.068264,44.618579],[26.06837,44.618607],[26.068425,44.618501],[26.068319,44.618473],[26.068264,44.618579]]]}},{"type":"Feature","properties":{"tip":"cladire","clasa":"cladire"},"geometry":{"type":"Polygon","coordinates":[[[26.069941,44.618127],[26.07016,44.618158],[26.070187,44.618064],[26.069967,44.618033],[26.069941,44.618127]]]}},{"type":"Feature","properties":{"tip":"cladire","clasa":"cladire"},"geometry":{"type":"Polygon","coordinates":[[[26.067243,44.618941],[26.067367,44.618951],[26.067386,44.618834],[26.067262,44.618824],[26.067243,44.618941]]]}},{"type":"Feature","properties":{"tip":"cladire","clasa":"cladire"},"geometry":{"type":"Polygon","coordinates":[[[26.067569,44.621078],[26.067739,44.621079],[26.06774,44.620985],[26.06757,44.620984],[26.067569,44.621078]]]}},{"type":"Feature","properties":{"tip":"cladire","clasa":"cladire"},"geometry":{"type":"Polygon","coordinates":[[[26.067869,44.618528],[26.068087,44.618584],[26.068134,44.618491],[26.067916,44.618435],[26.067869,44.618528]]]}},{"type":"Feature","properties":{"tip":"cladire","clasa":"cladire"},"geometry":{"type":"Polygon","coordinates":[[[26.069659,44.621862],[26.069777,44.621924],[26.069846,44.621858],[26.069729,44.621796],[26.069659,44.621862]]]}},{"type":"Feature","properties":{"tip":"cladire","clasa":"cladire"},"geometry":{"type":"Polygon","coordinates":[[[26.068892,44.619333],[26.069038,44.619341],[26.069049,44.61923],[26.068903,44.619223],[26.068892,44.619333]]]}},{"type":"Feature","properties":{"tip":"cladire","clasa":"cladire"},"geometry":{"type":"Polygon","coordinates":[[[26.068089,44.621064],[26.068259,44.621065],[26.06826,44.620951],[26.068091,44.62095],[26.068089,44.621064]]]}},{"type":"Feature","properties":{"tip":"cladire","clasa":"cladire"},"geometry":{"type":"Polygon","coordinates":[[[26.069083,44.616897],[26.069127,44.616955],[26.069283,44.616895],[26.069239,44.616837],[26.069083,44.616897]]]}},{"type":"Feature","properties":{"tip":"cladire","clasa":"cladire"},"geometry":{"type":"Polygon","coordinates":[[[26.068059,44.621832],[26.068197,44.621836],[26.068203,44.621735],[26.068065,44.621731],[26.068059,44.621832]]]}},{"type":"Feature","properties":{"tip":"cladire","clasa":"cladire"},"geometry":{"type":"Polygon","coordinates":[[[26.06915,44.6178],[26.069272,44.617821],[26.069314,44.617696],[26.069192,44.617675],[26.06915,44.6178]]]}},{"type":"Feature","properties":{"tip":"cladire","clasa":"cladire"},"geometry":{"type":"Polygon","coordinates":[[[26.0689,44.619114],[26.069034,44.619125],[26.069051,44.619017],[26.068917,44.619006],[26.0689,44.619114]]]}},{"type":"Feature","properties":{"tip":"cladire","clasa":"cladire"},"geometry":{"type":"Polygon","coordinates":[[[26.068851,44.619789],[26.069035,44.619795],[26.06904,44.619704],[26.068856,44.619699],[26.068851,44.619789]]]}},{"type":"Feature","properties":{"tip":"cladire","clasa":"cladire"},"geometry":{"type":"Polygon","coordinates":[[[26.068672,44.617176],[26.068734,44.617232],[26.068914,44.617133],[26.068852,44.617076],[26.068672,44.617176]]]}},{"type":"Feature","properties":{"tip":"cladire","clasa":"cladire"},"geometry":{"type":"Polygon","coordinates":[[[26.068225,44.619523],[26.068482,44.619528],[26.068486,44.619403],[26.068229,44.619399],[26.068225,44.619523]]]}},{"type":"Feature","properties":{"tip":"cladire","clasa":"cladire"},"geometry":{"type":"Polygon","coordinates":[[[26.068821,44.618821],[26.068972,44.618859],[26.069016,44.61877],[26.068865,44.618732],[26.068821,44.618821]]]}},{"type":"Feature","properties":{"tip":"cladire","clasa":"cladire"},"geometry":{"type":"Polygon","coordinates":[[[26.068261,44.622578],[26.06841,44.62258],[26.068417,44.622379],[26.068267,44.622377],[26.068261,44.622578]]]}},{"type":"Feature","properties":{"tip":"cladire","clasa":"cladire"},"geometry":{"type":"Polygon","coordinates":[[[26.067467,44.620011],[26.067657,44.620019],[26.067665,44.619921],[26.067475,44.619913],[26.067467,44.620011]]]}},{"type":"Feature","properties":{"tip":"cladire","clasa":"cladire"},"geometry":{"type":"Polygon","coordinates":[[[26.069132,44.620752],[26.069302,44.620753],[26.069303,44.620658],[26.069133,44.620657],[26.069132,44.620752]]]}},{"type":"Feature","properties":{"tip":"cladire","clasa":"cladire"},"geometry":{"type":"Polygon","coordinates":[[[26.067547,44.62131],[26.067715,44.621315],[26.067719,44.621226],[26.067604,44.621223],[26.067552,44.621222],[26.067547,44.62131]]]}},{"type":"Feature","properties":{"tip":"cladire","clasa":"cladire"},"geometry":{"type":"Polygon","coordinates":[[[26.0686,44.617339],[26.06868,44.617298],[26.068605,44.617222],[26.068525,44.617263],[26.0686,44.617339]]]}},{"type":"Feature","properties":{"tip":"cladire","clasa":"cladire"},"geometry":{"type":"Polygon","coordinates":[[[26.06847,44.618644],[26.068641,44.618681],[26.068686,44.618575],[26.068515,44.618539],[26.06847,44.618644]]]}},{"type":"Feature","properties":{"tip":"cladire","clasa":"cladire"},"geometry":{"type":"Polygon","coordinates":[[[26.069111,44.615986],[26.06928,44.615957],[26.069206,44.615742],[26.069037,44.615771],[26.069111,44.615986]]]}},{"type":"Feature","properties":{"tip":"cladire","clasa":"cladire"},"geometry":{"type":"Polygon","coordinates":[[[26.06873,44.620432],[26.068922,44.62043],[26.068918,44.620286],[26.068727,44.620289],[26.06873,44.620432]]]}},{"type":"Feature","properties":{"tip":"cladire","clasa":"cladire"},"geometry":{"type":"Polygon","coordinates":[[[26.067582,44.620965],[26.067735,44.620965],[26.067735,44.620894],[26.067582,44.620894],[26.067582,44.620965]]]}},{"type":"Feature","properties":{"tip":"cladire","clasa":"cladire"},"geometry":{"type":"Polygon","coordinates":[[[26.069992,44.61865],[26.070135,44.618683],[26.070174,44.618597],[26.070031,44.618564],[26.069992,44.61865]]]}},{"type":"Feature","properties":{"tip":"cladire","clasa":"cladire"},"geometry":{"type":"Polygon","coordinates":[[[26.069844,44.616117],[26.070022,44.616131],[26.07004,44.61602],[26.069861,44.616005],[26.069844,44.616117]]]}},{"type":"Feature","properties":{"tip":"cladire","clasa":"cladire"},"geometry":{"type":"Polygon","coordinates":[[[26.067406,44.618811],[26.067563,44.618828],[26.067593,44.618691],[26.067436,44.618673],[26.067406,44.618811]]]}},{"type":"Feature","properties":{"tip":"cladire","clasa":"cladire"},"geometry":{"type":"Polygon","coordinates":[[[26.070024,44.618959],[26.070104,44.618976],[26.070131,44.618912],[26.070051,44.618894],[26.070024,44.618959]]]}},{"type":"Feature","properties":{"tip":"cladire","clasa":"cladire"},"geometry":{"type":"Polygon","coordinates":[[[26.06887,44.621775],[26.069064,44.621779],[26.069067,44.621709],[26.068873,44.621705],[26.06887,44.621775]]]}},{"type":"Feature","properties":{"tip":"cladire","clasa":"cladire"},"geometry":{"type":"Polygon","coordinates":[[[26.068423,44.619017],[26.068545,44.61902],[26.068548,44.618939],[26.068426,44.618937],[26.068423,44.619017]]]}},{"type":"Feature","properties":{"tip":"cladire","clasa":"cladire"},"geometry":{"type":"Polygon","coordinates":[[[26.068261,44.620776],[26.068418,44.620776],[26.068418,44.620665],[26.068261,44.620665],[26.068261,44.620776]]]}},{"type":"Feature","properties":{"tip":"cladire","clasa":"cladire"},"geometry":{"type":"Polygon","coordinates":[[[26.068619,44.622034],[26.068782,44.622037],[26.068788,44.621877],[26.068625,44.621873],[26.068619,44.622034]]]}},{"type":"Feature","properties":{"tip":"cladire","clasa":"cladire"},"geometry":{"type":"Polygon","coordinates":[[[26.067304,44.617438],[26.067443,44.617415],[26.067415,44.617328],[26.067275,44.617351],[26.067304,44.617438]]]}},{"type":"Feature","properties":{"tip":"cladire","clasa":"cladire"},"geometry":{"type":"Polygon","coordinates":[[[26.067701,44.619159],[26.067817,44.619159],[26.067817,44.619078],[26.067701,44.619078],[26.067701,44.619159]]]}},{"type":"Feature","properties":{"tip":"cladire","clasa":"cladire"},"geometry":{"type":"Polygon","coordinates":[[[26.069151,44.620543],[26.069289,44.620545],[26.069291,44.620471],[26.069153,44.620469],[26.069151,44.620543]]]}},{"type":"Feature","properties":{"tip":"cladire","clasa":"cladire"},"geometry":{"type":"Polygon","coordinates":[[[26.068162,44.618548],[26.068229,44.618566],[26.068285,44.618456],[26.068219,44.618439],[26.068162,44.618548]]]}},{"type":"Feature","properties":{"tip":"cladire","clasa":"cladire"},"geometry":{"type":"Polygon","coordinates":[[[26.068744,44.619541],[26.069027,44.619546],[26.069031,44.619417],[26.068748,44.619413],[26.068744,44.619541]]]}},{"type":"Feature","properties":{"tip":"cladire","clasa":"cladire"},"geometry":{"type":"Polygon","coordinates":[[[26.068725,44.622327],[26.069052,44.622339],[26.069057,44.622264],[26.068731,44.622253],[26.068725,44.622327]]]}},{"type":"Feature","properties":{"tip":"cladire","clasa":"cladire"},"geometry":{"type":"Polygon","coordinates":[[[26.068024,44.621149],[26.068156,44.621148],[26.068155,44.621069],[26.068023,44.62107],[26.068024,44.621149]]]}},{"type":"Feature","properties":{"tip":"cladire","clasa":"cladire"},"geometry":{"type":"Polygon","coordinates":[[[26.069155,44.621501],[26.069295,44.621504],[26.0693,44.621378],[26.06916,44.621375],[26.069156,44.621472],[26.069155,44.621501]]]}},{"type":"Feature","properties":{"tip":"cladire","clasa":"cladire"},"geometry":{"type":"Polygon","coordinates":[[[26.069783,44.621743],[26.069788,44.621513],[26.069945,44.621516],[26.069945,44.621625],[26.069945,44.621674],[26.070013,44.621675],[26.070011,44.621747],[26.069783,44.621743]]]}},{"type":"Feature","properties":{"tip":"cladire","clasa":"cladire"},"geometry":{"type":"Polygon","coordinates":[[[26.069027,44.621471],[26.069156,44.621472],[26.06916,44.621375],[26.069097,44.621374],[26.069096,44.621416],[26.069033,44.621414],[26.069027,44.621471]]]}},{"type":"Feature","properties":{"tip":"drum","clasa":"trunk","nume":"Șoseaua București-Ploiești"},"geometry":{"type":"LineString","coordinates":[[26.07009,44.614647],[26.069973,44.614799],[26.069871,44.614966],[26.069766,44.615182]]}},{"type":"Feature","properties":{"tip":"drum","clasa":"unclassified","nume":null},"geometry":{"type":"LineString","coordinates":[[26.071573,44.614854],[26.071432,44.614928],[26.071131,44.615013],[26.070724,44.615099],[26.070457,44.615161],[26.07014,44.615193],[26.069934,44.615194],[26.069766,44.615182]]}},{"type":"Feature","properties":{"tip":"cladire","clasa":"cladire"},"geometry":{"type":"Polygon","coordinates":[[[26.06504,44.622697],[26.065378,44.622812],[26.065424,44.622743],[26.065086,44.622628],[26.06504,44.622697]]]}},{"type":"Feature","properties":{"tip":"cladire","clasa":"cladire"},"geometry":{"type":"Polygon","coordinates":[[[26.065597,44.622903],[26.065701,44.622936],[26.065783,44.622805],[26.065679,44.622772],[26.065597,44.622903]]]}},{"type":"Feature","properties":{"tip":"cladire","clasa":"cladire"},"geometry":{"type":"Polygon","coordinates":[[[26.064712,44.622518],[26.064802,44.622549],[26.064938,44.62235],[26.064849,44.622319],[26.064712,44.622518]]]}},{"type":"Feature","properties":{"tip":"cladire","clasa":"cladire"},"geometry":{"type":"Polygon","coordinates":[[[26.068558,44.622878],[26.068566,44.622767],[26.068743,44.622774],[26.068739,44.622826],[26.068799,44.622829],[26.068794,44.622886],[26.068558,44.622878]]]}},{"type":"Feature","properties":{"tip":"drum","clasa":"service","nume":null},"geometry":{"type":"LineString","coordinates":[[26.068296,44.615859],[26.068596,44.61588],[26.068797,44.615908],[26.068894,44.615933],[26.069028,44.615981],[26.069084,44.616013],[26.069138,44.616017],[26.069363,44.616023],[26.069427,44.61602]]}},{"type":"Feature","properties":{"tip":"cladire","clasa":"cladire"},"geometry":{"type":"Polygon","coordinates":[[[26.069967,44.617632],[26.070155,44.617631],[26.070154,44.617568],[26.069966,44.617569],[26.069967,44.617632]]]}},{"type":"Feature","properties":{"tip":"cladire","clasa":"cladire"},"geometry":{"type":"Polygon","coordinates":[[[26.069026,44.617579],[26.069265,44.617615],[26.069288,44.617535],[26.069049,44.6175],[26.069026,44.617579]]]}},{"type":"Feature","properties":{"tip":"cladire","clasa":"cladire"},"geometry":{"type":"Polygon","coordinates":[[[26.070109,44.616533],[26.069972,44.616535],[26.069852,44.616543],[26.069838,44.616425],[26.069959,44.61642],[26.069956,44.616384],[26.070125,44.616389],[26.070109,44.616533]]]}},{"type":"Feature","properties":{"tip":"drum","clasa":"residential","nume":null},"geometry":{"type":"LineString","coordinates":[[26.071382,44.61738],[26.071222,44.617369],[26.07102,44.617346],[26.069602,44.617207]]}},{"type":"Feature","properties":{"tip":"cladire","clasa":"cladire"},"geometry":{"type":"Polygon","coordinates":[[[26.069075,44.618213],[26.069255,44.618255],[26.069291,44.618176],[26.069111,44.618134],[26.069075,44.618213]]]}},{"type":"Feature","properties":{"tip":"cladire","clasa":"cladire"},"geometry":{"type":"Polygon","coordinates":[[[26.067957,44.61579],[26.067966,44.615643],[26.068231,44.615651],[26.068225,44.615745],[26.068188,44.615744],[26.068185,44.615797],[26.067957,44.61579]]]}},{"type":"Feature","properties":{"tip":"cladire","clasa":"cladire"},"geometry":{"type":"Polygon","coordinates":[[[26.068862,44.616899],[26.069016,44.616843],[26.069004,44.616826],[26.069149,44.616774],[26.069093,44.616696],[26.069045,44.616714],[26.069032,44.616696],[26.068992,44.616711],[26.068998,44.61672],[26.068839,44.616781],[26.068868,44.616818],[26.068819,44.616838],[26.068862,44.616899]]]}},{"type":"Feature","properties":{"tip":"drum","clasa":"residential","nume":null},"geometry":{"type":"LineString","coordinates":[[26.069656,44.615478],[26.069807,44.615505],[26.069991,44.61554],[26.070281,44.615588],[26.070428,44.615626],[26.0706,44.615668],[26.07079,44.615687],[26.070925,44.6157],[26.071271,44.615738],[26.071364,44.615775],[26.071405,44.615801],[26.071407,44.61583],[26.071257,44.616053]]}},{"type":"Feature","properties":{"tip":"drum","clasa":"service","nume":null},"geometry":{"type":"LineString","coordinates":[[26.072004,44.622266],[26.071518,44.622006],[26.071433,44.621961],[26.069975,44.621184],[26.069783,44.621081],[26.069676,44.621024],[26.069568,44.620967]]}},{"type":"Feature","properties":{"tip":"cladire","clasa":"cladire"},"geometry":{"type":"Polygon","coordinates":[[[26.069854,44.617524],[26.070099,44.617518],[26.070095,44.617434],[26.06985,44.61744],[26.069854,44.617524]]]}},{"type":"Feature","properties":{"tip":"cladire","clasa":"cladire"},"geometry":{"type":"Polygon","coordinates":[[[26.06893,44.616379],[26.06911,44.61634],[26.069096,44.616307],[26.069143,44.616297],[26.069122,44.616248],[26.068895,44.616296],[26.06893,44.616379]]]}},{"type":"Feature","properties":{"tip":"cladire","clasa":"cladire"},"geometry":{"type":"Polygon","coordinates":[[[26.069047,44.618384],[26.069091,44.618283],[26.069282,44.618326],[26.069251,44.618397],[26.069204,44.618386],[26.069191,44.618416],[26.069047,44.618384]]]}},{"type":"Feature","properties":{"tip":"drum","clasa":"footway","nume":null},"geometry":{"type":"LineString","coordinates":[[26.069462,44.617297],[26.069744,44.617283]]}},{"type":"Feature","properties":{"tip":"cladire","clasa":"cladire"},"geometry":{"type":"Polygon","coordinates":[[[26.068726,44.61638],[26.068812,44.616363],[26.068795,44.616322],[26.068709,44.616339],[26.068726,44.61638]]]}},{"type":"Feature","properties":{"tip":"cladire","clasa":"cladire"},"geometry":{"type":"Polygon","coordinates":[[[26.068684,44.616238],[26.068813,44.616234],[26.068808,44.616153],[26.068679,44.616156],[26.068684,44.616238]]]}},{"type":"Feature","properties":{"tip":"cladire","clasa":"cladire"},"geometry":{"type":"Polygon","coordinates":[[[26.067161,44.616585],[26.067459,44.616547],[26.06744,44.616466],[26.067141,44.616505],[26.067161,44.616585]]]}},{"type":"Feature","properties":{"tip":"cladire","clasa":"cladire"},"geometry":{"type":"Polygon","coordinates":[[[26.067414,44.616397],[26.067597,44.616398],[26.067597,44.616381],[26.067618,44.616381],[26.067618,44.616321],[26.067597,44.616321],[26.067597,44.616309],[26.067576,44.616309],[26.067576,44.616267],[26.067471,44.616266],[26.067471,44.616327],[26.067436,44.616326],[26.067436,44.616375],[26.067414,44.616375],[26.067414,44.616397]]]}},{"type":"Feature","properties":{"tip":"cladire","clasa":"cladire"},"geometry":{"type":"Polygon","coordinates":[[[26.06785,44.615545],[26.067848,44.615511],[26.067846,44.615483],[26.067944,44.61548],[26.067955,44.61547],[26.067976,44.615462],[26.067998,44.615461],[26.068013,44.615464],[26.068024,44.61547],[26.068033,44.615479],[26.068062,44.615479],[26.068078,44.615484],[26.068092,44.615493],[26.068094,44.615502],[26.068096,44.615511],[26.068087,44.615525],[26.068071,44.615534],[26.068039,44.615535],[26.068027,44.615549],[26.06801,44.615555],[26.067984,44.615556],[26.067965,44.615551],[26.067951,44.615542],[26.06785,44.615545]]]}},{"type":"Feature","properties":{"tip":"drum","clasa":"footway","nume":null},"geometry":{"type":"LineString","coordinates":[[26.067848,44.615511],[26.067755,44.615512],[26.067752,44.615464],[26.067745,44.615381],[26.067738,44.615292],[26.067724,44.615157]]}},{"type":"Feature","properties":{"tip":"cladire","clasa":"cladire"},"geometry":{"type":"Polygon","coordinates":[[[26.069878,44.619906],[26.070055,44.619907],[26.070064,44.619289],[26.069886,44.619288],[26.069878,44.619906]]]}},{"type":"Feature","properties":{"tip":"cladire","clasa":"cladire"},"geometry":{"type":"Polygon","coordinates":[[[26.068779,44.620214],[26.06878,44.62009],[26.068975,44.62009],[26.068974,44.620186],[26.068923,44.620186],[26.068923,44.620214],[26.068779,44.620214]]]}},{"type":"Feature","properties":{"tip":"cladire","clasa":"cladire"},"geometry":{"type":"Polygon","coordinates":[[[26.067548,44.62025],[26.06778,44.620258],[26.067784,44.620201],[26.067733,44.620199],[26.067735,44.620159],[26.067555,44.620153],[26.067548,44.62025]]]}},{"type":"Feature","properties":{"tip":"cladire","clasa":"cladire"},"geometry":{"type":"Polygon","coordinates":[[[26.067571,44.620505],[26.067755,44.620511],[26.067759,44.620461],[26.067718,44.62046],[26.067721,44.620415],[26.067578,44.62041],[26.067571,44.620505]]]}},{"type":"Feature","properties":{"tip":"cladire","clasa":"cladire"},"geometry":{"type":"Polygon","coordinates":[[[26.069113,44.616485],[26.069273,44.616459],[26.069248,44.61638],[26.069088,44.616405],[26.069113,44.616485]]]}},{"type":"Feature","properties":{"tip":"cladire","clasa":"cladire"},"geometry":{"type":"Polygon","coordinates":[[[26.069142,44.615547],[26.069237,44.615576],[26.069302,44.615468],[26.069208,44.615439],[26.069142,44.615547]]]}},{"type":"Feature","properties":{"tip":"cladire","clasa":"cladire"},"geometry":{"type":"Polygon","coordinates":[[[26.068261,44.622812],[26.068399,44.622818],[26.068409,44.622709],[26.068271,44.622703],[26.068261,44.622812]]]}},{"type":"Feature","properties":{"tip":"cladire","clasa":"cladire"},"geometry":{"type":"Polygon","coordinates":[[[26.068325,44.622289],[26.068427,44.62229],[26.06843,44.622185],[26.068328,44.622184],[26.068325,44.622289]]]}},{"type":"Feature","properties":{"tip":"cladire","clasa":"cladire"},"geometry":{"type":"Polygon","coordinates":[[[26.06758,44.618382],[26.067722,44.61842],[26.067788,44.618296],[26.067645,44.618257],[26.06758,44.618382]]]}},{"type":"Feature","properties":{"tip":"cladire","clasa":"cladire"},"geometry":{"type":"Polygon","coordinates":[[[26.069964,44.617048],[26.07012,44.617057],[26.070126,44.617001],[26.069971,44.616991],[26.069964,44.617048]]]}},{"type":"Feature","properties":{"tip":"cladire","clasa":"cladire"},"geometry":{"type":"Polygon","coordinates":[[[26.068991,44.621119],[26.069156,44.621126],[26.069162,44.621041],[26.068998,44.621034],[26.068991,44.621119]]]}},{"type":"Feature","properties":{"tip":"cladire","clasa":"cladire"},"geometry":{"type":"Polygon","coordinates":[[[26.069958,44.617352],[26.070109,44.617358],[26.070114,44.61729],[26.069963,44.617284],[26.069958,44.617352]]]}},{"type":"Feature","properties":{"tip":"cladire","clasa":"cladire"},"geometry":{"type":"Polygon","coordinates":[[[26.068877,44.621361],[26.069134,44.621365],[26.069136,44.62129],[26.068879,44.621287],[26.068877,44.621361]]]}},{"type":"Feature","properties":{"tip":"cladire","clasa":"cladire"},"geometry":{"type":"Polygon","coordinates":[[[26.067371,44.618423],[26.067462,44.618446],[26.067522,44.618328],[26.067432,44.618304],[26.067371,44.618423]]]}},{"type":"Feature","properties":{"tip":"cladire","clasa":"cladire"},"geometry":{"type":"Polygon","coordinates":[[[26.069196,44.621686],[26.069277,44.621689],[26.069281,44.621618],[26.069201,44.621615],[26.069196,44.621686]]]}},{"type":"Feature","properties":{"tip":"cladire","clasa":"cladire"},"geometry":{"type":"Polygon","coordinates":[[[26.066672,44.622239],[26.066837,44.622286],[26.066893,44.622189],[26.066728,44.622141],[26.066672,44.622239]]]}},{"type":"Feature","properties":{"tip":"cladire","clasa":"cladire"},"geometry":{"type":"Polygon","coordinates":[[[26.069058,44.622443],[26.069157,44.622444],[26.069159,44.622332],[26.06906,44.622331],[26.069058,44.622443]]]}},{"type":"Feature","properties":{"tip":"cladire","clasa":"cladire"},"geometry":{"type":"Polygon","coordinates":[[[26.068799,44.620968],[26.068965,44.620975],[26.068972,44.620891],[26.068805,44.620885],[26.068799,44.620968]]]}},{"type":"Feature","properties":{"tip":"cladire","clasa":"cladire"},"geometry":{"type":"Polygon","coordinates":[[[26.070138,44.617543],[26.070265,44.617547],[26.07027,44.617467],[26.070143,44.617463],[26.070138,44.617543]]]}},{"type":"Feature","properties":{"tip":"cladire","clasa":"cladire"},"geometry":{"type":"Polygon","coordinates":[[[26.070162,44.617962],[26.070293,44.617968],[26.070301,44.617874],[26.07017,44.617868],[26.070162,44.617962]]]}},{"type":"Feature","properties":{"tip":"cladire","clasa":"cladire"},"geometry":{"type":"Polygon","coordinates":[[[26.069873,44.620538],[26.069885,44.620277],[26.070041,44.620281],[26.070028,44.620542],[26.069873,44.620538]]]}},{"type":"Feature","properties":{"tip":"drum","clasa":"residential","nume":"Strada Fermei"},"geometry":{"type":"LineString","coordinates":[[26.064681,44.621849],[26.064698,44.621895],[26.065066,44.62248]]}},{"type":"Feature","properties":{"tip":"drum","clasa":"trunk","nume":"Calea București"},"geometry":{"type":"LineString","coordinates":[[26.070022,44.614618],[26.070446,44.614124],[26.070912,44.613584],[26.07119,44.613273]]}},{"type":"Feature","properties":{"tip":"drum","clasa":"trunk","nume":"Șoseaua București-Ploiești"},"geometry":{"type":"LineString","coordinates":[[26.069665,44.615179],[26.06979,44.614943],[26.069901,44.614773],[26.070022,44.614618]]}},{"type":"Feature","properties":{"tip":"drum","clasa":"trunk","nume":"Calea București"},"geometry":{"type":"LineString","coordinates":[[26.06879,44.633736],[26.068811,44.633257],[26.068852,44.6324],[26.068886,44.631659],[26.068986,44.629581],[26.069038,44.628651],[26.069058,44.628282],[26.069061,44.628213],[26.069111,44.627436],[26.069135,44.626959],[26.069145,44.626723],[26.06919,44.625688],[26.069252,44.624353],[26.069287,44.623674],[26.069314,44.623126],[26.069339,44.622659],[26.069371,44.622201],[26.069409,44.621525],[26.069438,44.620978],[26.06945,44.620629],[26.069481,44.619969],[26.069521,44.619096],[26.06953,44.618869],[26.06955,44.618313],[26.069558,44.617941],[26.069539,44.617581],[26.069488,44.617193],[26.069458,44.616962],[26.069433,44.616742],[26.069416,44.616525],[26.069407,44.616312],[26.069427,44.61602],[26.06948,44.615707],[26.0695,44.615636],[26.06955,44.615458]]}},{"type":"Feature","properties":{"tip":"drum","clasa":"trunk","nume":"Calea București"},"geometry":{"type":"LineString","coordinates":[[26.069766,44.615182],[26.069703,44.61534],[26.069656,44.615478],[26.069584,44.615719],[26.069533,44.616029],[26.069516,44.616313],[26.069526,44.616521],[26.069542,44.616736],[26.069567,44.616954],[26.069602,44.617207],[26.069624,44.617383],[26.069648,44.617575],[26.069668,44.61794],[26.069659,44.618315],[26.069639,44.618872],[26.069595,44.619972],[26.069585,44.620163],[26.069568,44.620967],[26.069528,44.621489],[26.069526,44.621529],[26.069485,44.6222],[26.069451,44.622804],[26.069436,44.623058],[26.06943,44.623121],[26.069423,44.623312],[26.069411,44.623608],[26.069371,44.624358],[26.069332,44.625131]]}},{"type":"Feature","properties":{"tip":"drum","clasa":"service","nume":null},"geometry":{"type":"LineString","coordinates":[[26.062454,44.618171],[26.064731,44.618524]]}},{"type":"Feature","properties":{"tip":"drum","clasa":"service","nume":null},"geometry":{"type":"LineString","coordinates":[[26.06977,44.620055],[26.069772,44.619982],[26.069803,44.619106],[26.069807,44.618946]]}},{"type":"Feature","properties":{"tip":"drum","clasa":"service","nume":null},"geometry":{"type":"LineString","coordinates":[[26.069803,44.619106],[26.070047,44.619144],[26.070083,44.619152],[26.070112,44.619167],[26.070137,44.619187],[26.070165,44.619232],[26.070187,44.619929],[26.070178,44.619959],[26.070151,44.619997]]}},{"type":"Feature","properties":{"tip":"drum","clasa":"service","nume":null},"geometry":{"type":"LineString","coordinates":[[26.069772,44.619982],[26.070006,44.620013],[26.0701,44.620016],[26.070151,44.619997]]}},{"type":"Feature","properties":{"tip":"drum","clasa":"service","nume":null},"geometry":{"type":"LineString","coordinates":[[26.059213,44.612055],[26.059617,44.612211]]}},{"type":"Feature","properties":{"tip":"drum","clasa":"service","nume":null},"geometry":{"type":"LineString","coordinates":[[26.061693,44.613354],[26.061384,44.613228],[26.05942,44.612468],[26.059617,44.612211]]}},{"type":"Feature","properties":{"tip":"drum","clasa":"service","nume":null},"geometry":{"type":"LineString","coordinates":[[26.059617,44.612211],[26.059813,44.611955],[26.061276,44.612448],[26.061384,44.613228]]}},{"type":"Feature","properties":{"tip":"drum","clasa":"footway","nume":null},"geometry":{"type":"LineString","coordinates":[[26.069754,44.617377],[26.069624,44.617383]]}},{"type":"Feature","properties":{"tip":"drum","clasa":"footway","nume":null},"geometry":{"type":"LineString","coordinates":[[26.069452,44.617196],[26.069488,44.617193]]}},{"type":"Feature","properties":{"tip":"cladire","clasa":"cladire"},"geometry":{"type":"Polygon","coordinates":[[[26.067352,44.621489],[26.067357,44.621381],[26.067549,44.621385],[26.067545,44.621493],[26.067352,44.621489]]]}},{"type":"Feature","properties":{"tip":"drum","clasa":"trunk","nume":"Calea București"},"geometry":{"type":"LineString","coordinates":[[26.06955,44.615458],[26.069605,44.615318],[26.069665,44.615179]]}},{"type":"Feature","properties":{"tip":"drum","clasa":"residential","nume":"Strada Crângului"},"geometry":{"type":"LineString","coordinates":[[26.073528,44.621773],[26.072826,44.621495],[26.071608,44.620894],[26.071528,44.620855],[26.070964,44.620608],[26.06977,44.620055],[26.069595,44.619972]]}},{"type":"Feature","properties":{"tip":"drum","clasa":"residential","nume":"Strada Morarilor"},"geometry":{"type":"LineString","coordinates":[[26.069639,44.618872],[26.069807,44.618946],[26.072562,44.620164],[26.073255,44.620471],[26.07384,44.620709],[26.074239,44.620846],[26.074558,44.620937],[26.074798,44.621001]]}},{"type":"Feature","properties":{"tip":"drum","clasa":"service","nume":null},"geometry":{"type":"LineString","coordinates":[[26.064466,44.61941],[26.064341,44.619428],[26.064212,44.619436],[26.064048,44.619436],[26.063938,44.619432],[26.063813,44.619399],[26.06208,44.618928]]}},{"type":"Feature","properties":{"tip":"drum","clasa":"service","nume":null},"geometry":{"type":"LineString","coordinates":[[26.061228,44.620525],[26.061888,44.619295]]}},{"type":"Feature","properties":{"tip":"drum","clasa":"service","nume":null},"geometry":{"type":"LineString","coordinates":[[26.064194,44.621361],[26.063352,44.62112],[26.062285,44.620819],[26.061228,44.620525],[26.060396,44.620326]]}},{"type":"Feature","properties":{"tip":"drum","clasa":"service","nume":null},"geometry":{"type":"LineString","coordinates":[[26.064317,44.619804],[26.064463,44.619939],[26.064471,44.62],[26.064463,44.620063],[26.064015,44.620928]]}},{"type":"Feature","properties":{"tip":"drum","clasa":"service","nume":null},"geometry":{"type":"LineString","coordinates":[[26.064466,44.61941],[26.064317,44.619804],[26.064121,44.619828],[26.064034,44.619874],[26.06398,44.619937],[26.063352,44.62112]]}},{"type":"Feature","properties":{"tip":"drum","clasa":"service","nume":null},"geometry":{"type":"LineString","coordinates":[[26.065829,44.621819],[26.065836,44.621558],[26.065814,44.621485],[26.065737,44.62143],[26.06531,44.621359]]}},{"type":"Feature","properties":{"tip":"cladire","clasa":"cladire"},"geometry":{"type":"Polygon","coordinates":[[[26.067071,44.622695],[26.067612,44.622729],[26.06763,44.622583],[26.067089,44.622549],[26.067071,44.622695]]]}},{"type":"Feature","properties":{"tip":"cladire","clasa":"cladire"},"geometry":{"type":"Polygon","coordinates":[[[26.066596,44.622465],[26.066797,44.622527],[26.066852,44.622437],[26.066704,44.622391],[26.066687,44.62242],[26.066633,44.622404],[26.066596,44.622465]]]}},{"type":"Feature","properties":{"tip":"cladire","clasa":"cladire"},"geometry":{"type":"Polygon","coordinates":[[[26.067219,44.623016],[26.067224,44.622725],[26.067628,44.622737],[26.067606,44.623025],[26.067219,44.623016]]]}},{"type":"Feature","properties":{"tip":"cladire","clasa":"cladire"},"geometry":{"type":"Polygon","coordinates":[[[26.067587,44.622086],[26.06774,44.62209],[26.067743,44.62201],[26.06759,44.622007],[26.067587,44.622086]]]}},{"type":"Feature","properties":{"tip":"cladire","clasa":"cladire"},"geometry":{"type":"Polygon","coordinates":[[[26.067574,44.621962],[26.067731,44.621966],[26.067734,44.621889],[26.067578,44.621886],[26.067574,44.621962]]]}},{"type":"Feature","properties":{"tip":"cladire","clasa":"cladire"},"geometry":{"type":"Polygon","coordinates":[[[26.068,44.622323],[26.068003,44.622203],[26.068116,44.622205],[26.068113,44.622325],[26.068,44.622323]]]}},{"type":"Feature","properties":{"tip":"cladire","clasa":"cladire"},"geometry":{"type":"Polygon","coordinates":[[[26.067257,44.621993],[26.067263,44.621909],[26.067294,44.621911],[26.067296,44.621855],[26.067381,44.621859],[26.067373,44.621992],[26.067257,44.621993]]]}},{"type":"Feature","properties":{"tip":"cladire","clasa":"cladire"},"geometry":{"type":"Polygon","coordinates":[[[26.067988,44.621367],[26.068185,44.621369],[26.068188,44.621267],[26.068128,44.621266],[26.068127,44.621291],[26.06799,44.621289],[26.067988,44.621367]]]}},{"type":"Feature","properties":{"tip":"cladire","clasa":"cladire"},"geometry":{"type":"Polygon","coordinates":[[[26.067512,44.621201],[26.067748,44.621206],[26.067751,44.621141],[26.067515,44.621136],[26.067512,44.621201]]]}},{"type":"Feature","properties":{"tip":"cladire","clasa":"cladire"},"geometry":{"type":"Polygon","coordinates":[[[26.068188,44.622082],[26.068328,44.622086],[26.068327,44.622111],[26.068468,44.622116],[26.068474,44.622008],[26.068324,44.622004],[26.068327,44.621964],[26.068255,44.621962],[26.068254,44.62198],[26.068219,44.621979],[26.068217,44.622008],[26.068193,44.622008],[26.068188,44.622082]]]}},{"type":"Feature","properties":{"tip":"cladire","clasa":"cladire"},"geometry":{"type":"Polygon","coordinates":[[[26.068773,44.622136],[26.068895,44.622138],[26.068897,44.622081],[26.068774,44.622079],[26.068773,44.622136]]]}},{"type":"Feature","properties":{"tip":"cladire","clasa":"cladire"},"geometry":{"type":"Polygon","coordinates":[[[26.068913,44.622135],[26.068911,44.622086],[26.068925,44.622087],[26.068925,44.622044],[26.069081,44.622045],[26.069076,44.622136],[26.068913,44.622135]]]}},{"type":"Feature","properties":{"tip":"cladire","clasa":"cladire"},"geometry":{"type":"Polygon","coordinates":[[[26.070507,44.622109],[26.070103,44.621893],[26.07026,44.621748],[26.070666,44.621969],[26.070507,44.622109]]]}},{"type":"Feature","properties":{"tip":"cladire","clasa":"cladire"},"geometry":{"type":"Polygon","coordinates":[[[26.069733,44.621472],[26.069939,44.621476],[26.069976,44.621444],[26.069893,44.621395],[26.069733,44.621391],[26.069733,44.621472]]]}},{"type":"Feature","properties":{"tip":"cladire","clasa":"cladire"},"geometry":{"type":"Polygon","coordinates":[[[26.069661,44.621679],[26.069664,44.621546],[26.069777,44.621548],[26.069774,44.62168],[26.069661,44.621679]]]}},{"type":"Feature","properties":{"tip":"cladire","clasa":"cladire"},"geometry":{"type":"Polygon","coordinates":[[[26.070277,44.621602],[26.069945,44.621418],[26.069983,44.621384],[26.069945,44.621362],[26.069997,44.621315],[26.070038,44.621337],[26.070083,44.621297],[26.070412,44.621479],[26.070277,44.621602]]]}},{"type":"Feature","properties":{"tip":"cladire","clasa":"cladire"},"geometry":{"type":"Polygon","coordinates":[[[26.070029,44.621024],[26.070109,44.62095],[26.07013,44.620963],[26.070155,44.620939],[26.07023,44.620981],[26.070128,44.621084],[26.070029,44.621024]]]}},{"type":"Feature","properties":{"tip":"drum","clasa":"service","nume":null},"geometry":{"type":"LineString","coordinates":[[26.069528,44.621489],[26.069566,44.62149],[26.069658,44.621492],[26.069895,44.621499],[26.069944,44.621505],[26.069984,44.621519],[26.070249,44.62167]]}},{"type":"Feature","properties":{"tip":"cladire","clasa":"cladire"},"geometry":{"type":"Polygon","coordinates":[[[26.070011,44.621747],[26.070013,44.621675],[26.069945,44.621674],[26.069945,44.621625],[26.070077,44.621626],[26.070076,44.621698],[26.070138,44.621699],[26.070136,44.621768],[26.070058,44.621768],[26.070059,44.621748],[26.070011,44.621747]]]}},{"type":"Feature","properties":{"tip":"cladire","clasa":"cladire"},"geometry":{"type":"Polygon","coordinates":[[[26.067892,44.618753],[26.067885,44.618852],[26.067721,44.618847],[26.067727,44.618748],[26.067892,44.618753]]]}},{"type":"Feature","properties":{"tip":"cladire","clasa":"cladire"},"geometry":{"type":"Polygon","coordinates":[[[26.067817,44.619436],[26.067655,44.619433],[26.067658,44.619358],[26.06782,44.619361],[26.067817,44.619436]]]}},{"type":"Feature","properties":{"tip":"cladire","clasa":"cladire"},"geometry":{"type":"Polygon","coordinates":[[[26.068777,44.618243],[26.068793,44.618192],[26.068972,44.618221],[26.06893,44.618355],[26.068856,44.618344],[26.068863,44.61832],[26.068805,44.618311],[26.068824,44.618251],[26.068777,44.618243]]]}},{"type":"Feature","properties":{"tip":"cladire","clasa":"cladire"},"geometry":{"type":"Polygon","coordinates":[[[26.070183,44.61673],[26.070181,44.616814],[26.069942,44.61681],[26.069945,44.616726],[26.070183,44.61673]]]}},{"type":"Feature","properties":{"tip":"cladire","clasa":"cladire"},"geometry":{"type":"Polygon","coordinates":[[[26.068122,44.621381],[26.068194,44.62138],[26.068197,44.621495],[26.068026,44.621497],[26.068025,44.621434],[26.068124,44.621433],[26.068122,44.621381]]]}},{"type":"Feature","properties":{"tip":"cladire","clasa":"cladire"},"geometry":{"type":"Polygon","coordinates":[[[26.066613,44.622875],[26.066692,44.622764],[26.066874,44.62283],[26.066803,44.622929],[26.066776,44.622919],[26.06675,44.622957],[26.066666,44.622927],[26.066685,44.622901],[26.066613,44.622875]]]}},{"type":"Feature","properties":{"tip":"cladire","clasa":"cladire"},"geometry":{"type":"Polygon","coordinates":[[[26.06851,44.621933],[26.068544,44.621934],[26.068545,44.621912],[26.068594,44.621912],[26.068589,44.622092],[26.068505,44.62209],[26.06851,44.621933]]]}},{"type":"Feature","properties":{"tip":"cladire","clasa":"cladire"},"geometry":{"type":"Polygon","coordinates":[[[26.068276,44.622692],[26.068073,44.622692],[26.068074,44.622631],[26.068276,44.622632],[26.068276,44.622692]]]}}]}